{"version": 0.6, "generator": "Overpass API 0.7.62.8 e802775f", "osm3s": {"timestamp_osm_base": "2026-01-13T20:31:00Z", "copyright": "The data included in this document is from www.openstreetmap.org. The data is made available under ODbL."}, "elements": [{"type": "node", "id": 281939099, "lat": 48.833808, "lon": 2.2980676, "tags": {"name": "Pompona", "opening_hours": "07:00-20:00; Sa,Su,PH 08:00-20:00; We closed", "ref:FR:SIRET": "90141331000011", "shop": "bakery"}}, {"type": "node", "id": 281939231, "lat": 48.8309772, "lon": 2.2928903, "tags": {"name": "Maison BJ", "opening_hours": "Tu-Su 06:00-20:45", "shop": "bakery"}}, {"type": "node", "id": 678278762, "lat": 48.8325162, "lon": 2.2974493, "tags": {"addr:postcode": "75015", "name": "Sabari Alimentation G\u00e9n\u00e9rale", "ref:FR:SIRET": "85307186800014", "shop": "convenience"}}, {"type": "node", "id": 836814947, "lat": 48.8305474, "lon": 2.2941833, "tags": {"brand": "Achielle;backfiets.nl;bicicapace;bompton;Dolly;Gazelle;Union;Vandijck", "contact:city": "Paris 15eme Arrondissement", "contact:housenumber": "77", "contact:phone": "+33 1 42 50 42 40", "contact:postcode": "75015", "contact:street": "Boulevard Lefebvre", "contact:website": "https://www.hollandbikes.com/", "name": "Holland Bikes", "note": "R\u00e9paration toutes marques", "opening_hours": "Tu-Fr 10:00-19:00", "service:bicycle:repair": "yes", "service:bicycle:retail": "yes", "shop": "bicycle", "website": "https://www.hollandbikes.com/content/73-atelier-reparation-velo-paris-15"}}, {"type": "node", "id": 934930600, "lat": 48.8279938, "lon": 2.3015522}, {"type": "node", "id": 934932156, "lat": 48.8280178, "lon": 2.3014438}, {"type": "node", "id": 934932388, "lat": 48.8281063, "lon": 2.301471}, {"type": "node", "id": 934988416, "lat": 48.8314628, "lon": 2.3022105}, {"type": "node", "id": 934988553, "lat": 48.8315896, "lon": 2.3025384}, {"type": "node", "id": 934988576, "lat": 48.8305617, "lon": 2.3018205}, {"type": "node", "id": 934988634, "lat": 48.8311973, "lon": 2.3022992}, {"type": "node", "id": 934988680, "lat": 48.831406, "lon": 2.3024263}, {"type": "node", "id": 934989331, "lat": 48.8306598, "lon": 2.3018777}, {"type": "node", "id": 934989537, "lat": 48.831255, "lon": 2.302086}, {"type": "node", "id": 934989540, "lat": 48.8306395, "lon": 2.3019592}, {"type": "node", "id": 934989906, "lat": 48.8316784, "lon": 2.302208}, {"type": "node", "id": 934990336, "lat": 48.8306218, "lon": 2.3015861}, {"type": "node", "id": 1723257593, "lat": 48.8311518, "lon": 2.3024925, "tags": {"check_date:opening_hours": "2024-04-04", "contact:city": "Paris", "contact:housenumber": "87", "contact:postcode": "75015", "contact:street": "Rue Brancion", "name": "Max Poil\u00e2ne", "opening_hours:signed": "no", "ref:FR:SIRET": "60202531400017", "shop": "bakery", "source": "cadastre-dgi-fr source : Direction G\u00e9n\u00e9rale des Imp\u00f4ts - Cadastre. Mise \u00e0 jour : 2012"}}, {"type": "node", "id": 1747138942, "lat": 48.8305014, "lon": 2.2943768, "tags": {"contact:city": "Paris", "contact:housenumber": "77", "contact:postcode": "75015", "contact:street": "Boulevard Lefebvre", "contact:website": "https://www.boucherie-duc\u0153ur-paris.fr/", "name": "Boucherie Duc\u0153ur", "opening_hours": "Tu-Sa 08:00-13:00,16:00-20:00", "shop": "butcher"}}, {"type": "node", "id": 1747138944, "lat": 48.8305831, "lon": 2.2940964, "tags": {"brand": "Proxi", "brand:wikidata": "Q3408522", "brand:wikipedia": "fr:Proxi", "contact:city": "Paris", "contact:housenumber": "77", "contact:postcode": "75015", "contact:street": "Boulevard Lefebvre", "name": "Proxi", "opening_hours": "Mo-Sa 08:00-22:00", "operator": "Proxi", "ref:FR:SIRET": "89179706000011", "shop": "convenience"}}, {"type": "node", "id": 2079256242, "lat": 48.8288446, "lon": 2.3012353, "tags": {"brand": "Franprix", "brand:wikidata": "Q2420096", "brand:wikipedia": "fr:Franprix", "name": "Franprix", "opening_hours": "Mo-Sa 07:30-22:00; Su 09:00+", "operator": "Groupe Casino", "shop": "convenience", "source": "survey", "website": "https://www.franprix.fr/magasins/5398"}}, {"type": "node", "id": 2079256277, "lat": 48.8277275, "lon": 2.3062018, "tags": {"contact:housenumber": "11", "contact:postcode": "75014", "contact:street": "Boulevard Brune", "name": "Le Fournil de Paris", "shop": "bakery", "source": "survey"}}, {"type": "node", "id": 2079256289, "lat": 48.8282338, "lon": 2.3019747, "tags": {"check_date": "2025-03-01", "contact:city": "Paris", "contact:housenumber": "100", "contact:postcode": "75015", "contact:street": "Boulevard Lefebvre", "name": "Quai d'Art", "note:fr": "Cadeaux, Objets d'art de Chine, Porcelaine, Souvenirs", "shop": "gift", "source": "survey", "wheelchair": "no"}}, {"type": "node", "id": 2079256547, "lat": 48.8277871, "lon": 2.3057703}, {"type": "node", "id": 2079256549, "lat": 48.8278084, "lon": 2.3057394}, {"type": "node", "id": 2079256551, "lat": 48.8278201, "lon": 2.3058228}, {"type": "node", "id": 2079256553, "lat": 48.8278414, "lon": 2.3057919}, {"type": "node", "id": 2079256579, "lat": 48.8287467, "lon": 2.3015897, "tags": {"contact:city": "Paris", "contact:housenumber": "169", "contact:postcode": "75015", "contact:street": "Boulevard Lefebvre", "indoor_seating": "yes", "name": "Fournil du Ciel", "opening_hours": "Mo-Sa 06:30-20:30", "outdoor_seating": "no", "ref:FR:SIRET": "83363861200014", "shop": "bakery", "source": "survey 2019"}}, {"type": "node", "id": 2252867218, "lat": 48.8285764, "lon": 2.3033016, "tags": {"brand": "Carrefour City", "brand:wikidata": "Q2940187", "brand:wikipedia": "fr:Carrefour City", "check_date:opening_hours": "2025-03-15", "contact:city": "Paris", "contact:housenumber": "19", "contact:phone": "+33 1 42 50 43 55", "contact:postcode": "75015", "contact:street": "Rue Chauvelot", "name": "Carrefour City", "opening_hours": "Mo-Sa 07:00-22:00; Su 09:00-13:00", "operator": "Groupe Carrefour", "operator:wikidata": "Q3117359", "operator:wikipedia": "fr:Groupe Carrefour", "shop": "convenience", "website": "https://www.carrefour.fr/magasin/city-paris-chauvelot", "wheelchair": "yes"}}, {"type": "node", "id": 2252867230, "lat": 48.8273089, "lon": 2.3052321, "tags": {"check_date": "2025-01-18", "contact:housenumber": "3", "contact:postcode": "75014", "contact:street": "Place de la Porte de Vanves", "name": "Bl\u00e9 D\u00e9lice", "opening_hours": "Tu-Su 06:00-21:00", "shop": "bakery"}}, {"type": "node", "id": 2256032138, "lat": 48.8285956, "lon": 2.3022555, "tags": {"check_date:opening_hours": "2024-11-01", "laundry_service": "no", "name": "Eclat", "opening_hours": "Mo-Su 07:30-22:00", "self_service": "yes", "shop": "laundry", "wheelchair": "limited"}}, {"type": "node", "id": 2256032139, "lat": 48.8287, "lon": 2.3017988, "tags": {"contact:phone": "+33 1 45 33 92 73", "female": "yes", "male": "yes", "name": "Fashion Coiffure", "opening_hours": "Mo-Sa 09:30-19:00", "shop": "hairdresser"}}, {"type": "node", "id": 2256044699, "lat": 48.8314225, "lon": 2.2921784, "tags": {"addr:housenumber": "55", "addr:postcode": "75015", "addr:street": "Boulevard Lefebvre", "contact:city": "Paris", "contact:housenumber": "55", "contact:postcode": "75015", "contact:street": "Boulevard Lefebvre", "contact:website": "https://latinomarket.fr/", "name": "Latino Market", "opening_hours": "Su 11:00-17:00; Tu-Sa 11:00-20:00", "shop": "convenience"}}, {"type": "node", "id": 2256044700, "lat": 48.8314189, "lon": 2.2918244, "tags": {"contact:city": "Paris", "contact:housenumber": "51", "contact:postcode": "75015", "contact:street": "Boulevard Lefebvre", "name": "Anita Coiffure", "shop": "hairdresser", "wheelchair": "no"}}, {"type": "node", "id": 2258795691, "lat": 48.8310052, "lon": 2.2927928, "tags": {"name": "Proxinour", "opening_hours": "Mo-Su 08:00-23:00", "shop": "convenience"}}, {"type": "node", "id": 2258810099, "lat": 48.8304208, "lon": 2.294555, "tags": {"contact:city": "Paris", "contact:housenumber": "85", "contact:postcode": "75015", "contact:street": "Boulevard Lefebvre", "name": "Pressing Fer d'or", "opening_hours": "Mo 14:00-18:00; Tu-Fr 09:00-12:00,14:00-19:00; Sa 09:00-13:00,15:00-19:00", "shop": "dry_cleaning"}}, {"type": "node", "id": 2258810105, "lat": 48.8307829, "lon": 2.2940182, "tags": {"brand": "Citro\u00ebn", "brand:wikidata": "Q6746", "contact:city": "Paris", "contact:fax": "+33 1 48 28 09 71", "contact:housenumber": "75", "contact:phone": "+33 1 44 19 20 60", "contact:postcode": "75015", "contact:street": "Boulevard Lefebvre", "name": "Citro\u00ebn Psa Retail Paris Porte Versailles", "opening_hours": "Mo-Fr 07:30-19:00; Sa 09:00-12:00, 14:00-19:00", "shop": "car_repair"}}, {"type": "node", "id": 2258810113, "lat": 48.8304028, "lon": 2.2946283, "tags": {"contact:city": "Paris", "contact:housenumber": "81 bis", "contact:postcode": "75015", "contact:street": "Boulevard Lefebvre", "female": "yes", "male": "yes", "name": "Coiffe' Mod", "opening_hours": "Tu-Fr 09:00-18:00; Sa 09:00-17:00", "shop": "hairdresser"}}, {"type": "node", "id": 2258825984, "lat": 48.8303461, "lon": 2.2948309, "tags": {"contact:city": "Paris", "contact:housenumber": "85", "contact:phone": "+33 1 42 50 41 62", "contact:postcode": "75015", "contact:street": "Boulevard Lefebvre", "name": "Au Chat Bott\u00e9", "opening_hours": "Tu-Sa 11:00-19:00", "shop": "model"}}, {"type": "node", "id": 2258852608, "lat": 48.829168, "lon": 2.299723, "tags": {"brand": "Yamaha", "brand:wikidata": "Q158888", "contact:city": "Paris", "contact:housenumber": "145", "contact:postcode": "75015", "contact:street": "Boulevard Lefebvre", "name": "Yam Paris 15", "opening_hours": "Mo-Fr 08:30-13:00,14:00-19:00", "shop": "motorcycle"}}, {"type": "node", "id": 2258852609, "lat": 48.8299037, "lon": 2.2963518, "tags": {"contact:city": "Paris", "contact:housenumber": "97", "contact:postcode": "75015", "contact:street": "Boulevard Lefebvre", "contact:website": "http://www.gayomart.fr", "name": "Gayomart", "note": "chemin\u00e9e \u00e0 l'\u00e9thanol", "shop": "fireplace"}}, {"type": "node", "id": 2258852610, "lat": 48.8288332, "lon": 2.2992898, "tags": {"contact:city": "Paris", "contact:housenumber": "84", "contact:postcode": "75015", "contact:street": "Boulevard Lefebvre", "name": "Le Petit Ch\u00e2teau Rouge", "shop": "convenience", "source": "survey 2019"}}, {"type": "node", "id": 2258852612, "lat": 48.8287382, "lon": 2.2995827, "tags": {"contact:city": "Paris", "contact:housenumber": "86", "contact:postcode": "75015", "contact:street": "Boulevard Lefebvre", "name": "La Boulange", "shop": "bakery"}}, {"type": "node", "id": 2258852613, "lat": 48.8287794, "lon": 2.2995519, "tags": {"contact:city": "Paris", "contact:housenumber": "90", "contact:phone": "+33 6 68 34 84 03", "contact:postcode": "75015", "contact:street": "Boulevard Lefebvre", "name": "Toute la Presse", "opening_hours": "Mo-Sa 08:30-20:30", "shop": "newsagent", "source": "survey 2019"}}, {"type": "node", "id": 2258852614, "lat": 48.8286718, "lon": 2.2999056, "tags": {"contact:city": "Paris", "contact:housenumber": "88", "contact:phone": "+33 1 45 79 33 01", "contact:postcode": "75015", "contact:street": "Boulevard Lefebvre", "name": "Paris Scoot Service", "shop": "motorcycle"}}, {"type": "node", "id": 2258852615, "lat": 48.8299655, "lon": 2.2962311, "tags": {"brand": "Renault", "brand:wikidata": "Q6686", "brand:wikipedia": "en:Renault", "contact:city": "Paris", "contact:housenumber": "95", "contact:postcode": "75015", "contact:street": "Boulevard Lefebvre", "name": "Renault - Lefebvre Essence", "shop": "car"}}, {"type": "node", "id": 2258859713, "lat": 48.8289555, "lon": 2.3008177, "tags": {"contact:city": "Paris", "contact:housenumber": "163", "contact:phone": "+33 9 83 07 41 41", "contact:postcode": "75015", "contact:street": "Boulevard Lefebvre", "contact:website": "https://www.ecig-zen.com", "min_age": "18", "name": "ECIG & ZEN", "opening_hours": "Mo-Fr 10:00-18:30", "payment:cash": "yes", "payment:credit_cards": "yes", "payment:mastercard": "yes", "payment:visa": "yes", "shop": "e-cigarette"}}, {"type": "node", "id": 2258859716, "lat": 48.8286636, "lon": 2.3000577, "tags": {"contact:city": "Paris", "contact:housenumber": "88", "contact:postcode": "75015", "contact:street": "Boulevard Lefebvre", "name": "In Style Coiffure", "shop": "hairdresser", "source": "survey 2019"}}, {"type": "node", "id": 2258874831, "lat": 48.8286516, "lon": 2.3001342, "tags": {"contact:city": "Paris", "contact:housenumber": "88", "contact:postcode": "75015", "contact:street": "Boulevard Lefebvre", "name": "Pop'Up Chaussures", "shop": "shoes", "source": "survey 2019"}}, {"type": "node", "id": 2500391276, "lat": 48.8319237, "lon": 2.3036738, "tags": {"name": "La Beaut\u00e9 Daur\u00e9", "opening_hours": "Tu-Sa 10:00-19:00", "shop": "beauty", "source": "survey 2024", "wheelchair": "no"}}, {"type": "node", "id": 2500391286, "lat": 48.8322357, "lon": 2.3029168, "tags": {"name": "Le Repaire de Bacchus", "opening_hours": "Tu,Th-Sa 10:30-20:30; Mo 16:30-20:00; Su 10:00-13:00; We 10:30-14:00,14:30-20:30", "payment:cash": "yes", "payment:credit_cards": "yes", "payment:debit_cards": "yes", "shop": "alcohol", "wheelchair": "no"}}, {"type": "node", "id": 2500391337, "lat": 48.828079, "lon": 2.3015933}, {"type": "node", "id": 2500391437, "lat": 48.8320208, "lon": 2.3031726, "tags": {"check_date:opening_hours": "2024-04-04", "name": "\u00c0 la Droguerie", "opening_hours": "Tu-Fr 10:00-13:30, Tu-Sa 14:30-19:00, Sa 10:00-19:00; Su,Mo off", "shop": "houseware", "wheelchair": "limited"}}, {"type": "node", "id": 2500391473, "lat": 48.8324383, "lon": 2.3021486, "tags": {"check_date:opening_hours": "2024-04-04", "name": "Rapid' Market", "opening_hours": "Mo-Su 08:30-24:00", "shop": "convenience", "source": "survey 2019", "wheelchair": "yes"}}, {"type": "node", "id": 2500391475, "lat": 48.8324874, "lon": 2.3019648, "tags": {"check_date:opening_hours": "2024-04-04", "laundry_service": "no", "name": "\u00c9clat", "opening_hours": "Mo-Su 07:30-22:00", "self_service": "yes", "shop": "laundry", "source": "survey 2019", "wheelchair": "no"}}, {"type": "node", "id": 2500397044, "lat": 48.8323771, "lon": 2.3033242, "tags": {"name": "Au Petit Fromager", "opening_hours": "Tu-Fr 09:30-13:00,16:00-19:30, Sa 09:30-13:00, Sa 13:30-19:30; Su,Mo off", "payment:credit_cards": "yes", "payment:debit_cards": "yes", "shop": "dairy", "wheelchair": "yes"}}, {"type": "node", "id": 2500397045, "lat": 48.8324418, "lon": 2.3030937, "tags": {"name": "Aux Vergers de Brancion", "shop": "greengrocer", "wheelchair": "no"}}, {"type": "node", "id": 2500397046, "lat": 48.8325028, "lon": 2.3031488, "tags": {"name": "Boucherie Brancion", "opening_hours": "Tu-Sa 08:30-13:00,16:00-19:30", "payment:cash": "yes", "payment:credit_cards": "yes", "payment:debit_cards": "yes", "shop": "butcher", "wheelchair": "yes"}}, {"type": "node", "id": 2500908013, "lat": 48.8329866, "lon": 2.2943809, "tags": {"brand": "Franprix", "brand:wikidata": "Q2420096", "brand:wikipedia": "fr:Franprix", "name": "March\u00e9 Franprix", "opening_hours": "Mo-Sa 08:30-21:00; Su 09:00-13:00", "shop": "supermarket"}}, {"type": "node", "id": 2501585268, "lat": 48.8286083, "lon": 2.3003582, "tags": {"name": "Rapid'Market", "phone": "+33 1 45 32 27 55", "shop": "convenience", "source": "cadastre-dgi-fr source : Direction G\u00e9n\u00e9rale des Imp\u00f4ts - Cadastre. Mise \u00e0 jour : 2013", "wheelchair": "no"}}, {"type": "node", "id": 2818222801, "lat": 48.8288651, "lon": 2.3015806, "tags": {"check_date:opening_hours": "2024-04-04", "diet:halal": "yes", "name": "Boucherie Brancion", "opening_hours:signed": "no", "shop": "butcher", "wheelchair": "yes"}}, {"type": "node", "id": 2850469714, "lat": 48.8289383, "lon": 2.3072788, "tags": {"name": "Le Square", "ref:FR:SIRET": "89984503600016", "shop": "butcher"}}, {"type": "node", "id": 4153944789, "lat": 48.8325662, "lon": 2.3034573, "tags": {"female": "yes", "male": "yes", "name": "Coiffure David", "opening_hours": "Tu-Sa 09:30-19:00", "payment:credit_cards": "yes", "payment:debit_cards": "yes", "shop": "hairdresser", "wheelchair": "limited"}}, {"type": "node", "id": 4153945889, "lat": 48.8316403, "lon": 2.3027965, "tags": {"male": "yes", "name": "Coiffure Messieurs", "opening_hours": "Tu-Fr 09:00-13:00, 14:00-19:00; Sa 08:30-18:00", "shop": "hairdresser", "source": "survey 2019"}}, {"type": "node", "id": 4521243595, "lat": 48.8336315, "lon": 2.2986652, "tags": {"check_date:opening_hours": "2025-05-19", "name": "Pascal & Anthony", "opening_hours": "Mo-Sa 07:30-20:00", "shop": "bakery", "source": "survey"}}, {"type": "node", "id": 5224941226, "lat": 48.8265298, "lon": 2.2943754, "tags": {"contact:housenumber": "126", "contact:street": "Avenue Victor Hugo", "name": "Cardy Scoot", "shop": "motorcycle"}}, {"type": "node", "id": 5659184057, "lat": 48.8269834, "lon": 2.3050716, "tags": {"shop": "dry_cleaning", "source": "survey 06/2018"}}, {"type": "node", "id": 5659184059, "lat": 48.827386, "lon": 2.3053385, "tags": {"check_date": "2025-11-12", "name": "Shop Market", "shop": "convenience"}}, {"type": "node", "id": 5682239923, "lat": 48.8308888, "lon": 2.2940236, "tags": {"brand": "Opel", "brand:wikidata": "Q40966", "contact:city": "Paris", "contact:housenumber": "75", "contact:phone": "+33 1 44 19 20 87", "contact:postcode": "75015", "contact:street": "Boulevard Lefebvre", "name": "Opel PSA Retail Paris 15 Porte de Versailles", "opening_hours": "Mo-Fr 08:30-19:00; Sa 09:00-12:30, 14:00-18:30", "shop": "car_repair"}}, {"type": "node", "id": 6435724787, "lat": 48.8289531, "lon": 2.296042, "tags": {"brand": "G20", "brand:wikidata": "Q3504731", "brand:wikipedia": "fr:Supermarch\u00e9s G20", "name": "G20", "opening_hours": "Mo-Sa 08:30-20:30;Su 09:00+", "shop": "supermarket", "source": "survey 2019"}}, {"type": "node", "id": 6435839985, "lat": 48.8283279, "lon": 2.3011225, "tags": {"name": "Coiffeur Masculin - Barbier", "shop": "hairdresser", "source": "survey 2019"}}, {"type": "node", "id": 6438277787, "lat": 48.8336226, "lon": 2.2985166, "tags": {"check_date:opening_hours": "2025-05-19", "name": "La Mamounia", "opening_hours": "Tu-Su 08:30-20:30", "phone": "+33 1 45 33 05 32", "shop": "butcher", "source": "survey 2019"}}, {"type": "node", "id": 6438362387, "lat": 48.833214, "lon": 2.2996932, "tags": {"beauty": "spa", "check_date": "2025-05-19", "name": "Spa Perle d'\u00c9toile", "opening_hours": "Tu-Su 11:30-21:30", "shop": "beauty", "source": "survey 2019"}}, {"type": "node", "id": 6445081190, "lat": 48.8290058, "lon": 2.3016246, "tags": {"check_date:opening_hours": "2024-04-04", "name": "Cours Des Halles", "opening_hours:signed": "no", "shop": "greengrocer", "source": "survey 2019", "wheelchair": "yes"}}, {"type": "node", "id": 6445199185, "lat": 48.8321724, "lon": 2.303139, "tags": {"check_date:opening_hours": "2024-05-29", "name": "Boulangerie Brancion", "opening_hours": "Mo-We,Fr 06:30-20:30; Sa-Su 06:30-20:00", "phone": "+33 1 48 28 92 10", "shop": "bakery", "source": "survey 2019"}}, {"type": "node", "id": 6448137086, "lat": 48.8303007, "lon": 2.2960978, "tags": {"check_date:opening_hours": "2023-11-11", "laundry_service": "no", "name": "Primus", "opening_hours": "Mo-Su 07:00-22:00", "self_service": "yes", "shop": "laundry"}}, {"type": "node", "id": 6911613336, "lat": 48.8280221, "lon": 2.3063068, "tags": {"name": "AKS Informatique", "opening_hours": "Mo-Sa 09:00-20:30", "ref:FR:SIREN": "893459867", "ref:FR:SIRET": "89345986700014", "shop": "mobile_phone"}}, {"type": "node", "id": 6911613337, "lat": 48.8279893, "lon": 2.3062422, "tags": {"contact:mobile": "+33 7 63 17 91 62;+33 7 53 64 39 19", "male": "yes", "name": "Star Coiffure", "opening_hours": "Tu-Su 09:30-12:00,14:00-19:00", "ref:FR:SIREN": "839144912", "ref:FR:SIRET": "93914491200012", "shop": "hairdresser"}}, {"type": "node", "id": 6911613339, "lat": 48.8281372, "lon": 2.3065614, "tags": {"brand": "Speed Queen", "brand:wikidata": "Q7575499", "name": "Speed Queen", "opening_hours": "07:00-22:00", "self_service": "yes", "shop": "laundry", "wheelchair": "limited"}}, {"type": "node", "id": 6911613340, "lat": 48.8281574, "lon": 2.3066117, "tags": {"computer:repair": "yes", "craft": "electronics_repair", "mobile_phone:repair": "yes", "name": "SOS PC et GSM", "official_name": "One Klir", "opening_hours": "Mo-Sa 09:30-20:00, Su 10:00-18:00; Fr 13:00-14:30 closed", "post_office": "post_partner", "post_office:brand": "La Poste", "post_office:brand:wikidata": "Q373724", "ref:FR:LaPoste": "19656D", "ref:FR:SIREN": "953847977", "ref:FR:SIRET": "95384797700014", "second_hand": "yes", "shop": "mobile_phone"}}, {"type": "node", "id": 8222344173, "lat": 48.8298876, "lon": 2.296439, "tags": {"name": "Alimentation g\u00e9n\u00e9rale", "shop": "convenience"}}, {"type": "node", "id": 8491786517, "lat": 48.8336185, "lon": 2.2980934, "tags": {"contact:mobile": "+33 6 64 85 07 70", "contact:phone": "+33 9 51 46 27 85", "delivery": "yes", "name": "\u00c9picerie Morillons", "shop": "convenience"}}, {"type": "node", "id": 9001480706, "lat": 48.8282991, "lon": 2.3068775, "tags": {"name": "Maya Nails", "ref:FR:SIRET": "84938744400011", "shop": "beauty"}}, {"type": "node", "id": 9001480707, "lat": 48.8281786, "lon": 2.3066617, "tags": {"name": "Elosa", "ref:FR:SIREN": "914815220", "ref:FR:SIRET": "91481522000019", "shop": "convenience"}}, {"type": "node", "id": 9221195754, "lat": 48.8312701, "lon": 2.2923372, "tags": {"name": "Salon Meibo", "shop": "beauty"}}, {"type": "node", "id": 9280086875, "lat": 48.8329165, "lon": 2.3011143, "tags": {"name": "Jardin en Ville", "operator": "Jean-Michel Bourgoin", "ref:FR:SIREN": "500792726", "ref:FR:SIRET": "50079272600027", "shop": "florist"}}, {"type": "node", "id": 9534706112, "lat": 48.831375, "lon": 2.3021579}, {"type": "node", "id": 9666459896, "lat": 48.8297162, "lon": 2.3018836, "tags": {"addr:city": "Paris", "addr:housenumber": "115", "addr:postcode": "75015", "addr:street": "Rue Brancion", "email": "contact@paulette.bike", "name": "Paulette Bike", "phone": "+33 1 42 50 38 63", "service:bicycle:pump": "yes", "service:bicycle:rental": "yes", "shop": "bicycle", "website": "https://paulette.bike/fr/index.php?controller=agence&agence_id=27"}}, {"type": "node", "id": 9707355321, "lat": 48.8314042, "lon": 2.3020466}, {"type": "node", "id": 9924537233, "lat": 48.8319595, "lon": 2.3035705, "tags": {"name": "C\u0153ur by Care", "shop": "beauty"}}, {"type": "node", "id": 9924537236, "lat": 48.8326295, "lon": 2.303533, "tags": {"lottery": "yes", "name": "TABAC PRESSE CAVE A CIGARES", "payment:credit_cards": "yes", "payment:debit_cards": "yes", "sells:tobacco": "yes", "shop": "newsagent", "wheelchair": "limited"}}, {"type": "node", "id": 9924537247, "lat": 48.8319701, "lon": 2.3035015, "tags": {"check_date:opening_hours": "2024-04-04", "name": "Lune des Moissons", "opening_hours": "Tu-We,Fr 10:00-20:00; Th 15:00-20:00; Sa 09:00-18:00", "shop": "greengrocer"}}, {"type": "node", "id": 9924537248, "lat": 48.8325278, "lon": 2.3034428, "tags": {"check_date:opening_hours": "2025-05-19", "name": "Brancion Pressing", "opening_hours": "Mo-Fr 09:00-13:00,14:30-19:30; Sa 09:30-19:00", "payment:credit_cards": "yes", "payment:debit_cards": "yes", "shop": "dry_cleaning", "wheelchair": "no"}}, {"type": "node", "id": 9991185183, "lat": 48.8309558, "lon": 2.3029161, "tags": {"check_date:opening_hours": "2024-04-04", "name": "Infrarouge & Pigment Vert", "opening_hours:signed": "no", "shop": "art"}}, {"type": "node", "id": 10086007482, "lat": 48.8322621, "lon": 2.3032294, "tags": {"name": "Kenats", "opening_hours": "Tu-Sa 10:30-19:30", "origin": "armenian", "shop": "wine"}}, {"type": "node", "id": 10104553840, "lat": 48.8323729, "lon": 2.3030273, "tags": {"addr:postcode": "75015", "description": "Atelier cuir", "name": "Vanessa R\u00e9veillon", "opening_hours": "Tu-Sa 10:00-19:00", "shop": "leather", "website": "https://www.vanessareveillon.fr/"}}, {"type": "node", "id": 10180639414, "lat": 48.8278228, "lon": 2.3057359}, {"type": "node", "id": 10180639415, "lat": 48.8278437, "lon": 2.3057717}, {"type": "node", "id": 10180639416, "lat": 48.8278332, "lon": 2.3057538, "tags": {"advertising": "poster_box", "animated": "winding_posters", "colour": "darkgreen", "land_property": "public", "legal_type:FR": "publicit\u00e9:mobilier_urbain:kiosque", "luminous": "no", "sides": "1", "support": "kiosk", "visibility": "street"}}, {"type": "node", "id": 10180666817, "lat": 48.8278156, "lon": 2.3057376, "tags": {"advertising": "poster_box", "animated": "no", "colour": "darkgreen", "land_property": "public", "legal_type:FR": "publicit\u00e9:mobilier_urbain:kiosque", "luminous": "no", "sides": "1", "support": "kiosk", "visibility": "street"}}, {"type": "node", "id": 10180666818, "lat": 48.8278426, "lon": 2.3057818, "tags": {"advertising": "poster_box", "animated": "no", "colour": "darkgreen", "land_property": "public", "legal_type:FR": "publicit\u00e9:mobilier_urbain:kiosque", "luminous": "no", "sides": "1", "support": "kiosk", "visibility": "street"}}, {"type": "node", "id": 10180666819, "lat": 48.8277978, "lon": 2.3057548, "tags": {"advertising": "poster_box", "animated": "no", "colour": "darkgreen", "land_property": "public", "legal_type:FR": "publicit\u00e9:mobilier_urbain:kiosque", "luminous": "no", "sides": "1", "support": "kiosk", "visibility": "street"}}, {"type": "node", "id": 10731766208, "lat": 48.8322847, "lon": 2.3026823, "tags": {"beauty": "nails", "check_date:opening_hours": "2024-04-04", "name": "Xiao Wei Nails", "opening_hours": "10:00-20:00", "phone": "+33 9 83 86 53 66", "ref:FR:SIREN": "851602870", "ref:FR:SIRET": "85160287000020", "shop": "beauty"}}, {"type": "node", "id": 10731766209, "lat": 48.8322585, "lon": 2.3027798, "tags": {"check_date:opening_hours": "2024-04-04", "contact:phone": "+33 1 45 31 67 47", "name": "Olive et Mimosa", "opening_hours": "Tu-Sa 10:30-13:30,15:00-19:30", "shop": "clothes"}}, {"type": "node", "id": 10731766211, "lat": 48.8330128, "lon": 2.3006656, "tags": {"beauty": "skin_care", "name": "NB Esth\u00e9tique", "opening_hours": "Tu-Sa 11:00-19:30; Su,Mo off", "phone": "+33 1 83 96 74 46;+33 6 09 93 93 90", "shop": "beauty", "website": "https://www.nb-esthetique.com"}}, {"type": "node", "id": 10731766212, "lat": 48.8319855, "lon": 2.3033798, "tags": {"male": "yes", "name": "Latha Coiffure", "opening_hours": "Tu-Su 10:00-20:30", "phone": "+33 7 82 83 44 66", "ref:FR:SIREN": "914140207", "ref:FR:SIRET": "91414020700012", "shop": "hairdresser"}}, {"type": "node", "id": 10773912086, "lat": 48.832619, "lon": 2.3032346, "tags": {"beauty": "nails", "name": "Royal Nail", "opening_hours": "Mo-Su 10:00-20:00", "shop": "beauty"}}, {"type": "node", "id": 10773912093, "lat": 48.829185, "lon": 2.3022363, "tags": {"name": "La Plateforme du B\u00e2timent", "opening_hours": "Mo-Fr 06:30-18:00", "shop": "trade", "wheelchair": "yes"}}, {"type": "node", "id": 10775850705, "lat": 48.8306502, "lon": 2.2951198, "tags": {"contact:city": "Paris 15eme Arrondissement", "contact:housenumber": "79", "contact:phone": "+33 1 42 50 42 40", "contact:postcode": "75015", "contact:street": "Boulevard Lefebvre", "name": "Holland Bikes", "opening_hours": "Tu-Fr 10:00-14:00, 15:00-19:00; Sa 10:00-19:00", "ref:FR:SIRET": "45342707200013", "shop": "bicycle", "website": "https://www.hollandbikes.com/content/65-magasin-de-velos-paris-15-holland-bikes"}}, {"type": "node", "id": 10819163030, "lat": 48.8279653, "lon": 2.3033882, "tags": {"amenity": "bicycle_repair_station", "brand": "CycloCube", "fee": "yes", "image": "https://cyclocube.org/wp-content/uploads/2021/05/cropped-baniecc80re_adh-03-03-site-2.png", "name": "Cyclocube La Bricoth\u00e8que", "opening_hours": "Sa 14:00-17:00", "operator": "CycloCube La Bricoth\u00e8que", "payment:cards": "yes", "payment:cash": "yes", "service:bicycle:diy": "yes", "service:bicycle:pump": "yes", "service:bicycle:repair": "yes", "service:bicycle:repair_stand": "yes", "service:bicycle:second_hand": "yes", "service:bicycle:tools": "yes", "shop": "bicycle", "website": "https://cyclocube.org/prochain-atelier-velo/"}}, {"type": "node", "id": 11224787943, "lat": 48.8334674, "lon": 2.2945494, "tags": {"contact:phone": "+33 9 81 35 59 63", "name": "Top Coat", "opening_hours": "Tu-Fr 10:00-19:00, Sa 10:00-18:00", "shop": "beauty", "website": "https://www.georgefaddoul.fr"}}, {"type": "node", "id": 11697425772, "lat": 48.829265, "lon": 2.3013836, "tags": {"name": "Manelli", "opening_hours": "Mo-We 09:00-12:30,13:30-18:00; Th,Fr 09:00-12:30,14:00-18:00", "ref:FR:SIRET": "49426564800035", "shop": "clothes", "wheelchair": "limited"}}, {"type": "node", "id": 11819719570, "lat": 48.8344553, "lon": 2.2984849, "tags": {"contact:phone": "+33 1 45 32 84 76", "name": "Blue Bay", "shop": "beauty", "website": "https://www.institutbluebay.fr/"}}, {"type": "node", "id": 11819719572, "lat": 48.8333842, "lon": 2.2992705, "tags": {"brand": "Carrefour Express", "brand:wikidata": "Q2940190", "name": "Carrefour Express", "opening_hours": "08:00-22:00; Su 09:00-13:00", "ref:FR:SIRET": "34513048827606", "shop": "convenience", "website": "https://www.carrefour.fr/magasin/express-paris-morillons-37"}}, {"type": "node", "id": 12434109781, "lat": 48.8321244, "lon": 2.3036255, "tags": {"brand": "Carrefour City", "level": "0", "name": "Carrefour City", "opening_hours": "Mo-Sa 07:00-22:00; PH closed; Su 09:00+", "shop": "convenience", "wheelchair": "yes"}}, {"type": "node", "id": 12631339846, "lat": 48.8290978, "lon": 2.3013445, "tags": {"shop": "vacant"}}, {"type": "node", "id": 12631365125, "lat": 48.8287084, "lon": 2.3028289, "tags": {"name": "Lebourgeois Berrezouga", "shop": "clothes"}}, {"type": "node", "id": 12776493948, "lat": 48.8305635, "lon": 2.3018137}, {"type": "node", "id": 13180255901, "lat": 48.8263687, "lon": 2.3049254, "tags": {"addr:housenumber": "2", "addr:postcode": "75014", "addr:street": "Place Marthe Simard", "name": "Baba savonnerie-p\u00e2tisserie", "shop": "cosmetics"}}, {"type": "node", "id": 13315434321, "lat": 48.8286684, "lon": 2.2965382, "tags": {"name": "La Caille Blanche", "shop": "chocolate"}}, {"type": "way", "id": 80146216, "nodes": [934988553, 934989906, 9707355321, 934990336, 12776493948, 934988576, 934989331, 934989540, 934988634, 934989537, 9534706112, 934988416, 934988680, 934988553], "tags": {"alt_name": "March\u00e9 Georges Brassens", "amenity": "marketplace", "building": "yes", "check_date:opening_hours": "2025-06-29", "contact:city": "Paris", "contact:housenumber": "104", "contact:postcode": "75015", "contact:street": "Rue Brancion", "covered": "yes", "level": "1", "name": "March\u00e9 du Livre ancien et d'occasion de Paris", "opening_hours": "Sa-Su 09:00-18:00", "roof:shape": "shed", "second_hand": "only", "shop": "books", "source": "cadastre-dgi-fr source : Direction G\u00e9n\u00e9rale des Imp\u00f4ts - Cadastre. Mise \u00e0 jour : 2010", "wall": "no", "wheelchair": "yes"}}, {"type": "way", "id": 197717538, "nodes": [2079256549, 10180666819, 2079256547, 2079256551, 2079256553, 10180666818, 10180639415, 10180639416, 10180639414, 10180666817, 2079256549], "tags": {"building": "kiosk", "building:colour": "green", "building:levels": "1", "check_date": "2025-09-30", "check_date:opening_hours": "2025-09-30", "name": "Le kiosque de Paris", "opening_hours": "Mo-Sa 07:30-17:30", "roof:colour": "green", "shop": "kiosk", "source": "survey", "source:opening_hours": "entrance", "wheelchair": "yes"}}, {"type": "way", "id": 242569676, "nodes": [2500391337, 934932388, 934932156, 934930600, 2500391337], "tags": {"building": "retail", "building:levels": "1", "name": "Loxam City", "opening_hours": "Mo-Fr 07:00-12:00, 13:30-18:30; Sa 08:00-12:00, 13:30-18:30", "shop": "rental", "source": "survey 2019", "wheelchair": "yes"}}]}