{"version": 0.6, "generator": "Overpass API 0.7.62.8 e802775f", "osm3s": {"timestamp_osm_base": "2026-01-13T20:40:20Z", "copyright": "The data included in this document is from www.openstreetmap.org. The data is made available under ODbL."}, "elements": [{"type": "node", "id": 924126457, "lat": 48.8249555, "lon": 2.3768417}, {"type": "node", "id": 924127198, "lat": 48.8247954, "lon": 2.3770816, "tags": {"addr:housenumber": "26"}}, {"type": "node", "id": 924148546, "lat": 48.824717, "lon": 2.376859}, {"type": "node", "id": 924148781, "lat": 48.8249706, "lon": 2.3767892}, {"type": "node", "id": 924157600, "lat": 48.8247188, "lon": 2.3768645}, {"type": "node", "id": 924162957, "lat": 48.8249056, "lon": 2.3769923}, {"type": "node", "id": 924171727, "lat": 48.8249755, "lon": 2.3768358}, {"type": "node", "id": 924172337, "lat": 48.8249287, "lon": 2.3769757}, {"type": "node", "id": 1869081290, "lat": 48.8245631, "lon": 2.3765135, "tags": {"addr:city": "Paris", "addr:country": "FR", "addr:postcode": "75013", "addr:street": "Rue Regnault", "indoor_seating": "no", "level": "0", "name": "La Vitryenne", "opening_hours": "Tu-Fr 06:30-20:30, Sa-Su 07:00-20:00, Mo closed", "outdoor_seating": "no", "shop": "bakery", "takeaway": "only", "toilets": "no", "wheelchair": "yes"}}, {"type": "node", "id": 2256024159, "lat": 48.8267913, "lon": 2.3745093, "tags": {"alt_name": "Gourmandises des Berges", "level": "0", "name": "Maison Chenib", "opening_hours": "Mo-Su 07:00-21:00", "outdoor_seating": "yes", "payment:cash": "yes", "payment:credit_cards": "yes", "shop": "bakery", "toilets": "no", "wheelchair": "yes"}}, {"type": "node", "id": 2462225074, "lat": 48.8247317, "lon": 2.3769011, "tags": {"addr:housenumber": "28", "source": "cadastre-dgi-fr source : Direction G\u00e9n\u00e9rale des Imp\u00f4ts - Cadastre. Mise \u00e0 jour : 2013"}}, {"type": "node", "id": 2823230601, "lat": 48.8261201, "lon": 2.3742971, "tags": {"addr:city": "Paris", "addr:postcode": "75013", "brand": "Franprix", "brand:wikidata": "Q2420096", "brand:wikipedia": "fr:Franprix", "changing_table": "no", "level": "0", "name": "Franprix", "opening_hours": "Mo-Su 08:30-22:00", "organic": "yes", "shop": "convenience", "toilets": "no", "website": "https://www.franprix.fr/magasins/5180", "wheelchair": "limited"}}, {"type": "node", "id": 2847602902, "lat": 48.8245422, "lon": 2.3759955, "tags": {"level": "0", "name": "Laverie Libre Service", "opening_hours": "Mo-Su, PH 07:00-21:00", "self_service": "yes", "shop": "laundry", "source": "survey", "wheelchair": "no"}}, {"type": "node", "id": 2847602903, "lat": 48.8247845, "lon": 2.3760252, "tags": {"diet:halal": "yes", "level": "0", "name": "Boucherie Chamsi", "shop": "butcher", "wheelchair": "no"}}, {"type": "node", "id": 2847610701, "lat": 48.8245812, "lon": 2.3759299, "tags": {"level": "0", "name": "Ashwin exotique", "shop": "convenience", "source": "survey", "toilets": "no", "wheelchair": "limited"}}, {"type": "node", "id": 3859703848, "lat": 48.8232714, "lon": 2.3773473, "tags": {"name": "Tradition d'Ivry", "shop": "bakery", "source": "survey"}}, {"type": "node", "id": 4348341593, "lat": 48.8268484, "lon": 2.3744686, "tags": {"level": "0", "name": "Strat\u00e8ges", "opening_hours": "We,Fr,Sa 10:30-22:00, Th 10:30-18:30, Su 10:30-19:00", "shop": "games", "toilets": "no", "wheelchair": "designated"}}, {"type": "node", "id": 4398770489, "lat": 48.825595, "lon": 2.3741918, "tags": {"level": "0", "name": "Chadapaux", "shop": "bathroom_furnishing"}}, {"type": "node", "id": 4854784155, "lat": 48.8262516, "lon": 2.3737496, "tags": {"level": "0", "name": "Kary Coiffure", "opening_hours": "Tu-Su 09:30-20:00", "shop": "hairdresser", "wheelchair": "no"}}, {"type": "node", "id": 5005237550, "lat": 48.826314, "lon": 2.3736618, "tags": {"level": "0", "name": "Patay Telecom", "ref:FR:SIREN": "904914538", "ref:FR:SIRET": "90491453800015", "ref:vatin": "FR67904914538", "shop": "mobile_phone", "wheelchair": "no"}}, {"type": "node", "id": 5124349110, "lat": 48.8245857, "lon": 2.3762822, "tags": {"level": "0", "name": "JN Primeur", "shop": "greengrocer", "wheelchair": "limited"}}, {"type": "node", "id": 7028008477, "lat": 48.8258204, "lon": 2.3744163, "tags": {"diet:halal": "only", "level": "0", "name": "Patay Boucherie", "ref:FR:SIRET": "93177855900019", "shop": "butcher"}}, {"type": "node", "id": 7479462103, "lat": 48.824979, "lon": 2.3756621, "tags": {"name": "Shlag lab", "opening_hours": "We-Sa 11:00-19:00", "shop": "tattoo"}}, {"type": "node", "id": 7544368506, "lat": 48.8233457, "lon": 2.3753438, "tags": {"check_date:opening_hours": "2025-07-30", "level": "0", "name": "Laverie libre service", "opening_hours": "Mo-Su,PH 08:00-20:00", "shop": "dry_cleaning", "wheelchair": "no"}}, {"type": "node", "id": 7544369085, "lat": 48.8215137, "lon": 2.369891, "tags": {"check_date:opening_hours": "2025-07-30", "name": "Maison Caquelin", "opening_hours": "Su-Fr 06:00-20:00", "shop": "bakery"}}, {"type": "node", "id": 8068619033, "lat": 48.823915, "lon": 2.376868, "tags": {"check_date:opening_hours": "2025-07-30", "level": "0", "name:signed": "no", "opening_hours:signed": "no", "shop": "kiosk", "wheelchair": "yes"}}, {"type": "node", "id": 8068619048, "lat": 48.8237296, "lon": 2.3769956, "tags": {"name": "SARL MS Mobile", "shop": "mobile_phone"}}, {"type": "node", "id": 8121110469, "lat": 48.8237501, "lon": 2.3765832, "tags": {"name": "Ashnawi", "shop": "convenience"}}, {"type": "node", "id": 8121110470, "lat": 48.8212751, "lon": 2.370305, "tags": {"check_date": "2024-03-22", "name": "Nouvelle Asie", "shop": "butcher"}}, {"type": "node", "id": 8121110480, "lat": 48.8213858, "lon": 2.3727426, "tags": {"addr:city": "Paris", "addr:housenumber": "15", "addr:postcode": "75013", "addr:street": "Avenue Claude Regaud", "brand": "Coccinelle Express", "brand:wikidata": "Q90020479", "email": "coccinait@gmail.com", "name": "Coccinelle Express", "opening_hours": "Mo-Sa 08:00-22:00", "phone": "+33 1 45 83 09 00", "shop": "convenience", "website": "https://www.coccinelle.fr/Trouver_Un_Magasin/Details/coccinelle-express/paris/15-avenue-claude-regaud"}}, {"type": "node", "id": 8121110485, "lat": 48.8237746, "lon": 2.376652, "tags": {"beauty": "nails", "name": "Bella Queen", "shop": "beauty"}}, {"type": "node", "id": 8121110493, "lat": 48.823609, "lon": 2.3761452, "tags": {"name": "Mat\u00e9riel m\u00e9dical", "opening_hours": "Mo-Sa 10:00-19:00", "shop": "medical_supply"}}, {"type": "node", "id": 8121110515, "lat": 48.8235441, "lon": 2.3759546, "tags": {"male": "yes", "name": "Redd Barber", "opening_hours": "Mo-Su 10:00-20:00", "shop": "hairdresser"}}, {"type": "node", "id": 8121124453, "lat": 48.8237792, "lon": 2.3767116, "tags": {"female": "yes", "male": "yes", "name": "MD coiffure mixte", "opening_hours": "Tu-Su 09:30-19:00", "phone": "+33145830071", "shop": "hairdresser"}}, {"type": "node", "id": 8143294860, "lat": 48.8214183, "lon": 2.3700075, "tags": {"check_date": "2024-03-22", "level": "0", "name": "Asie d'Ivry", "shop": "pastry"}}, {"type": "node", "id": 8143294900, "lat": 48.8210774, "lon": 2.370669, "tags": {"check_date": "2024-03-22", "level": "0", "name": "Alimentation G\u00e9n\u00e9rale", "opening_hours": "24/7", "shop": "convenience", "toilets": "no", "wheelchair": "limited"}}, {"type": "node", "id": 8143294901, "lat": 48.8217783, "lon": 2.371785, "tags": {"name": "S.I.B. France", "shop": "electronics"}}, {"type": "node", "id": 8222344150, "lat": 48.825247, "lon": 2.374638, "tags": {"name": "Barber Bros", "shop": "hairdresser"}}, {"type": "node", "id": 8269359945, "lat": 48.8249789, "lon": 2.3765211, "tags": {"name": "La Carrosserie Moderne", "shop": "car_repair"}}, {"type": "node", "id": 8455524852, "lat": 48.8251752, "lon": 2.3747161, "tags": {"check_date": "2025-02-28", "name": "Lazeo M\u00e9decine Esth\u00e9tique", "shop": "beauty"}}, {"type": "node", "id": 9247842732, "lat": 48.8249235, "lon": 2.3757365, "tags": {"addr:housenumber": "18", "addr:street": "Rue de Patay", "check_date": "2024-03-30", "level": "0", "name": "Zonzon tattoo club", "opening_hours": "We-Sa 11:00-19:00", "phone": "+33 1 82 07 87 39", "shop": "tattoo", "website": "https://zonzontattoo.fr/", "wheelchair": "no"}}, {"type": "node", "id": 9780876699, "lat": 48.8260542, "lon": 2.3779699, "tags": {"air_conditioning": "yes", "amenity": "bar", "contact:city": "Paris 13eme Arrondissement", "contact:housenumber": "9", "contact:phone": "+33 7 67 26 83 37", "contact:postcode": "75013", "contact:street": "Rue Du Chevaleret", "indoor_seating": "yes", "internet_access": "wlan", "internet_access:fee": "no", "level": "0", "name": "Caf\u00e9 Cayo", "opening_hours": "Tu-We 08:30-17:00, Th-Fr 08:30-23:00, Sa 09:30-23:00, Su 10:00-17:00", "outdoor_seating": "yes", "reservation": "no", "shop": "coffee", "smoking": "outside", "takeaway": "yes", "toilets": "yes", "toilets:access": "yes", "toilets:disposal": "flush", "toilets:handwashing": "yes", "toilets:paper_supplied": "yes", "toilets:position": "seated", "toilets:wheelchair": "designated", "website": "https://www.cafecayo.fr", "wheelchair": "yes"}}, {"type": "way", "id": 79082924, "nodes": [924148781, 924148546, 924157600, 2462225074, 924127198, 924162957, 924172337, 924126457, 924171727, 924148781], "tags": {"addr:city": "Paris", "addr:country": "FR", "addr:housenumber": "28", "addr:postcode": "75013", "addr:street": "Rue Regnault", "brand": "G20", "brand:wikidata": "Q3504731", "brand:wikipedia": "fr:Supermarch\u00e9s G20", "building": "retail", "building:levels": "1", "level": "0", "name": "G20", "opening_hours": "Mo-Sa 08:30-21:00; Su 09:00-21:00", "phone": "+33 1 45 84 20 86", "shop": "supermarket", "source": "cadastre-dgi-fr source : Direction G\u00e9n\u00e9rale des Imp\u00f4ts - Cadastre. Mise \u00e0 jour : 2010", "toilets": "no", "wheelchair": "yes"}}]}