{"version": 0.6, "generator": "Overpass API 0.7.62.8 e802775f", "osm3s": {"timestamp_osm_base": "2026-01-13T21:06:51Z", "copyright": "The data included in this document is from www.openstreetmap.org. The data is made available under ODbL."}, "elements": [{"type": "node", "id": 406692819, "lat": 48.8904844, "lon": 2.3846099, "tags": {"contact:city": "Paris", "contact:housenumber": "38 bis", "contact:phone": "+33 1 43 43 40 74", "contact:postcode": "75019", "contact:street": "Quai de la Marne", "description": "Association fond\u00e9e sur un projet d'animation et une d\u00e9marche sociale.", "email": "aicv.paris19@gmail.com", "mobile": "+33 6 29 20 98 03", "name": "AICV", "opening_hours": "Tu-Sa 09:45-12:30,13:30-17:15", "service:bicycle:pump": "yes", "service:bicycle:rental": "yes", "service:bicycle:repair": "yes", "service:bicycle:second_hand": "yes", "service:bicycle:training": "yes", "shop": "bicycle", "training": "cycling", "website": "http://www.aicv.net/"}}, {"type": "node", "id": 433366341, "lat": 48.8860129, "lon": 2.3833794, "tags": {"addr:housenumber": "118/130", "addr:postcode": "75019", "addr:street": "Avenue Jean Jaur\u00e8s", "brand": "Monoprix", "brand:wikidata": "Q3321241", "brand:wikipedia": "en:Monoprix", "check_date": "2025-10-24", "name": "Monoprix", "name:en": "Monoprix", "name:fr": "Monoprix", "opening_hours": "Mo-Sa 08:00-22:00; Su 09:00-20:00", "operator": "Groupe Casino", "phone": "+33 1 48 03 33 29", "ref:FR:SIRET": "55208329701315", "shop": "supermarket", "website": "https://www.monoprix.fr/794.html"}}, {"type": "node", "id": 568457895, "lat": 48.8906427, "lon": 2.3820001, "tags": {"name:signed": "no", "opening_hours": "Mo-Su,PH 07:30-22:00", "self_service": "yes", "shop": "laundry"}}, {"type": "node", "id": 651603252, "lat": 48.8830039, "lon": 2.3824546, "tags": {"check_date:opening_hours": "2021-03-06", "name": "Bulle", "opening_hours": "Tu-Su 07:00-20:00", "ref:FR:SIRET": "94863439900018", "shop": "bakery", "source": "cadastre-dgi-fr source : Direction G\u00e9n\u00e9rale des Imp\u00f4ts - Cadastre ; mise \u00e0 jour : 2010"}}, {"type": "node", "id": 784601205, "lat": 48.8847716, "lon": 2.3798705}, {"type": "node", "id": 784634902, "lat": 48.8847857, "lon": 2.3798247}, {"type": "node", "id": 784683684, "lat": 48.884762, "lon": 2.3798469}, {"type": "node", "id": 784692348, "lat": 48.8847952, "lon": 2.3798483}, {"type": "node", "id": 789523193, "lat": 48.887704, "lon": 2.3864465}, {"type": "node", "id": 789523408, "lat": 48.8874952, "lon": 2.3862316}, {"type": "node", "id": 789523849, "lat": 48.8874677, "lon": 2.3862513}, {"type": "node", "id": 789524085, "lat": 48.8873592, "lon": 2.3863223}, {"type": "node", "id": 789524298, "lat": 48.8877789, "lon": 2.3860644}, {"type": "node", "id": 789524456, "lat": 48.887363, "lon": 2.3864654}, {"type": "node", "id": 789525179, "lat": 48.8876687, "lon": 2.3863231}, {"type": "node", "id": 789525257, "lat": 48.8876195, "lon": 2.3861511}, {"type": "node", "id": 789525303, "lat": 48.8875585, "lon": 2.3861934}, {"type": "node", "id": 789525857, "lat": 48.8874678, "lon": 2.3862485}, {"type": "node", "id": 789526224, "lat": 48.8874994, "lon": 2.3859567}, {"type": "node", "id": 789526298, "lat": 48.8878265, "lon": 2.3860393}, {"type": "node", "id": 789526986, "lat": 48.8876748, "lon": 2.3863443}, {"type": "node", "id": 789527079, "lat": 48.8876932, "lon": 2.3858532}, {"type": "node", "id": 789527143, "lat": 48.8873668, "lon": 2.3864635}, {"type": "node", "id": 789527144, "lat": 48.8873529, "lon": 2.3864216}, {"type": "node", "id": 789527347, "lat": 48.8876327, "lon": 2.3858856}, {"type": "node", "id": 789527411, "lat": 48.8874858, "lon": 2.3862372}, {"type": "node", "id": 789528103, "lat": 48.8877749, "lon": 2.3858098}, {"type": "node", "id": 789529645, "lat": 48.8873916, "lon": 2.386579}, {"type": "node", "id": 789529671, "lat": 48.8873761, "lon": 2.3864121}, {"type": "node", "id": 789529725, "lat": 48.8876409, "lon": 2.3862258}, {"type": "node", "id": 863586703, "lat": 48.88834, "lon": 2.3921657, "tags": {"name": "Les tissus de Pearl", "shop": "fabric"}}, {"type": "node", "id": 1107823430, "lat": 48.8824419, "lon": 2.380823, "tags": {"addr:city": "Paris", "addr:housenumber": "7", "addr:postcode": "75019", "addr:street": "Rue Armand Carrel", "name": "Sai Alimentation", "shop": "convenience"}}, {"type": "node", "id": 1114763104, "lat": 48.8848671, "lon": 2.3799067, "tags": {"addr:city": "Paris", "brand": "Carrefour City", "brand:wikidata": "Q2940187", "brand:wikipedia": "fr:Carrefour City", "name": "Carrefour City", "operator": "Groupe Carrefour", "operator:wikidata": "Q3117359", "operator:wikipedia": "fr:Groupe Carrefour", "ref:FR:SIRET": "45373029300025", "shop": "convenience", "website": "https://www.carrefour.fr/magasin/city-paris-laumiere-29-33", "wheelchair": "yes"}}, {"type": "node", "id": 1114770290, "lat": 48.8846161, "lon": 2.3801391, "tags": {"addr:city": "Paris", "addr:housenumber": "30", "addr:postcode": "75019", "addr:street": "Avenue de Laumi\u00e8re", "brand": "Copaline", "contact:phone": "+33 1 42 08 49 67", "name": "Moi, Beau & Gourmand", "opening_hours": "Th-Tu 07:00-21:00", "ref:FR:SIRET": "98432489700011", "shop": "bakery", "wheelchair": "no"}}, {"type": "node", "id": 1374463833, "lat": 48.8847157, "lon": 2.38711, "tags": {"addr:city": "Paris", "brand": "Franprix", "brand:wikidata": "Q2420096", "brand:wikipedia": "fr:Franprix", "check_date:opening_hours": "2024-10-05", "name": "Franprix", "opening_hours": "Mo-Sa 08:00-21:00; Su 09:00-13:00", "operator": "Groupe Casino", "shop": "convenience", "website": "https://www.franprix.fr/magasins/5565", "wheelchair": "yes"}}, {"type": "node", "id": 1716475857, "lat": 48.8791372, "lon": 2.3927158, "tags": {"brand": "Lidl", "brand:website": "http://www.lidl.fr", "brand:wikidata": "Q151954", "brand:wikipedia": "en:Lidl", "check_date": "2025-03-29", "dog": "no", "name": "Lidl", "opening_hours": "Mo-Sa 08:00-21:00", "operator": "Lidl", "shop": "supermarket"}}, {"type": "node", "id": 1861762247, "lat": 48.8862755, "lon": 2.3902609, "tags": {"brand": "Picard", "brand:wikidata": "Q3382454", "brand:wikipedia": "en:Picard Surgel\u00e9s", "name": "Picard", "opening_hours": "Mo-Sa 09:00-20:30; Su 09:00-12:45", "operator": "Picard", "phone": "+33 1 40 18 38 52", "ref:FR:SIRET": "78493968807135", "shop": "frozen_food", "website": "https://magasins.picard.fr/739-picard-petit"}}, {"type": "node", "id": 1861771884, "lat": 48.8861169, "lon": 2.3918493, "tags": {"brand": "Franprix", "brand:wikidata": "Q2420096", "brand:wikipedia": "fr:Franprix", "name": "Franprix", "opening_hours": "Mo-Sa 07:30-22:00; Su 09:00-22:00", "operator": "Groupe Casino", "shop": "convenience", "wheelchair": "yes"}}, {"type": "node", "id": 1862683459, "lat": 48.8891032, "lon": 2.3895778, "tags": {"check_date": "2024-02-09", "name": "Woodbrass", "shop": "musical_instrument"}}, {"type": "node", "id": 1954922460, "lat": 48.8838368, "lon": 2.3847889, "tags": {"addr:street": "Rue de Crim\u00e9e", "brand": "Carrefour", "brand:wikidata": "Q217599", "name": "Carrefour", "opening_hours": "Mo-Sa 08:00-21:00; Su 09:00-21:00", "ref:FR:SIRET": "93498799100015", "shop": "convenience", "website": "https://www.carrefour.fr/magasin/city-paris-crimee-96", "wheelchair": "yes"}}, {"type": "node", "id": 1954925792, "lat": 48.8794238, "lon": 2.3893222, "tags": {"name": "La boulangerie des Buttes Chaumont", "ref:FR:SIRET": "49112214900017", "shop": "bakery"}}, {"type": "node", "id": 2041654157, "lat": 48.8880271, "lon": 2.3922791, "tags": {"addr:city": "Paris", "addr:housenumber": "28", "addr:postcode": "75019", "addr:street": "Rue Eug\u00e8ne Jumin", "brand": "Carrefour City", "brand:wikidata": "Q2940187", "brand:wikipedia": "fr:Carrefour City", "name": "Carrefour City", "opening_hours": "Mo-Sa 07:00-22:00; Su 09:00-13:00", "operator": "Groupe Carrefour", "operator:wikidata": "Q3117359", "operator:wikipedia": "fr:Groupe Carrefour", "phone": "+33 1 42 00 01 35", "ref:FR:SIRET": "93372009600017", "shop": "convenience", "website": "https://www.carrefour.fr/magasin/city-paris-jumin"}}, {"type": "node", "id": 2076338366, "lat": 48.8833757, "lon": 2.3849769, "tags": {"addr:city": "Paris", "addr:housenumber": "83", "addr:postcode": "75019", "addr:street": "Rue de Crim\u00e9e", "brand": "Po\u00eelane", "check_date": "2025-06-28", "indoor_seating": "no", "name": "Boulangerie Poil\u00e2ne", "opening_hours": "Mo-We off; Th-Su 08:00-14:00,15:00-19:00", "outdoor_seating": "no", "payment:cash": "yes", "payment:credit_cards": "yes", "payment:debit_cards": "yes", "phone": "+33 1 40 36 04 28", "ref:FR:SIRET": "32444503000061", "shop": "bakery", "takeaway": "only", "website": "https://www.poilane.com", "wheelchair": "no"}}, {"type": "node", "id": 2156533232, "lat": 48.8853733, "lon": 2.3807934, "tags": {"addr:postcode": "75019", "check_date": "2025-04-05", "name": "Sun Primeurs", "ref:FR:SIRET": "80289522700030", "shop": "greengrocer"}}, {"type": "node", "id": 2156533237, "lat": 48.8851559, "lon": 2.3809466, "tags": {"addr:housenumber": "2", "addr:postcode": "75019", "addr:street": "Rue du Rhin", "description": "Fromagerie", "name": "La ferme de Chlo\u00e9", "shop": "deli"}}, {"type": "node", "id": 2156533242, "lat": 48.8854678, "lon": 2.3814749, "tags": {"addr:postcode": "75019", "name": "Boucherie maison Desfresnes", "shop": "butcher"}}, {"type": "node", "id": 2156533246, "lat": 48.8853186, "lon": 2.3810911, "tags": {"addr:postcode": "75019", "name": "Huguet Primeur", "shop": "greengrocer"}}, {"type": "node", "id": 2448106719, "lat": 48.8878011, "lon": 2.3799281, "tags": {"addr:city": "Paris", "addr:housenumber": "155", "addr:postcode": "75019", "addr:street": "Rue de Crim\u00e9e", "indoor_seating": "no", "name": "La Fourn\u00e9e", "name:signed": "no", "outdoor_seating": "no", "ref:FR:SIRET": "47961453900027", "shop": "bakery", "takeaway": "only", "wheelchair": "limited"}}, {"type": "node", "id": 2499815381, "lat": 48.8823228, "lon": 2.381495, "tags": {"brand": "PFG", "brand:wikidata": "Q3396087", "brand:wikipedia": "fr:Pompes fun\u00e8bres g\u00e9n\u00e9rales", "name": "PFG", "official_name": "Pompes Fun\u00e8bres G\u00e9n\u00e9rales", "opening_hours": "Mo-Fr 09:00-12:30,14:00-18:00; Sa 09:00-12:30,14:00-16:00", "ref:FR:SIRET": "54207679913083", "shop": "funeral_directors", "short_name": "PFG", "wheelchair": "no"}}, {"type": "node", "id": 2499815388, "lat": 48.8843969, "lon": 2.3797512, "tags": {"brand": "Franprix", "brand:wikidata": "Q2420096", "brand:wikipedia": "fr:Franprix", "check_date:opening_hours": "2024-09-15", "name": "March\u00e9 Franprix", "opening_hours": "Mo-Sa 07:30-22:00; Su 09:00-22:00", "shop": "supermarket", "wheelchair": "yes"}}, {"type": "node", "id": 2499815558, "lat": 48.8838466, "lon": 2.3808115, "tags": {"check_date:opening_hours": "2019-09-21", "name": "La maison fleurie", "ref:FR:SIRET": "33153549200036", "shop": "florist", "wheelchair": "yes"}}, {"type": "node", "id": 2499815625, "lat": 48.8850233, "lon": 2.3797672, "tags": {"name": "Optique Laumiere", "opening_hours": "Tu-Fr 09:30-19:00; Mo 11:00-19:00; Sa 11:00-19:00", "ref:FR:SIRET": "81513905000018", "shop": "optician", "wheelchair": "no"}}, {"type": "node", "id": 2501380318, "lat": 48.8864701, "lon": 2.3929272, "tags": {"name": "La Tradition Gourmande", "opening_hours": "Su-Fr 06:15-20:30", "ref:FR:SIRET": "75228611200012", "shop": "bakery"}}, {"type": "node", "id": 2501380319, "lat": 48.8864054, "lon": 2.3924796, "tags": {"name": "Bill Bazar", "shop": "gift"}}, {"type": "node", "id": 2501383117, "lat": 48.8846688, "lon": 2.3917594, "tags": {"name": "Charles Traiteur", "opening_hours:signed": "no", "shop": "deli"}}, {"type": "node", "id": 2550348264, "lat": 48.8855982, "lon": 2.3827283, "tags": {"male": "yes", "name": "Bumpy", "opening_hours": "Mo-Sa 11:00-20:00; Su 14:00-19:00", "ref:FR:SIRET": "92828188000023", "shop": "hairdresser", "wheelchair": "no"}}, {"type": "node", "id": 2869280257, "lat": 48.879255, "lon": 2.384685, "tags": {"check_date": "2025-03-29", "name": "belleza", "opening_hours": "Tu-Sa 10:00-19:00", "ref:FR:SIRET": "91282111300012", "shop": "beauty"}}, {"type": "node", "id": 2869298638, "lat": 48.8794155, "lon": 2.3871908, "tags": {"brand": "Picard", "brand:wikidata": "Q3382454", "brand:wikipedia": "en:Picard Surgel\u00e9s", "name": "Picard", "opening_hours": "Mo-Sa 09:00-20:30; Su 09:00-12:45", "phone": "+33 1 42 06 30 17", "ref:FR:SIRET": "78493968804942", "shop": "frozen_food", "website": "https://magasins.picard.fr/129-picard-botzaris"}}, {"type": "node", "id": 2869300122, "lat": 48.8794086, "lon": 2.3868635, "tags": {"brand": "Naturalia", "brand:wikidata": "Q3337081", "brand:wikipedia": "fr:Naturalia", "name": "Naturalia", "opening_hours": "Mo-Sa 09:00-20:45; Su 09:00-13:45", "organic": "yes", "phone": "+33 1 44 53 99 85", "ref:FR:SIRET": "30247464801449", "shop": "supermarket", "source": "survey", "website": "https://magasins.naturalia.fr/naturalia/fr/store/france/ile-de-france/paris/paris/botzaris/3958"}}, {"type": "node", "id": 2913188424, "lat": 48.8858942, "lon": 2.3827093, "tags": {"addr:city": "Paris", "addr:housenumber": "112", "addr:postcode": "75019", "addr:street": "Avenue Jean Jaur\u00e8s", "check_date": "2025-10-25", "check_date:opening_hours": "2025-06-28", "dispensing": "yes", "name": "Pharmacie 112", "opening_hours": "Mo-Sa 09:00-20:00", "payment:cards": "yes", "payment:cash": "yes", "payment:credit_cards": "yes", "payment:debit_cards": "yes", "phone": "+33 142398134", "ref:FR:FINESS": "750034886", "shop": "vacant"}}, {"type": "node", "id": 2913450892, "lat": 48.882172, "lon": 2.3813928, "tags": {"name": "Balouka", "opening_hours": "Su-Fr 10:30-18:45", "shop": "jewelry"}}, {"type": "node", "id": 2919544307, "lat": 48.8848195, "lon": 2.3792679, "tags": {"name": "Substrats caviste", "ref:FR:SIRET": "84971009000010", "shop": "wine"}}, {"type": "node", "id": 2919548627, "lat": 48.8849673, "lon": 2.3801551, "tags": {"name": "Maison Saulais", "opening_hours": "Tu-Sa 07:00-21:00; Su 07:00-19:30", "ref:FR:SIRET": "79373190200011", "shop": "bakery"}}, {"type": "node", "id": 2919558552, "lat": 48.8850078, "lon": 2.3802691, "tags": {"addr:city": "Paris", "addr:housenumber": "100", "addr:postcode": "75019", "addr:street": "Rue de Meaux", "name": "Poissonnerie Vent et Mar\u00e9e & Traiteur", "opening_hours": "Tu-Th 09:30-13:30,16:00-19:30; Fr,Sa 09:30-19:30; Su 09:30-13:00", "operator": "Sylvain DEY", "payment:american_express": "yes", "payment:cash": "yes", "payment:mastercard": "yes", "payment:visa": "yes", "phone": "+33 1 42 40 66 36", "shop": "seafood"}}, {"type": "node", "id": 2919558555, "lat": 48.8851564, "lon": 2.380202, "tags": {"male": "yes", "name": "Coupe coiffe", "shop": "hairdresser"}}, {"type": "node", "id": 2919559722, "lat": 48.8851815, "lon": 2.3802771, "tags": {"branch": "Jaur\u00e8s", "brand": "Nicolas", "brand:website": "https://www.nicolas.com/", "brand:wikidata": "Q3340012", "brand:wikipedia": "fr:Nicolas (entreprise vinicole)", "contact:city": "Paris", "contact:housenumber": "102", "contact:postcode": "75019", "contact:street": "Avenue Jean Jaur\u00e8s", "name": "Nicolas", "operator": "\u00c9tablissements Nicolas", "operator:ref:FR:SIREN": "542066238", "ref:FR:NAF": "47.25Z", "ref:FR:SIRET": "54206623804281", "ref:vatin": "FR31542066238", "shop": "alcohol"}}, {"type": "node", "id": 2919560140, "lat": 48.8850863, "lon": 2.3804863, "tags": {"brand": "Picard", "brand:wikidata": "Q3382454", "brand:wikipedia": "en:Picard Surgel\u00e9s", "name": "Picard", "opening_hours": "Mo-Sa 09:00-20:30; Su 09:00-12:45", "operator": "Picard", "phone": "+33 6 16 07 21 26", "ref:FR:SIRET": "78493968802268", "shop": "frozen_food", "website": "https://magasins.picard.fr/463-picard-laumiere"}}, {"type": "node", "id": 2919560141, "lat": 48.8852049, "lon": 2.3803408, "tags": {"name": "Le Panier Garni", "ref:FR:SIRET": "82169169800012", "shop": "convenience"}}, {"type": "node", "id": 2919561982, "lat": 48.8852622, "lon": 2.3804883, "tags": {"name": "Smakq", "shop": "e-cigarette"}}, {"type": "node", "id": 2919564162, "lat": 48.8852984, "lon": 2.3805795, "tags": {"name": "Le Pavillon aux Fleurs", "ref:FR:SIRET": "41142647100024", "shop": "florist"}}, {"type": "node", "id": 2919575685, "lat": 48.8852321, "lon": 2.3808672, "tags": {"name": "Boucherie Durand", "shop": "butcher"}}, {"type": "node", "id": 2921097247, "lat": 48.8853691, "lon": 2.3811993, "tags": {"check_date": "2025-04-05", "name": "Les Merveilles D'Oona", "opening_hours": "Tu-Sa 10:00-19:00", "phone": "+33 1 53 72 45 48", "shop": "baby_goods"}}, {"type": "node", "id": 2921110219, "lat": 48.885418, "lon": 2.3813341, "tags": {"check_date": "2025-04-05", "name": "D\u00e9co Laumi\u00e8re", "ref:FR:SIRET": "92785421600011", "shop": "variety_store"}}, {"type": "node", "id": 2921110270, "lat": 48.885444, "lon": 2.3813991, "tags": {"name": "Star Orientale", "ref:FR:SIRET": "75045526300012", "shop": "convenience"}}, {"type": "node", "id": 2921116938, "lat": 48.8854894, "lon": 2.3815292, "tags": {"addr:housenumber": "112", "addr:postcode": "75019", "addr:street": "Rue de Meaux", "name": "La Maison des D\u00e9lices", "opening_hours": "Sa-Th 06:00-21:00", "ref:FR:SIRET": "83430841300014", "shop": "bakery"}}, {"type": "node", "id": 2921125937, "lat": 48.8855693, "lon": 2.3817686, "tags": {"name": "Boucherie Laumi\u00e8re", "shop": "butcher"}}, {"type": "node", "id": 2921129334, "lat": 48.8856226, "lon": 2.3818987, "tags": {"addr:city": "Paris", "addr:housenumber": "116", "addr:postcode": "75019", "addr:street": "Rue de Meaux", "check_date": "2025-06-25", "name": "La flute de Meaux", "opening_hours": "We-Sa 07:30-20:00; Su 07:30-14:00", "payment:cash": "yes", "payment:contactless": "yes", "payment:credit_cards": "yes", "payment:debit_cards": "yes", "phone": "+33140409477", "shop": "bakery"}}, {"type": "node", "id": 2921130134, "lat": 48.8856574, "lon": 2.3819979, "tags": {"female": "yes", "male": "yes", "name": "Biba Coiffure", "shop": "hairdresser"}}, {"type": "node", "id": 2921130390, "lat": 48.8856425, "lon": 2.3819517, "tags": {"name": "Cavavin", "ref:FR:SIRET": "80134455700021", "shop": "alcohol"}}, {"type": "node", "id": 2921136401, "lat": 48.8857593, "lon": 2.382248, "tags": {"check_date": "2025-02-12", "name": "RG pret a porter", "ref:FR:SIRET": "75086368000013", "shop": "clothes"}}, {"type": "node", "id": 2922517525, "lat": 48.8828304, "lon": 2.3832962, "tags": {"brand": "Renault", "brand:wikidata": "Q6686", "check_date": "2024-03-18", "name": "Renault - Agence Buttes-Chaumont", "shop": "car", "website": "https://renault-buttes-chaumont.fr/"}}, {"type": "node", "id": 2922574508, "lat": 48.8832585, "lon": 2.3871819, "tags": {"name": "Parenth\u00e8se fleurie", "opening_hours": "Tu-Sa 10:30-20:00; Su 10:00-14:00", "ref:FR:SIRET": "80934546500011", "shop": "florist"}}, {"type": "node", "id": 2922574553, "lat": 48.8832708, "lon": 2.3873093, "tags": {"addr:city": "Paris 19eme Arrondissement", "addr:housenumber": "103", "addr:postcode": "75019", "addr:street": "Rue Manin", "name": "Rapid-Market", "opening_hours": "Su-Fr 08:30-23:00", "payment:cash": "yes", "payment:credit_cards": "yes", "shop": "convenience"}}, {"type": "node", "id": 2922581803, "lat": 48.8830636, "lon": 2.3875238, "tags": {"contact:email": "adelferass@hotmail.fr", "contact:phone": "+33 6 46 57 26 37;+33 6 95 25 23 87", "name": "Primeur Manin", "organic": "yes", "shop": "greengrocer", "website": "https://www.epicery.com/epiceries/primeur-manin"}}, {"type": "node", "id": 2922591183, "lat": 48.8832964, "lon": 2.3875708, "tags": {"addr:city": "Paris 19eme Arrondissement", "addr:housenumber": "105", "addr:postcode": "75019", "addr:street": "Rue Manin", "check_date:opening_hours": "2024-04-14", "female": "yes", "male": "yes", "name": "Tony Karcenty", "opening_hours": "Mo 10:00-16:00; Tu-Fr 09:30-19:00; Sa 09:30-13:30", "phone": "+33140036448", "shop": "hairdresser"}}, {"type": "node", "id": 2922600066, "lat": 48.8830874, "lon": 2.3878108, "tags": {"name": "L'artisan boulanger Maison Maaned", "shop": "bakery", "wheelchair": "no"}}, {"type": "node", "id": 2922610060, "lat": 48.8831968, "lon": 2.3885552, "tags": {"check_date": "2024-03-18", "name": "Optic Chaumont", "ref:FR:SIRET": "42245748100014", "shop": "optician"}}, {"type": "node", "id": 2922610061, "lat": 48.8832135, "lon": 2.3886303, "tags": {"check_date": "2024-03-18", "name": "Serrurerie Manin", "shop": "locksmith"}}, {"type": "node", "id": 2922612714, "lat": 48.8833581, "lon": 2.3881568, "tags": {"name": "Institut Manin", "opening_hours:signed": "no", "ref:FR:SIRET": "42147730800017", "shop": "beauty"}}, {"type": "node", "id": 2922616885, "lat": 48.8832525, "lon": 2.3888086, "tags": {"check_date": "2024-03-18", "name": "Institut Menasa", "shop": "beauty", "website": "https://www.institutmenasa.com/ruemanin"}}, {"type": "node", "id": 2931617057, "lat": 48.8878184, "lon": 2.3901885, "tags": {"name": "Woodbrass", "opening_hours": "Tu-Fr 10:00-12:30,14:00-19:00; Sa 10:00-19:00", "ref:FR:SIRET": "42212829800045", "shop": "musical_instrument", "source": "survey", "website": "https://www.woodbrass.com/"}}, {"type": "node", "id": 2931788253, "lat": 48.8839109, "lon": 2.3897638, "tags": {"amenity": "fuel", "brand": "Total", "brand:wikidata": "Q154037", "brand:wikipedia": "fr:Total (entreprise)", "compressed_air": "yes", "fuel:diesel": "yes", "fuel:e10": "yes", "fuel:octane_98": "yes", "name": "Total", "opening_hours": "24/7", "phone": "+33 1 42 02 46 75", "ref:FR:prix-carburants": "75019015", "shop": "convenience", "source": "Minist\u00e8re de l'Economie, de l'Industrie et du Num\u00e9rique - 03/2020", "website": "https://store.totalenergies.fr/en_EN/NF006554"}}, {"type": "node", "id": 2931842940, "lat": 48.884276, "lon": 2.3914938, "tags": {"brand": "Naturalia", "brand:wikidata": "Q3337081", "brand:wikipedia": "fr:Naturalia", "name": "Naturalia", "opening_hours": "Su 09:00-12:45; Mo-Sa 09:00-20:45", "phone": "+33 1 48 74 47 07", "ref:FR:SIRET": "30247464801464", "shop": "supermarket", "website": "https://magasins.naturalia.fr/naturalia/fr/store/france/ile-de-france/paris/paris/manin/3961"}}, {"type": "node", "id": 2931849744, "lat": 48.8845436, "lon": 2.391412, "tags": {"brand": "Hypercacher", "brand:wikidata": "Q18746214", "brand:wikipedia": "fr:Hyper Cacher", "diet:kosher": "only", "name": "Hypercacher", "opening_hours": "Su-Th 08:30-19:00", "ref:FR:SIRET": "39417034400011", "shop": "supermarket"}}, {"type": "node", "id": 2931849969, "lat": 48.8848139, "lon": 2.3919723, "tags": {"name": "Kosher Discount", "shop": "butcher"}}, {"type": "node", "id": 2931858388, "lat": 48.8849435, "lon": 2.3922203, "tags": {"name": "Beit Hassofer", "opening_hours:signed": "no", "shop": "books"}}, {"type": "node", "id": 2931868465, "lat": 48.8854669, "lon": 2.3930093, "tags": {"check_date": "2024-03-18", "name": "Centre optique Manin", "shop": "optician"}}, {"type": "node", "id": 2931871450, "lat": 48.8855242, "lon": 2.393071, "tags": {"check_date": "2024-03-18", "name": "Chocolats Damyel", "ref:FR:SIRET": "43890107600069", "shop": "chocolate"}}, {"type": "node", "id": 2931873115, "lat": 48.8855904, "lon": 2.3931394, "tags": {"check_date": "2024-03-18", "name": "Opti'zien", "shop": "optician"}}, {"type": "node", "id": 2931879101, "lat": 48.8857588, "lon": 2.393311, "tags": {"name": "Damyel", "shop": "chocolate"}}, {"type": "node", "id": 2951268912, "lat": 48.8824304, "lon": 2.3810845, "tags": {"addr:city": "Paris", "addr:housenumber": "3", "addr:postcode": "75019", "addr:street": "Rue Armand Carrel", "craft": "dressmaker", "level": "0", "name": "Swanny Beauty", "opening_hours": "10:00-19:30", "shop": "beauty"}}, {"type": "node", "id": 2951269610, "lat": 48.882448, "lon": 2.3806862, "tags": {"addr:city": "Paris", "addr:housenumber": "7", "addr:postcode": "75019", "addr:street": "Rue Armand Carrel", "name": "Le Boudoir du Regard", "opening_hours": "Mo-Su 10:00-19:00", "phone": "+33 1 42 40 21 86", "shop": "beauty", "website": "https://www.boudoirduregard.com/"}}, {"type": "node", "id": 2951269619, "lat": 48.8826738, "lon": 2.3808391, "tags": {"check_date": "2024-03-18", "shop": "vacant"}}, {"type": "node", "id": 2951271656, "lat": 48.8824348, "lon": 2.3810041, "tags": {"addr:city": "Paris", "addr:housenumber": "5", "addr:postcode": "75019", "addr:street": "Rue Armand Carrel", "name": "Infinity Audition", "opening_hours": "Mo-Fr 09:30-12:30,14:00-18:30", "shop": "hearing_aids", "website": "www.infinityaudition.fr"}}, {"type": "node", "id": 2951272960, "lat": 48.8824295, "lon": 2.3811637, "tags": {"addr:street": "Rue Armand Carrel", "name": "Pompes Fun\u00e8bres Nouvelles", "opening_hours": "Mo-Fr 09:00-12:30,14:00-17:30", "shop": "funeral_directors"}}, {"type": "node", "id": 2973415796, "lat": 48.8827999, "lon": 2.3812609, "tags": {"check_date": "2024-03-18", "name": "Boulangerie P\u00e2tisserie", "opening_hours": "Mo-Sa 07:00-21:00", "shop": "bakery"}}, {"type": "node", "id": 2973420665, "lat": 48.8829457, "lon": 2.3811391, "tags": {"level": "0", "name": "Audio Chaumont", "ref:FR:SIRET": "95302542600016", "shop": "hearing_aids"}}, {"type": "node", "id": 2973424861, "lat": 48.8829815, "lon": 2.3811099, "tags": {"name": "La Vieille France", "shop": "bakery"}}, {"type": "node", "id": 2973437336, "lat": 48.8830415, "lon": 2.3810552, "tags": {"check_date:opening_hours": "2024-09-15", "name": "Institut de beaut\u00e9 Laumiere", "opening_hours": "Mo,Tu,Th-Sa 08:30-18:30", "ref:FR:SIRET": "52764131000018", "shop": "beauty"}}, {"type": "node", "id": 2973439956, "lat": 48.8831235, "lon": 2.3809838, "tags": {"name": "Les Mains avec Sara", "ref:FR:SIRET": "91457005600012", "shop": "beauty"}}, {"type": "node", "id": 2973442701, "lat": 48.8832802, "lon": 2.3808248, "tags": {"name": "L'institut chaumont", "shop": "beauty"}}, {"type": "node", "id": 2973454986, "lat": 48.8836149, "lon": 2.3805328, "tags": {"addr:housenumber": "25", "addr:street": "Avenue de Laumi\u00e8re", "cbd": "only", "name": "Well'Be Store", "opening_hours": "Mo,Tu 12:00-20:00; We-Sa 10:00-20:00", "phone": "+33 1 70 60 75 03", "shop": "cannabis", "website": "https://lelabdubonheur.fr"}}, {"type": "node", "id": 2973458107, "lat": 48.8837209, "lon": 2.3809271, "tags": {"name": "Laumi\u00e8re Voyages", "opening_hours": "Mo-Fr 09:30-13:00,14:00-18:30; Sa 10:00-13:00", "ref:FR:SIRET": "33041470700019", "shop": "travel_agency"}}, {"type": "node", "id": 2973459633, "lat": 48.8836592, "lon": 2.3804879, "tags": {"check_date:opening_hours": "2022-07-23", "name": "Les Cr\u00e9ateurs Opticiens", "opening_hours:signed": "no", "shop": "optician"}}, {"type": "node", "id": 2973459748, "lat": 48.8837985, "lon": 2.3808551, "tags": {"name": "L'atelier du mat\u00e9riel m\u00e9dical", "opening_hours": "Mo-Fr 09:00-18:00", "shop": "medical_supply"}}, {"type": "node", "id": 2973461439, "lat": 48.883884, "lon": 2.3802398, "tags": {"addr:city": "Paris", "brand": "Carrefour City", "brand:wikidata": "Q2940187", "brand:wikipedia": "fr:Carrefour City", "check_date:opening_hours": "2024-09-15", "name": "Carrefour City", "opening_hours": "Mo-Sa 07:00-22:00; Su 09:00-22:00", "ref:FR:SIRET": "97912300700010", "shop": "convenience"}}, {"type": "node", "id": 2973462844, "lat": 48.8837767, "lon": 2.3803702, "tags": {"brand": "Franck Provost", "brand:wikidata": "Q62805922", "brand:wikipedia": "fr:Franck Provost (Salons de coiffure)", "check_date:opening_hours": "2024-09-15", "female": "yes", "male": "yes", "name": "Franck Provost", "opening_hours": "Tu,We,Fr 10:00-19:00; Th 10:00-20:00; Sa 09:00-19:00", "ref:FR:SIRET": "88814847500013", "shop": "hairdresser"}}, {"type": "node", "id": 2973464515, "lat": 48.8839156, "lon": 2.3807547, "tags": {"facebook": "https://www.facebook.com/epiceriegogokiwi/", "name": "Go go kiwi", "organic": "yes", "ref:FR:SIRET": "89011958900020", "shop": "convenience"}}, {"type": "node", "id": 2973470489, "lat": 48.8840962, "lon": 2.3800738, "tags": {"addr:city": "Paris", "addr:housenumber": "33", "addr:postcode": "75019", "addr:street": "Avenue de Laumi\u00e8re", "brand": "Mr.Bricolage", "brand:wikidata": "Q3141657", "name": "Mr.Bricolage", "old_name": "Bricolex", "opening_hours": "Mo-Sa 09:15-19:15", "phone": "+33 1 42 06 97 62", "shop": "doityourself"}}, {"type": "node", "id": 2973472799, "lat": 48.8842565, "lon": 2.3799448, "tags": {"name": "Ada Bazar", "shop": "variety_store"}}, {"type": "node", "id": 2973472800, "lat": 48.8844944, "lon": 2.3797181, "tags": {"name": "Librairie Laumi\u00e8re", "opening_hours": "Tu,We,Fr,Sa 10:30-19:00; Th,Su,Mo off", "ref:FR:SIRET": "79406326300014", "shop": "books"}}, {"type": "node", "id": 2973472943, "lat": 48.8843037, "lon": 2.3799095, "tags": {"internet_access": "yes", "internet_access:fee": "yes", "name": "SR International", "opening_hours:signed": "no", "shop": "mobile_phone"}}, {"type": "node", "id": 2973473012, "lat": 48.8845716, "lon": 2.3796591, "tags": {"name": "Casper", "shop": "mobile_phone"}}, {"type": "node", "id": 2973473067, "lat": 48.8845297, "lon": 2.3796866, "tags": {"name": "Julia L\u00e9o Beaut\u00e9", "ref:FR:SIRET": "93069816200011", "shop": "beauty"}}, {"type": "node", "id": 2973487421, "lat": 48.8844978, "lon": 2.3802314, "tags": {"alt_name": "Jacques Dumont", "name": "dumont", "opening_hours": "Tu,We,Fr 10:00-19:00; Th 11:00-20:00; Sa 09:00-18:00", "ref:FR:SIRET": "93219283400012", "shop": "hairdresser"}}, {"type": "node", "id": 2991169357, "lat": 48.8840639, "lon": 2.3838437, "tags": {"name": "Retouches", "shop": "tailor"}}, {"type": "node", "id": 2991172086, "lat": 48.8831058, "lon": 2.3826095, "tags": {"addr:housenumber": "3", "addr:street": "Rue Meynadier", "check_date:opening_hours": "2021-03-06", "name": "Pompes fun\u00e8bres de France", "opening_hours": "Mo-Fr 09:00-18:00", "phone": "+33 1 45 96 09 60", "ref:FR:SIRET": "87939990500071", "shop": "funeral_directors", "website": "https://www.pompesfunebresdefrance.com"}}, {"type": "node", "id": 2991182080, "lat": 48.8838126, "lon": 2.3839621, "tags": {"name": "Nanou Beaut\u00e9", "ref:FR:SIRET": "89502726600017", "shop": "beauty"}}, {"type": "node", "id": 2991182917, "lat": 48.8839423, "lon": 2.384127, "tags": {"name": "T\u00e9l\u00e9phonique Crim\u00e9e", "shop": "mobile_phone"}}, {"type": "node", "id": 3007323465, "lat": 48.8839824, "lon": 2.3818626, "tags": {"name": "Agir Informatique", "shop": "computer"}}, {"type": "node", "id": 3007323926, "lat": 48.8834613, "lon": 2.3821925, "tags": {"name": "Peintres sans frontieres", "shop": "art"}}, {"type": "node", "id": 3007337548, "lat": 48.8845994, "lon": 2.3812537, "tags": {"name": "Sam Coiffure", "shop": "hairdresser"}}, {"type": "node", "id": 3007350362, "lat": 48.8848499, "lon": 2.3811357, "tags": {"shop": "mobile_phone"}}, {"type": "node", "id": 3007362445, "lat": 48.8849605, "lon": 2.3812779, "tags": {"name": "Elle Paris", "shop": "beauty"}}, {"type": "node", "id": 3007372165, "lat": 48.8851091, "lon": 2.3809747, "tags": {"name": "S.P.S.", "shop": "mobile_phone"}}, {"type": "node", "id": 3103409030, "lat": 48.8901935, "lon": 2.3795769, "tags": {"name": "Eye's Heaven", "opening_hours": "We-Sa 10:00-19:00; Su 10:00-18:00", "shop": "optician"}}, {"type": "node", "id": 3255840763, "lat": 48.8828882, "lon": 2.389627, "tags": {"name": "Boulangerie P\u00e2tisserie", "opening_hours": "Su-Fr 07:00-21:00", "shop": "bakery", "wheelchair": "no"}}, {"type": "node", "id": 3255840836, "lat": 48.8830892, "lon": 2.3887097, "tags": {"name": "Laverie Libre Service", "opening_hours": "Mo-Su 07:00-22:00", "self_service": "yes", "shop": "laundry", "wheelchair": "yes"}}, {"type": "node", "id": 3255846628, "lat": 48.883054, "lon": 2.3888666, "tags": {"brand": "Proxi", "brand:wikidata": "Q3408522", "brand:wikipedia": "fr:Proxi", "name": "Proxi", "shop": "convenience"}}, {"type": "node", "id": 3255846726, "lat": 48.8829622, "lon": 2.3882812, "tags": {"name": "Le Touareg Catering", "ref:FR:SIRET": "44382709200034", "shop": "mobile_phone"}}, {"type": "node", "id": 3255846801, "lat": 48.8829622, "lon": 2.3881491, "tags": {"name": "Gekik Pressing", "ref:FR:SIRET": "30335459100016", "shop": "dry_cleaning"}}, {"type": "node", "id": 3255861927, "lat": 48.8817902, "lon": 2.3930119, "tags": {"check_date": "2025-12-19", "check_date:opening_hours": "2025-12-19", "name": "Laverie libre service", "opening_hours": "Mo-Su 07:00-22:00", "self_service": "yes", "shop": "laundry", "wheelchair": "limited"}}, {"type": "node", "id": 3255862803, "lat": 48.881866, "lon": 2.3925962, "tags": {"name": "Ted-Commuphone", "shop": "electronics"}}, {"type": "node", "id": 3255867300, "lat": 48.8829658, "lon": 2.3942069, "tags": {"brand": "Carrefour City", "brand:wikidata": "Q2940187", "brand:wikipedia": "fr:Carrefour City", "check_date": "2023-10-29", "name": "Carrefour City", "opening_hours": "Mo-Sa 07:00-22:00; Su 09:00-13:00", "operator": "Groupe Carrefour", "operator:wikidata": "Q3117359", "operator:wikipedia": "fr:Groupe Carrefour", "phone": "+33 1 40 03 99 80", "ref:FR:SIRET": "75147134300036", "shop": "convenience", "website": "https://www.carrefour.fr/magasin/city-paris-19-brunet"}}, {"type": "node", "id": 3255870581, "lat": 48.8817302, "lon": 2.3924165, "tags": {"shop": "florist"}}, {"type": "node", "id": 3255873003, "lat": 48.883039, "lon": 2.394805, "tags": {"name": "S.C.S. Auto", "shop": "car_repair", "survey:date": "2023-10-29"}}, {"type": "node", "id": 3255875561, "lat": 48.8812778, "lon": 2.3917459, "tags": {"name": "Al Forno", "shop": "deli"}}, {"type": "node", "id": 3257227837, "lat": 48.8833302, "lon": 2.3906023, "tags": {"name": "D\u00e9brouille Compagnie", "shop": "craft"}}, {"type": "node", "id": 3257236466, "lat": 48.8845402, "lon": 2.3942622, "tags": {"check_date": "2023-10-29", "name": "Oscar Tourisme", "ref:FR:SIRET": "39535876500042", "shop": "travel_agency"}}, {"type": "node", "id": 3352190349, "lat": 48.8865931, "lon": 2.3945167, "tags": {"name:signed": "no", "opening_hours:signed": "no", "shop": "bakery"}}, {"type": "node", "id": 3352190351, "lat": 48.8858646, "lon": 2.3941868, "tags": {"brand": "G20", "brand:wikidata": "Q3504731", "brand:wikipedia": "fr:Supermarch\u00e9s G20", "check_date:opening_hours": "2022-02-17", "name": "G20", "opening_hours": "Mo-Sa 08:00-21:00; Su,PH 08:00-13:00", "ref:FR:SIRET": "82322936400018", "shop": "supermarket"}}, {"type": "node", "id": 3384171890, "lat": 48.8887143, "lon": 2.3882273, "tags": {"addr:city": "Paris", "addr:housenumber": "11", "addr:postcode": "75019", "addr:street": "Rue Adolphe Mille", "brand": "Franprix", "brand:wikidata": "Q2420096", "brand:wikipedia": "fr:Franprix", "name": "Franprix", "opening_hours": "Mo-Sa 07:30-21:00; Su 09:00-21:00", "ref:FR:SIRET": "91518494900021", "shop": "convenience", "website": "https://www.franprix.fr/magasins/5058"}}, {"type": "node", "id": 3486104520, "lat": 48.8861963, "lon": 2.3820353, "tags": {"addr:city": "Paris", "addr:housenumber": "128", "addr:postcode": "75019", "addr:street": "Rue de Crim\u00e9e", "name": "Prestige Audition", "ref:FR:SIRET": "95405614900014", "shop": "hearing_aids", "wheelchair": "no"}}, {"type": "node", "id": 3523375898, "lat": 48.879133, "lon": 2.3846707, "tags": {"addr:city": "Paris", "addr:housenumber": "23", "addr:postcode": "75019", "addr:street": "Rue du Tunnel", "amenity": "restaurant", "cuisine": "greek", "name": "Ouzeri", "shop": "deli"}}, {"type": "node", "id": 3627906598, "lat": 48.8863805, "lon": 2.3824473, "tags": {"name": "Paris Media Com", "ref:FR:SIRET": "80307335200020", "shop": "mobile_phone", "source": "survey"}}, {"type": "node", "id": 4294770431, "lat": 48.8856184, "lon": 2.3870276, "tags": {"name": "Aux D\u00e9lices de Maxime", "opening_hours": "Su-Fr 07:00-19:00", "ref:FR:SIRET": "40057364800039", "shop": "bakery", "wheelchair": "no"}}, {"type": "node", "id": 4701892928, "lat": 48.8870282, "lon": 2.3856819, "tags": {"check_date": "2024-03-18", "name": "Quicaillerie Mirus", "opening_hours": "Tu-Sa 10:00-13:00,15:00-19:00; PH off", "shop": "hardware", "source": "Observations personnelles"}}, {"type": "node", "id": 4809561629, "lat": 48.8896293, "lon": 2.3838981, "tags": {"branch": "Paris Ourcq", "brand": "Auchan Supermarch\u00e9", "brand:wikidata": "Q105857776", "check_date": "2025-10-24", "check_date:opening_hours": "2025-07-09", "name": "Auchan Supermarch\u00e9", "opening_hours": "Mo-Sa 08:30-22:00; Su 08:30-12:30,13:00-20:30", "ref:FR:SIRET": "41040901503968", "shop": "supermarket"}}, {"type": "node", "id": 5053090680, "lat": 48.8849592, "lon": 2.3791614, "tags": {"facebook": "https://www.facebook.com/LibrairieTexture/", "name": "Texture Librairie", "opening_hours": "Mo 11:00-13:00,14:00-19:30; Tu-Sa 10:30-19:30", "ref:FR:SIRET": "50433460800016", "shop": "books", "website": "http://www.texture-librairie.fr/"}}, {"type": "node", "id": 5189471681, "lat": 48.8869331, "lon": 2.3853369, "tags": {"check_date:opening_hours": "2024-05-01", "name": "Salome", "opening_hours:signed": "no", "shop": "clothes"}}, {"type": "node", "id": 5189471682, "lat": 48.8865391, "lon": 2.3852175, "tags": {"name": "Dis Moi Tout", "opening_hours": "Mo-Su 10:15-19:00", "shop": "clothes"}}, {"type": "node", "id": 5373296243, "lat": 48.8874259, "lon": 2.3803103, "tags": {"addr:city": "Paris", "addr:housenumber": "149", "addr:postcode": "75019", "addr:street": "Rue de Crim\u00e9e", "brand": "Franprix", "brand:wikidata": "Q2420096", "brand:wikipedia": "fr:Franprix", "check_date:opening_hours": "2025-08-03", "name": "Franprix", "opening_hours": "Mo-Sa 08:00-21:00; Su 09:00-13:00", "shop": "convenience", "wheelchair": "yes"}}, {"type": "node", "id": 5424401851, "lat": 48.8879043, "lon": 2.3920542, "tags": {"addr:city": "Paris", "addr:housenumber": "27", "addr:postcode": "75019", "addr:street": "Rue Eug\u00e8ne Jumin", "name": "Boucherie J. le Priol", "opening_hours": "Tu-Su 08:30-13:00, Tu-Sa 15:30-19:45", "phone": "+33 1 40 38 03 99", "ref:FR:SIRET": "83757197500031", "shop": "butcher", "wheelchair": "yes"}}, {"type": "node", "id": 5546086085, "lat": 48.8863872, "lon": 2.3815055, "tags": {"addr:city": "Paris", "addr:housenumber": "127", "addr:postcode": "75019", "addr:street": "Rue de Crim\u00e9e", "name": "La cale", "opening_hours": "Mo-Fr 10:30-14:30,16:00-20:00; Sa 10:00-19:30; Su 10:30-13:30", "ref:FR:SIRET": "89401913200022", "shop": "convenience", "website": "https://www.facebook.com/people/Epicerie-caf%C3%A9-La-Cale/100039772546559/"}}, {"type": "node", "id": 5635966121, "lat": 48.8870392, "lon": 2.3870814, "tags": {"addr:city": "Paris", "addr:housenumber": "148", "addr:postcode": "75019", "addr:street": "Avenue Jean Jaur\u00e8s", "name": "Artisan Boulanger", "opening_hours": "Tu-Fr 06:00-20:15; Sa 06:30-20:00", "payment:cash": "yes", "payment:credit_cards": "yes", "shop": "bakery"}}, {"type": "node", "id": 5655998990, "lat": 48.8840585, "lon": 2.3877387, "tags": {"addr:housenumber": "28", "addr:postcode": "75019", "addr:street": "All\u00e9e Darius Milhaud", "brand": "Proxi", "brand:wikidata": "Q90020480", "check_date": "2025-08-17", "email": "nawfele@hotmail.fr", "name": "Proxi", "opening_hours": "07:00-24:00", "payment:cash": "yes", "payment:debit_cards": "yes", "shop": "convenience", "source": "survey", "takeaway": "yes"}}, {"type": "node", "id": 5655998991, "lat": 48.8855729, "lon": 2.3867952, "tags": {"name": "Les Halles d'Hautpoul", "opening_hours:signed": "no", "ref:FR:SIRET": "80421471600016", "shop": "greengrocer"}}, {"type": "node", "id": 6070833837, "lat": 48.8862256, "lon": 2.3840029, "tags": {"addr:city": "Paris", "addr:housenumber": "124", "addr:postcode": "75019", "addr:street": "Avenue Jean Jaur\u00e8s", "brand": "Bio C' Bon", "brand:wikidata": "Q54312551", "brand:wikipedia": "fr:Bio c'bon", "bulk_purchase": "yes", "contact:facebook": "https://www.facebook.com/biocbonfrance/", "name": "Bio C' Bon", "opening_hours": "Mo-Sa 10:00-20:00; Su 10:00-13:00", "organic": "only", "phone": "+33 1 40 82 71 18", "ref:FR:SIRET": "49930885600685", "shop": "supermarket", "website": "https://bio-c-bon.eu/fr/nos_magasins/bio-c-bon-paris-jaures"}}, {"type": "node", "id": 6280619686, "lat": 48.8856664, "lon": 2.3945564, "tags": {"addr:city": "Paris", "addr:housenumber": "118", "addr:postcode": "75019", "addr:street": "Boulevard S\u00e9rurier", "check_date:opening_hours": "2022-02-17", "name": "TS Alimentation G\u00e9n\u00e9rale", "opening_hours": "Mo-Sa 08:00-23:00", "ref:FR:SIRET": "53828955400015", "shop": "grocery"}}, {"type": "node", "id": 6280619687, "lat": 48.8855925, "lon": 2.3945603, "tags": {"addr:city": "Paris", "addr:housenumber": "114", "addr:postcode": "75019", "addr:street": "Boulevard S\u00e9rurier", "check_date:opening_hours": "2023-10-29", "name": "Boucherie Hemaz P\u00e8re et Fils", "opening_hours:signed": "no", "ref:FR:SIRET": "83239667500015", "shop": "butcher"}}, {"type": "node", "id": 6280619688, "lat": 48.8860394, "lon": 2.3941726, "tags": {"name": "Hair Beauty Concept", "shop": "hairdresser"}}, {"type": "node", "id": 6280619785, "lat": 48.885951, "lon": 2.3945431, "tags": {"check_date:opening_hours": "2022-02-17", "name": "Centre Canin Toilettage", "opening_hours": "Mo-Sa 09:00-19:00", "ref:FR:SIRET": "88763012700017", "shop": "pet_grooming"}}, {"type": "node", "id": 6280619787, "lat": 48.8864713, "lon": 2.3931927, "tags": {"name": "diamond Liberty hair", "shop": "beauty", "survey:date": "2023-10-29"}}, {"type": "node", "id": 6280619885, "lat": 48.886109, "lon": 2.3945269, "tags": {"addr:city": "Paris", "addr:housenumber": "124", "addr:postcode": "75019", "addr:street": "Boulevard S\u00e9rurier", "check_date:opening_hours": "2023-10-29", "name": "Emma", "opening_hours:signed": "no", "ref:FR:SIRET": "51383519900011", "shop": "books"}}, {"type": "node", "id": 6280619886, "lat": 48.8865395, "lon": 2.3950822, "tags": {"female": "no", "male": "yes", "shop": "hairdresser"}}, {"type": "node", "id": 6280640285, "lat": 48.886817, "lon": 2.394053, "tags": {"name": "Aliance vision", "opening_hours": "Mo-Su 08:00-18:00", "shop": "optician"}}, {"type": "node", "id": 6280640286, "lat": 48.8872111, "lon": 2.3943921, "tags": {"addr:city": "Paris", "addr:housenumber": "161", "addr:postcode": "75019", "addr:street": "Boulevard S\u00e9rurier", "name": "Optique Sente des Dor\u00e9es", "ref:FR:SIRET": "85210816600012", "shop": "optician"}}, {"type": "node", "id": 6280640485, "lat": 48.8867623, "lon": 2.3944896, "tags": {"addr:city": "Paris", "addr:housenumber": "126", "addr:postcode": "75019", "addr:street": "Boulevard S\u00e9rurier", "name": "Photo Stock", "opening_hours": "Mo-Fr 08:00-13:00,14:30-18:30; Sa 10:00-13:00,14:30-06:30", "ref:FR:SIRET": "32599714600023", "shop": "photo", "website": "https://www.photostock.fr/"}}, {"type": "node", "id": 6414550841, "lat": 48.8822603, "lon": 2.383003, "tags": {"shop": "toys"}}, {"type": "node", "id": 6796873003, "lat": 48.8838556, "lon": 2.3844254, "tags": {"level": "0", "name": "AR Studio 2", "shop": "beauty", "wheelchair": "limited", "wheelchair:description:fr": "Marche de 3 cm."}}, {"type": "node", "id": 6796873004, "lat": 48.8839004, "lon": 2.3843711, "tags": {"level": "0", "name": "Aisha Institut", "ref:FR:SIRET": "91274531200013", "shop": "beauty", "wheelchair": "no"}}, {"type": "node", "id": 6828119265, "lat": 48.8793088, "lon": 2.3896567, "tags": {"addr:city": "Paris", "addr:housenumber": "39", "addr:postcode": "75019", "addr:street": "Rue de Crim\u00e9e", "name": "Good Hair", "ref:FR:SIRET": "83850260700016", "shop": "hairdresser"}}, {"type": "node", "id": 6983194170, "lat": 48.8799179, "lon": 2.3897412, "tags": {"addr:city": "Paris", "addr:housenumber": "3", "addr:postcode": "75019", "addr:street": "Rue du G\u00e9n\u00e9ral Brunet", "name": "Optique Botzaris", "opening_hours": "Sa closed; Su \"sur rdv\"; Mo-Th 10:00-13:00,14:00-19:00", "phone": "+33 1 44 91 90 09", "ref:FR:SIRET": "84795861800013", "shop": "optician", "wheelchair": "no"}}, {"type": "node", "id": 6983194172, "lat": 48.8799682, "lon": 2.3898108, "tags": {"addr:city": "Paris", "addr:housenumber": "3", "addr:postcode": "75019", "addr:street": "Rue du G\u00e9n\u00e9ral Brunet", "description": "fromages, charcuteries", "name": "La clayette de m\u00e9m\u00e9 Suzanne", "operator": "Vanessa Boudaoud", "ref:FR:SIRET": "84479910600019", "shop": "deli", "wheelchair": "limited"}}, {"type": "node", "id": 7182256416, "lat": 48.8878287, "lon": 2.3863778, "tags": {"addr:housenumber": "7", "addr:street": "Rue des Ardennes", "facebook": "https://www.facebook.com/pages/category/Product-Service/Le-Macaron-Tropycal-106612867829622/", "name": "Le Macaron Tropycal", "opening_hours": "Tu-Sa 07:00-20:00; Su 07:00-13:00", "payment:cash": "yes", "payment:cheques_dejeuner": "yes", "payment:credit_cards": "yes", "payment:debit_cards": "yes", "payment:edenred_card": "yes", "payment:mastercard": "yes", "payment:sodexo_pass": "yes", "payment:visa": "yes", "phone": "+33 1 42 00 93 73", "shop": "pastry", "source": "tvantilles", "start_date": "2020-10-06", "stroller": "limited", "wheelchair": "no"}}, {"type": "node", "id": 7182256417, "lat": 48.8877586, "lon": 2.3863992, "tags": {"addr:city": "Paris", "brand": "Carrefour City", "brand:wikidata": "Q2940187", "brand:wikipedia": "fr:Carrefour City", "check_date": "2025-07-04", "check_date:opening_hours": "2024-05-01", "name": "Carrefour City", "opening_hours": "Mo-Sa 07:00-21:00; Su 09:00-13:00", "opening_hours:signed": "no", "phone": "+33 1 42 49 38 45", "ref:FR:SIRET": "34513048823183", "shop": "convenience", "website": "https://www.carrefour.fr/magasin/city-paris-ardennes-7", "wheelchair": "yes"}}, {"type": "node", "id": 7182256419, "lat": 48.8872392, "lon": 2.3865726, "tags": {"name": "La Ch'tite Baguette", "opening_hours": "Mo-Fr 06:00-20:00", "ref:FR:SIRET": "51950076300015", "shop": "bakery"}}, {"type": "node", "id": 7182256421, "lat": 48.8853553, "lon": 2.3871477, "tags": {"name": "Sar\u00e9den", "opening_hours": "Mo-Th 07:00-19:30; Fr 07:00-14:00; Su 07:00-17:00", "organic": "yes", "ref:FR:SIRET": "75147296000010", "shop": "bakery", "wheelchair": "no"}}, {"type": "node", "id": 7182256434, "lat": 48.8840202, "lon": 2.387408, "tags": {"old_name": "Pour Mes Filles", "shop": "vacant"}}, {"type": "node", "id": 7182256440, "lat": 48.8830049, "lon": 2.3878647, "tags": {"kocher": "yes", "name": "Boucherie Avner", "opening_hours": "Mo-Th 08:30-19:30; Fr,Su 08:30-14:00", "shop": "butcher", "wheelchair": "no"}}, {"type": "node", "id": 7355236070, "lat": 48.8881662, "lon": 2.3919455, "tags": {"description": "Primeur : Fruits et l\u00e9gumes, petite \u00e9picerie asiatique", "name": "Mon Verger", "shop": "greengrocer", "wheelchair": "limited"}}, {"type": "node", "id": 7399747885, "lat": 48.886078, "lon": 2.3945372, "tags": {"check_date": "2023-10-29", "check_date:opening_hours": "2023-10-29", "name": "Mili Nail", "opening_hours:signed": "no", "ref:FR:SIRET": "82856915200014", "shop": "beauty"}}, {"type": "node", "id": 7399747886, "lat": 48.8860499, "lon": 2.3945489, "tags": {"check_date": "2023-10-29", "female:signed": "no", "male:signed": "no", "name": "Br1silhair", "opening_hours:signed": "no", "shop": "hairdresser"}}, {"type": "node", "id": 7449497166, "lat": 48.889717, "lon": 2.3831521, "tags": {"addr:city": "Paris", "addr:housenumber": "43", "addr:postcode": "75019", "addr:street": "Rue de l'Ourcq", "name": "L'\u00c9cume", "shop": "wine"}}, {"type": "node", "id": 7822234279, "lat": 48.8875804, "lon": 2.3878918, "tags": {"addr:city": "Paris", "addr:housenumber": "169", "addr:postcode": "75019", "addr:street": "Avenue Jean Jaur\u00e8s", "contact:email": "contact@lapetiteourcq.fr", "contact:phone": "+33 1 83 87 89 83", "facebook": "https://www.facebook.com/lapetiteourcq/", "name": "La Petite Ourcq", "opening_hours": "Tu-Sa 10:00-19:30; Su 10:00-13:00", "ref:FR:SIRET": "88277420100017", "shop": "books"}}, {"type": "node", "id": 7999237089, "lat": 48.8791578, "lon": 2.3845789, "tags": {"addr:city": "Paris", "addr:housenumber": "23", "addr:postcode": "75019", "addr:street": "Rue du Tunnel", "check_date": "2025-03-29", "contact:email": "contact@vqb.fr", "contact:phone": "+33 9 53 45 12 06", "name": "Le V\u00e9lo qui Brille", "opening_hours": "Mo-Sa 10:00-12:30,15:00-19:00", "service:bicycle:Bicycle_Sales_and_Service": "yes", "service:bicycle:bicycle": "yes", "service:bicycle:ebike": "yes", "service:bicycle:parts": "yes", "service:bicycle:pump": "yes", "service:bicycle:repair": "yes", "service:bicycle:retail": "yes", "service:bicycle:sales": "yes", "service:bicycle:service": "yes", "shop": "bicycle", "website": "https://www.vqb.fr/"}}, {"type": "node", "id": 8036518525, "lat": 48.8849376, "lon": 2.3800706, "tags": {"amenity": "cafe", "check_date": "2024-11-09", "cuisine": "coffee_shop", "internet_access": "yes", "name": "D\u00e9sir\u00e9e", "name:fr": "D\u00e9sir\u00e9e", "opening_hours": "Tu-Su 10:00-20:00", "payment:cash": "yes", "payment:credit_cards": "yes", "payment:debit_cards": "yes", "ref:FR:SIRET": "82960993200043", "shop": "florist", "website": "https://desireefleurs.fr/", "wheelchair": "limited"}}, {"type": "node", "id": 8188381305, "lat": 48.887125, "lon": 2.386063, "tags": {"shop": "vacant"}}, {"type": "node", "id": 9006704399, "lat": 48.8864925, "lon": 2.3864189, "tags": {"name": "DS Coiffure", "opening_hours": "Mo-Sa 10:00-19:00", "ref:FR:SIRET": "48501558000015", "shop": "hairdresser"}}, {"type": "node", "id": 9212757805, "lat": 48.883557, "lon": 2.3950524, "tags": {"addr:city": "Paris", "addr:housenumber": "94", "addr:postcode": "75019", "addr:street": "Boulevard S\u00e9rurier", "amenity": "cafe", "bulk_purchase": "only", "name": "Bokawa", "ref:FR:SIRET": "88189115400026", "shop": "convenience", "website": "https://www.bokawa.fr/"}}, {"type": "node", "id": 9261187118, "lat": 48.8879624, "lon": 2.3920553, "tags": {"name": "Conseil Optical", "opening_hours": "Mo-Fr 09:30-19:30; Su 09:30-13:30", "ref:FR:SIRET": "45097607100016", "shop": "optician", "wheelchair": "no"}}, {"type": "node", "id": 9261187119, "lat": 48.8883658, "lon": 2.3922466, "tags": {"name": "Sympa", "shop": "clothes"}}, {"type": "node", "id": 9261204818, "lat": 48.8877273, "lon": 2.3923819, "tags": {"name": "Home D\u00e9co", "shop": "variety_store"}}, {"type": "node", "id": 9261205517, "lat": 48.8884446, "lon": 2.3925013, "tags": {"brand": "GiFi", "brand:wikidata": "Q3105439", "name": "GiFi", "opening_hours": "Mo-Sa 10:00-19:30; Su 10:00-18:30", "shop": "variety_store"}}, {"type": "node", "id": 9299777784, "lat": 48.8876377, "lon": 2.3864286, "tags": {"brand": "Lexus", "brand:wikidata": "Q35919", "name": "R\u00e9parateur Agr\u00e9\u00e9 Lexus - Team Toy 75", "opening_hours": "Mo-Th 08:00-12:30,14:00-18:00; Fr 08:00-12:30,14:00-17:00; Sa 09:00-12:00", "shop": "car_repair"}}, {"type": "node", "id": 9501637907, "lat": 48.8849239, "lon": 2.3800297, "tags": {"check_date": "2024-11-09", "name": "D\u00e9sir\u00e9e", "name:fr": "D\u00e9sir\u00e9e", "opening_hours": "Tu-Su 10:00-20:00", "shop": "florist", "website": "https://desireefleurs.fr/"}}, {"type": "node", "id": 9580752709, "lat": 48.879262, "lon": 2.3897047, "tags": {"addr:city": "Paris", "addr:housenumber": "39", "addr:postcode": "75019", "addr:street": "Rue de Crim\u00e9e", "check_date": "2025-10-01", "name": "Market express", "ref:FR:SIRET": "45393218800015", "shop": "convenience"}}, {"type": "node", "id": 9628907767, "lat": 48.887587, "lon": 2.3891697, "tags": {"name": "woodbrass", "ref:FR:SIRET": "42212829800086", "shop": "music"}}, {"type": "node", "id": 9973426528, "lat": 48.8874068, "lon": 2.3872385, "tags": {"check_date:opening_hours": "2025-06-29", "female": "yes", "male": "yes", "name": "NK coiffure", "opening_hours": "Tu-Fr 10:00-19:00; Sa 09:30-19:00", "shop": "hairdresser"}}, {"type": "node", "id": 9974554574, "lat": 48.8869342, "lon": 2.386778, "tags": {"contact:city": "Paris", "contact:housenumber": "146", "contact:phone": "+33 1 42 08 85 34", "contact:postcode": "75019", "contact:street": "Avenue Jean Jaur\u00e8s", "female": "yes", "male": "yes", "name": "Oph and shao", "official_name": "Oph And Shao", "opening_hours": "Mo-Fr 09:30-19:30; Sa 09:00-19:30", "ref:FR:SIRET": "84759394400014", "shop": "hairdresser"}}, {"type": "node", "id": 10076734477, "lat": 48.8876007, "lon": 2.3921776, "tags": {"name": "Les Caves de la Villette", "opening_hours": "Tu-Sa 09:30-20:00; Tu-Fr 13:30-16:00 closed", "ref:FR:SIRET": "48245879100027", "shop": "alcohol"}}, {"type": "node", "id": 10076734479, "lat": 48.8873591, "lon": 2.3925432, "tags": {"name": "Marchand de Quatre Saisons", "shop": "convenience"}}, {"type": "node", "id": 10076734482, "lat": 48.8871725, "lon": 2.3926256, "tags": {"name": "Fleurs de Mai", "ref:FR:SIRET": "42881490900019", "shop": "florist"}}, {"type": "node", "id": 10076734484, "lat": 48.8850555, "lon": 2.3843931, "tags": {"name": "Sar\u00e9den", "opening_hours": "Mo-Th 07:00-19:30, Fr,Su 07:00-17:00", "ref:FR:SIRET": "81523747400011", "shop": "bakery"}}, {"type": "node", "id": 10076734487, "lat": 48.8872867, "lon": 2.3923242, "tags": {"name": "Laverie", "opening_hours": "07:00-22:00", "self_service": "yes", "shop": "laundry", "wheelchair": "no"}}, {"type": "node", "id": 10076734492, "lat": 48.8874511, "lon": 2.3925035, "tags": {"computer:repair": "yes", "contact:email": "omhipro@gmail.com", "mobile_phone:repair": "yes", "name": "Omhi Paris Pro", "ref:FR:SIRET": "83331092300028", "shop": "mobile_phone"}}, {"type": "node", "id": 10131950519, "lat": 48.8875017, "lon": 2.3888653, "tags": {"contact:city": "Paris", "contact:housenumber": "170", "contact:phone": "+33 9 73 12 03 69", "contact:postcode": "75019", "contact:street": "Avenue Jean Jaur\u00e8s", "name": "Coiffeur Platinium", "official_name": "Coiffeur Platinium Paris 19", "ref:FR:SIRET": "80948202900018", "shop": "hairdresser"}}, {"type": "node", "id": 10636739454, "lat": 48.8864332, "lon": 2.3926602, "tags": {"addr:city": "Paris", "addr:housenumber": "1", "addr:postcode": "75019", "addr:street": "Rue Eug\u00e8ne Jumin", "branch": "Canal La Villette", "brand": "Biocoop", "brand:wikidata": "Q2904039", "name": "Biocoop", "opening_hours": "Tu-Sa 10:00-20:00; Mo 16:00-20:00; Su 09:00-12:45", "phone": "+33 7 60 49 47 77", "shop": "supermarket", "website": "https://www.biocoop.fr/ile-de-france/paris/paris-19e-arrondissement/BIOCOOP-CANAL-LA-VILLETTE", "wheelchair": "yes"}}, {"type": "node", "id": 10785452581, "lat": 48.8845795, "lon": 2.3795023, "tags": {"female": "yes", "male": "yes", "name": "Coif-Hom", "ref:FR:SIRET": "50875885100010", "shop": "hairdresser"}}, {"type": "node", "id": 10857998185, "lat": 48.8864687, "lon": 2.3836966, "tags": {"brand": "NOUS anti-gaspi", "brand:wikidata": "Q130144283", "check_date": "2025-10-24", "name": "NOUS anti-gaspi", "opening_hours": "Mo-Sa 10:00-20:45; Su 10:00-13:00; PH off", "shop": "convenience", "website": "https://www.nousantigaspi.com/", "wheelchair": "yes"}}, {"type": "node", "id": 10858002088, "lat": 48.8856993, "lon": 2.3806825, "tags": {"name": "Etoile cuisines & bains", "shop": "kitchen"}}, {"type": "node", "id": 10858047325, "lat": 48.8870475, "lon": 2.3857988, "tags": {"check_date:opening_hours": "2024-05-01", "name": "Chez Flavy", "opening_hours:signed": "no", "ref:FR:SIRET": "41882945300012", "shop": "convenience"}}, {"type": "node", "id": 10858047421, "lat": 48.8866745, "lon": 2.3843665, "tags": {"name": "Doc'Biker", "opening_hours": "Mo-Th 09:00-18:00; Fr 09:00-17:00; Sa,Su,PH off", "shop": "motorcycle_repair"}}, {"type": "node", "id": 10858057137, "lat": 48.8875406, "lon": 2.387701, "tags": {"brand": "Shurgard", "brand:wikidata": "Q3482670", "name": "Shurgard Self-Storage", "ref:FR:SIRET": "40360977900448", "shop": "storage_rental"}}, {"type": "node", "id": 10858059543, "lat": 48.8863805, "lon": 2.3832752, "tags": {"check_date": "2025-10-24", "name": "Milord point services", "opening_hours": "Mo-Fr 09:30-12:30,15:00-19:00", "shop": "locksmith"}}, {"type": "node", "id": 10858064153, "lat": 48.8859985, "lon": 2.3818249, "tags": {"name": "Istanbul oriental", "ref:FR:SIRET": "75298242100014", "shop": "convenience"}}, {"type": "node", "id": 10858066706, "lat": 48.8866397, "lon": 2.3842204, "tags": {"name": "Optical express", "opening_hours": "Mo-Fr 10:00-19:00; PH off", "ref:FR:SIRET": "40534770900066", "shop": "optician"}}, {"type": "node", "id": 10858068629, "lat": 48.8858866, "lon": 2.3814046, "tags": {"name": "Optique m\u00e9dicale", "ref:FR:SIRET": "75324772500017", "shop": "optician", "wheelchair": "yes"}}, {"type": "node", "id": 10858071173, "lat": 48.8864518, "lon": 2.3835362, "tags": {"addr:housenumber": "135", "addr:street": "Avenue Jean Jaur\u00e8s", "check_date": "2025-10-24", "name": "La r\u00e9serve animale", "opening_hours": "Mo 15:00-19:30; Tu-Sa 10:00-19:30; PH off", "payment:cash": "yes", "payment:credit_cards": "yes", "payment:debit_cards": "yes", "shop": "pet", "wheelchair": "limited"}}, {"type": "node", "id": 10858080639, "lat": 48.8858626, "lon": 2.3813154, "tags": {"name": "ARS Telecom", "shop": "mobile_phone", "wheelchair": "limited"}}, {"type": "node", "id": 10858085488, "lat": 48.8859554, "lon": 2.3829594, "tags": {"name": "SARL NSP", "ref:FR:SIRET": "81445410400013", "shop": "convenience"}}, {"type": "node", "id": 10858086731, "lat": 48.8861473, "lon": 2.3823754, "tags": {"addr:city": "Paris", "addr:housenumber": "125", "addr:postcode": "75019", "addr:street": "Avenue Jean Jaur\u00e8s", "check_date": "2025-10-24", "female": "yes", "male": "yes", "name": "Coiffeur de Paname", "opening_hours": "Mo-Su 09:30-21:30", "payment:cash": "yes", "payment:contactless": "yes", "payment:credit_cards": "yes", "payment:debit_cards": "yes", "phone": "+33 6 05 69 52 26", "ref:FR:SIRET": "85333704600017", "shop": "hairdresser", "wheelchair": "yes"}}, {"type": "node", "id": 10858086853, "lat": 48.8859126, "lon": 2.3828021, "tags": {"name": "Optical by l'Opticien Design", "opening_hours": "Tu-Sa 10:00-13:00,14:00-19:00", "ref:FR:SIRET": "81189025000038", "shop": "optician"}}, {"type": "node", "id": 10858097132, "lat": 48.8855922, "lon": 2.3802995, "tags": {"name": "Laumiere bazar et informatique", "shop": "general"}}, {"type": "node", "id": 10858107483, "lat": 48.8859334, "lon": 2.3828777, "tags": {"beauty": "cosmetics", "brand": "Body Minute", "brand:wikidata": "Q104972220", "name": "Body Minute", "opening_hours": "Tu-Fr 10:00-19:30; Sa 10:00-19:00", "ref:FR:SIRET": "85079053600013", "shop": "beauty"}}, {"type": "node", "id": 10858112400, "lat": 48.8882281, "lon": 2.391642, "tags": {"name": "Stock de marques", "opening_hours": "Mo-Sa 10:00-19:15; Su 10:00-17:45", "shop": "clothes"}}, {"type": "node", "id": 10858113840, "lat": 48.8859749, "lon": 2.3830349, "tags": {"name": "Optic Duroc", "opening_hours": "Mo-Sa 10:00-19:00", "shop": "optician"}}, {"type": "node", "id": 10858118112, "lat": 48.8867826, "lon": 2.3862236, "tags": {"name": "Laverie libre service", "self_service": "yes", "shop": "laundry"}}, {"type": "node", "id": 10858120119, "lat": 48.8871827, "lon": 2.3876363, "tags": {"name": "Club vision optique", "ref:FR:SIRET": "48810734300011", "shop": "optician"}}, {"type": "node", "id": 10858124410, "lat": 48.8871356, "lon": 2.3874868, "tags": {"name": "Alimentation g\u00e9n\u00e9rale", "shop": "convenience"}}, {"type": "node", "id": 10858126874, "lat": 48.8876531, "lon": 2.3895135, "tags": {"brand": "Loxam", "brand:wikidata": "Q3264407", "name": "Loxam", "opening_hours": "Mo-Fr 07:00-12:00,13:30-18:00; Sa 08:00-12:00,13:30-17:30", "phone": "+33 1 40 40 26 90", "shop": "tool_hire", "website": "https://agence.loxam.fr/983-loxam-city-porte-de-pantin"}}, {"type": "node", "id": 10858128233, "lat": 48.8875485, "lon": 2.3890433, "tags": {"name": "Mini march\u00e9", "ref:FR:SIRET": "94434417500012", "shop": "convenience"}}, {"type": "node", "id": 10949425805, "lat": 48.8887918, "lon": 2.3888106, "tags": {"female": "no", "male": "yes", "name": "L'artiste", "opening_hours": "Mo-Su 09:00-20:00", "shop": "hairdresser"}}, {"type": "node", "id": 11133024717, "lat": 48.8875964, "lon": 2.3924407, "tags": {"name": "Fashion club", "shop": "yes"}}, {"type": "node", "id": 11133024719, "lat": 48.887651, "lon": 2.3924114, "tags": {"male": "yes", "name": "Coiffure Jumin", "shop": "hairdresser"}}, {"type": "node", "id": 11133024720, "lat": 48.8876945, "lon": 2.3923947, "tags": {"name": "Paris cycle - Villette", "shop": "bicycle"}}, {"type": "node", "id": 11133024721, "lat": 48.8877743, "lon": 2.3923609, "tags": {"name": "Sky t\u00e9l\u00e9com 2", "shop": "mobile_phone"}}, {"type": "node", "id": 11146317805, "lat": 48.8889562, "lon": 2.3837497, "tags": {"addr:postcode": "75019", "addr:street": "Rue de l'Ourcq", "brand": "Hypercacher", "brand:wikidata": "Q18746214", "check_date": "2025-10-24", "diet:kosher": "only", "name": "Hypercacher", "shop": "supermarket"}}, {"type": "node", "id": 11298159018, "lat": 48.8832425, "lon": 2.3957334, "tags": {"shop": "tobacco", "survey:date": "2023-10-29"}}, {"type": "node", "id": 11298159020, "lat": 48.883299, "lon": 2.3958589, "tags": {"name": "r2m p19", "shop": "convenience", "survey:date": "2023-10-29"}}, {"type": "node", "id": 11298159028, "lat": 48.8834967, "lon": 2.3951903, "tags": {"name": "bazar", "shop": "convenience", "survey:date": "2023-10-29"}}, {"type": "node", "id": 11298242028, "lat": 48.886257, "lon": 2.3931658, "tags": {"name": "studio 19", "ref:FR:SIRET": "53411506800023", "shop": "beauty", "survey:date": "2023-10-29"}}, {"type": "node", "id": 11298242029, "lat": 48.8862316, "lon": 2.3928658, "tags": {"name": "pearl in", "ref:FR:SIRET": "80446912000021", "shop": "chocolate", "survey:date": "2023-10-29"}}, {"type": "node", "id": 11298242030, "lat": 48.8861919, "lon": 2.3925161, "tags": {"name": "La Lunetterie", "ref:FR:SIRET": "98192389900026", "shop": "optician", "survey:date": "2023-10-29"}}, {"type": "node", "id": 11298242031, "lat": 48.8861764, "lon": 2.3924298, "tags": {"name": "La Bio Esth\u00e9tique", "shop": "beauty", "survey:date": "2023-10-29"}}, {"type": "node", "id": 11298242033, "lat": 48.8864033, "lon": 2.392376, "tags": {"name": "Alain Afflelou", "ref:FR:SIRET": "75311235800019", "shop": "hearing_aids", "survey:date": "2023-10-29"}}, {"type": "node", "id": 11298242034, "lat": 48.8863928, "lon": 2.3920042, "tags": {"male": "yes", "name": "bad beard", "ref:FR:SIRET": "95401588900015", "shop": "hairdresser", "survey:date": "2023-10-29"}}, {"type": "node", "id": 11298247795, "lat": 48.8862738, "lon": 2.3905249, "tags": {"female": "yes", "shop": "hairdresser", "survey:date": "2023-10-29"}}, {"type": "node", "id": 11491797849, "lat": 48.8801763, "lon": 2.3889546, "tags": {"shop": "vacant"}}, {"type": "node", "id": 11491834728, "lat": 48.8869231, "lon": 2.3925101, "tags": {"name": "Bazar de Pantin", "shop": "variety_store"}}, {"type": "node", "id": 11491841028, "lat": 48.8865977, "lon": 2.3926427, "tags": {"name": "Jana Indienne", "shop": "beauty"}}, {"type": "node", "id": 11491841591, "lat": 48.8877219, "lon": 2.3921551, "tags": {"name": "Zahra Shop", "shop": "convenience"}}, {"type": "node", "id": 11491851073, "lat": 48.887124, "lon": 2.3924145, "tags": {"name": "Josiane", "ref:FR:SIRET": "88026917000010", "shop": "optician"}}, {"type": "node", "id": 11491852190, "lat": 48.8874191, "lon": 2.3922791, "tags": {"shop": "shoe_repair"}}, {"type": "node", "id": 11585494507, "lat": 48.8852454, "lon": 2.381123, "tags": {"name": "Wash'n dry", "self_service": "yes", "shop": "laundry"}}, {"type": "node", "id": 11585494511, "lat": 48.8836875, "lon": 2.3820638, "tags": {"name": "Laboratoires Sunrex", "shop": "cosmetics"}}, {"type": "node", "id": 11862576658, "lat": 48.8862678, "lon": 2.3819461, "tags": {"name": "Saifan Alimentation G\u00e9n\u00e9rale", "ref:FR:SIRET": "95182756700011", "shop": "convenience", "wheelchair": "no"}}, {"type": "node", "id": 11862582552, "lat": 48.8863011, "lon": 2.3819054, "tags": {"name": "LS Beauty", "ref:FR:SIRET": "92973174300019", "shop": "beauty", "wheelchair": "no"}}, {"type": "node", "id": 11862584977, "lat": 48.8874618, "lon": 2.3805701, "tags": {"male": "yes", "name": "New Coiffure", "ref:FR:SIRET": "52350924800010", "shop": "hairdresser"}}, {"type": "node", "id": 11862588583, "lat": 48.8862243, "lon": 2.3820003, "tags": {"name": "Optik'ange", "ref:FR:SIRET": "82184426300011", "shop": "optician", "wheelchair": "no"}}, {"type": "node", "id": 11862589771, "lat": 48.8863101, "lon": 2.3816205, "tags": {"name": "La laiterie de Paris", "opening_hours": "Mo-Th 10:30-13:00,14:30-20:00; Fr 10:30-13:00,14:00-20:00; Su 10:00-13:00; Sa 10:00-20:00", "shop": "cheese", "website": "https://fr-fr.facebook.com/laiteriedeparis/", "wheelchair": "limited", "wheelchair:description:fr": "Une marche de 7 cm."}}, {"type": "node", "id": 11862600060, "lat": 48.887663, "lon": 2.3800613, "tags": {"addr:city": "Paris", "addr:housenumber": "153", "addr:postcode": "75019", "addr:street": "Rue de Crim\u00e9e", "ref:FR:SIRET": "52398741000025", "self_service": "yes", "shop": "laundry", "wheelchair": "no"}}, {"type": "node", "id": 11862600175, "lat": 48.8861878, "lon": 2.3817675, "tags": {"check_date": "2025-06-25", "shop": "vacant"}}, {"type": "node", "id": 11862615940, "lat": 48.886159, "lon": 2.3818014, "tags": {"name": "Paris Telecom 2", "ref:FR:SIRET": "85330295800014", "shop": "mobile_phone"}}, {"type": "node", "id": 11872020423, "lat": 48.8908858, "lon": 2.3816591, "tags": {"addr:housenumber": "51", "addr:street": "Rue de l'Ourcq", "check_date": "2026-01-04", "email": "boucherielenar@gmail.com", "name": "Boucherie L\u00e9na", "opening_hours": "Tu-Fr 09:00-13:00,15:30-19:45; Sa 09:00-14:00,15:30-19:45; Su 09:30-14:00", "phone": "+33 9 73 50 62 56", "ref:FR:SIRET": "91056010100016", "shop": "butcher"}}, {"type": "node", "id": 11872020505, "lat": 48.8880213, "lon": 2.3862932, "tags": {"name": "Mediagraphic", "shop": "copyshop"}}, {"type": "node", "id": 11872020786, "lat": 48.8907631, "lon": 2.3819086, "tags": {"name": "Le d\u00e9 \u00e0 coudre", "opening_hours": "Tu-Sa 09:00-13:00,14:00-19:00; Su 09:00-13:00", "shop": "sewing"}}, {"type": "node", "id": 11872088570, "lat": 48.8907886, "lon": 2.3818598, "tags": {"female:signed": "no", "male:signed": "no", "name": "Dede Afro Tresses", "opening_hours": "Tu-Fr 09:30-19:30; Sa 09:30-20:00", "shop": "hairdresser"}}, {"type": "node", "id": 11872088917, "lat": 48.8908215, "lon": 2.3817902, "tags": {"check_date": "2025-07-08", "shop": "vacant"}}, {"type": "node", "id": 11872091087, "lat": 48.8908502, "lon": 2.3817343, "tags": {"name": "Les Mots du Monde", "opening_hours": "Mo-Sa 08:00-13:30,15:30-19:30; Su off", "shop": "newsagent"}}, {"type": "node", "id": 11872606558, "lat": 48.8843101, "lon": 2.3842052, "tags": {"addr:city": "Paris", "addr:housenumber": "106", "addr:postcode": "75019", "addr:street": "Rue de Crim\u00e9e", "laundry_service": "yes", "name": "Pressing de Crim\u00e9e", "opening_hours": "Mo-Sa 08:30-19:00", "ref:FR:SIRET": "50386021500022", "self_service": "no", "shop": "laundry"}}, {"type": "node", "id": 11872725642, "lat": 48.8856208, "lon": 2.3824148, "tags": {"check_date": "2025-06-28", "shop": "vacant"}}, {"type": "node", "id": 11872725643, "lat": 48.8855631, "lon": 2.3824812, "tags": {"name": "Laverie libre service", "opening_hours": "Mo-Su 07:00-21:30", "ref:FR:SIRET": "42868794100016", "self_service": "yes", "shop": "laundry"}}, {"type": "node", "id": 11872725644, "lat": 48.8854466, "lon": 2.3826146, "tags": {"addr:city": "Paris", "addr:housenumber": "113", "addr:postcode": "75019", "addr:street": "Rue de Crim\u00e9e", "email": "ashwinmobile05@gmail.com", "name": "Ashwin mobile", "phone": "+33 9 55 25 14 94", "ref:FR:SIRET": "95133168500010", "shop": "mobile_phone", "wheelchair": "no"}}, {"type": "node", "id": 11872725645, "lat": 48.8854224, "lon": 2.3826411, "tags": {"addr:city": "Paris", "addr:housenumber": "113", "addr:postcode": "75019", "addr:street": "Rue de Crim\u00e9e", "name": "NA phone house / Agwin Liquor Store", "shop": "alcohol", "wheelchair": "limited", "wheelchair:description:fr": "Marche de 5 cm \u00e0 l'entr\u00e9e, couloir \u00e9troit."}}, {"type": "node", "id": 11872725646, "lat": 48.885394, "lon": 2.3826784, "tags": {"name": "Beauty", "ref:FR:SIRET": "91510610800011", "shop": "beauty"}}, {"type": "node", "id": 11872725647, "lat": 48.8853463, "lon": 2.382725, "tags": {"name": "Aatith", "ref:FR:SIRET": "95299798900019", "shop": "convenience"}}, {"type": "node", "id": 11872725648, "lat": 48.8852895, "lon": 2.3827937, "tags": {"name": "Boressi", "ref:FR:SIRET": "53820342300024", "shop": "convenience", "wheelchair": "yes"}}, {"type": "node", "id": 11872725650, "lat": 48.8851122, "lon": 2.3830009, "tags": {"male": "yes", "name": "Hamou coiffure", "ref:FR:SIRET": "50951176200015", "shop": "hairdresser", "wheelchair": "no"}}, {"type": "node", "id": 11874990691, "lat": 48.8871061, "lon": 2.3806751, "tags": {"name": "A city", "ref:FR:SIRET": "95237268800012", "shop": "houseware", "wheelchair": "limited"}}, {"type": "node", "id": 11874990697, "lat": 48.8862461, "lon": 2.3816856, "tags": {"check_date": "2025-06-25", "shop": "vacant"}}, {"type": "node", "id": 12004081771, "lat": 48.8843772, "lon": 2.3841164, "tags": {"female": "yes", "male": "yes", "name": "Tony coiff", "opening_hours": "Mo-Sa 09:30-19:30", "ref:FR:SIRET": "82883059600015", "shop": "hairdresser", "wheelchair": "limited", "wheelchair:description:fr": "Rampe \u00e0 l'entr\u00e9e mais porte \u00e9troite."}}, {"type": "node", "id": 12004081773, "lat": 48.8846514, "lon": 2.3838062, "tags": {"addr:housenumber": "110B", "addr:street": "Rue de Crim\u00e9e", "check_date": "2025-06-28", "description": "Aide au Chlou'him", "email": "misrad770@gmail.com", "name": "Misrad", "phone": "+33 6 65 96 26 26; +33 6 66 24 75 19", "shop": "religion", "website": "https://www.misrad.fr/", "wheelchair": "no"}}, {"type": "node", "id": 12004081774, "lat": 48.8847041, "lon": 2.3837455, "tags": {"name": "Heracles", "opening_hours": "Mo-Fr 08:30-19:00", "shop": "locksmith", "wheelchair": "limited"}}, {"type": "node", "id": 12004081775, "lat": 48.8847522, "lon": 2.3836879, "tags": {"female": "yes", "male": "yes", "name": "Hair coiffure", "ref:FR:SIRET": "80283086900011", "shop": "hairdresser", "wheelchair": "no"}}, {"type": "node", "id": 12064593269, "lat": 48.8873815, "lon": 2.38714, "tags": {"addr:housenumber": "163", "addr:postcode": "75019", "addr:street": "Avenue Jean Jaur\u00e8s", "name": "Centre de bronzage Sun Smile", "opening_hours": "Mo-Su 07:00-00:00", "phone": "+33 1 45 84 31 32", "ref:FR:SIRET": "84855451500017", "shop": "beauty", "website": "https://www.sunsmile-bronzage.fr/nos-centres/paris-19"}}, {"type": "node", "id": 12209218189, "lat": 48.8866624, "lon": 2.3926102, "tags": {"name": "Fromages et Ramage", "ref:FR:SIRET": "51363670400027", "shop": "deli"}}, {"type": "node", "id": 12209221791, "lat": 48.8866998, "lon": 2.3925969, "tags": {"name": "S\u00e9goula", "shop": "pastry"}}, {"type": "node", "id": 12209237668, "lat": 48.8864197, "lon": 2.3922723, "tags": {"name": "MSN Market", "shop": "convenience"}}, {"type": "node", "id": 12585361183, "lat": 48.8870561, "lon": 2.3810328, "tags": {"name": "Le Marcory", "ref:FR:SIRET": "83894064100015", "shop": "convenience"}}, {"type": "node", "id": 12585409689, "lat": 48.8870905, "lon": 2.3810003, "tags": {"name": "La belle \u00e9toile", "ref:FR:SIRET": "84116930300010", "shop": "butcher"}}, {"type": "node", "id": 12585425301, "lat": 48.8867015, "lon": 2.381165, "tags": {"name": "Vision du centre", "ref:FR:SIRET": "98779285000016", "shop": "optician", "wheelchair": "limited"}}, {"type": "node", "id": 12597056551, "lat": 48.8881748, "lon": 2.391478, "tags": {"check_date": "2025-06-29", "description": "Ustensiles de cuisine pour professionnels", "name": "Bellynck & fils", "opening_hours": "Mo-Fr 09:30-18:30; Sa 09:30-12:30", "phone": "+33 1 42 08 16 75", "shop": "houseware", "website": "https://bellyncketfils.fr/"}}, {"type": "node", "id": 12603960656, "lat": 48.8866271, "lon": 2.381721, "tags": {"male": "yes", "name": "The Chirurgien", "shop": "hairdresser"}}, {"type": "node", "id": 12641081711, "lat": 48.88349, "lon": 2.3848539, "tags": {"addr:city": "Paris", "addr:housenumber": "87", "addr:postcode": "75019", "addr:street": "Rue de Crim\u00e9e", "name": "DNK Alimentation G\u00e9n\u00e9rale", "ref:FR:SIRET": "97970025900018", "shop": "convenience", "wheelchair": "no"}}, {"type": "node", "id": 12695378182, "lat": 48.882838, "lon": 2.3812316, "tags": {"name": "La Cave de Laumi\u00e8re", "ref:FR:SIRET": "92889187800037", "shop": "wine"}}, {"type": "node", "id": 12695378187, "lat": 48.8844543, "lon": 2.3802717, "tags": {"name": "Laser Beauty Paris", "shop": "beauty"}}, {"type": "node", "id": 12695378188, "lat": 48.8842951, "lon": 2.3804112, "tags": {"cbd": "only", "name": "Fume ma poule", "shop": "cannabis"}}, {"type": "node", "id": 12958895038, "lat": 48.8865869, "lon": 2.3808805, "tags": {"addr:housenumber": "30", "addr:street": "Rue Tandou", "check_date": "2025-07-20", "check_date:opening_hours": "2025-07-20", "description": "Pains et Vins", "name": "Parpains", "opening_hours": "Tu-Sa 11:00-19:00", "shop": "bakery", "start_date": "2025-07-01"}}, {"type": "node", "id": 12958953824, "lat": 48.8891081, "lon": 2.3817526, "tags": {"addr:housenumber": "16", "addr:street": "Quai de la Marne", "check_date": "2025-06-28", "description": "\u00c9picerie / Glaces / Sandwiches", "ice_cream": "yes", "name": "Bazar", "opening_hours": "16:00-22:00", "shop": "deli", "wheelchair": "yes"}}, {"type": "node", "id": 12987090842, "lat": 48.8906705, "lon": 2.3832039, "tags": {"addr:housenumber": "15", "addr:street": "Quai de l'Oise", "check_date": "2025-07-08", "check_date:service:bicycle:pump": "2025-07-08", "check_date:service:bicycle:retail": "2025-07-08", "email": "hello.fr@ridezoomo.com", "name": "Zoomo", "opening_hours": "Mo-Fr 11:00-17:00; Sa-Su off", "service:bicycle:pump": "no", "service:bicycle:retail": "no", "shop": "bicycle", "website": "https://ridezoomo.com"}}, {"type": "node", "id": 13008659844, "lat": 48.890465, "lon": 2.3825481, "tags": {"addr:housenumber": "26", "addr:street": "Rue de l'Ourcq", "check_date": "2025-07-18", "name": "PS Bazar Multim\u00e9dia", "shop": "copyshop"}}, {"type": "node", "id": 13072326097, "lat": 48.8852699, "lon": 2.3945568, "tags": {"name": "CA D\u00e9coration", "shop": "interior_decoration"}}, {"type": "node", "id": 13072417969, "lat": 48.8852159, "lon": 2.3945873, "tags": {"addr:city": "Paris", "addr:housenumber": "112", "addr:postcode": "75019", "addr:street": "Boulevard S\u00e9rurier", "name": "Sai Sup\u00e9rette", "ref:FR:SIRET": "94267867300016", "shop": "convenience"}}, {"type": "node", "id": 13092453632, "lat": 48.8856012, "lon": 2.3844617, "tags": {"name": "Havana Jazz", "shop": "yes"}}, {"type": "node", "id": 13360339807, "lat": 48.8878049, "lon": 2.3846729, "tags": {"shop": "antiques"}}, {"type": "node", "id": 13367371251, "lat": 48.8901252, "lon": 2.3940135, "tags": {"contact:housenumber": "221", "contact:street": "Avenue Jean Jaur\u00e8s", "name": "Librairie de la Cit\u00e9 de la Musique \u2014 Philharmonie de Paris", "opening_hours": "Tu-Fr 12:00-18:00; Sa,Su 10:00-18:00", "phone": "+33 1 40 13 48 00", "ref:FR:SIRET": "69204158500740", "ref:vatin": "FR11692041585", "shop": "books", "website": "https://librairie.philharmoniedeparis.fr/", "wheelchair": "yes"}}, {"type": "node", "id": 13392936620, "lat": 48.8858123, "lon": 2.3867127, "tags": {"name": "Ari\u00e9 Chel Hyda", "shop": "travel_agency"}}, {"type": "node", "id": 13392956535, "lat": 48.886163, "lon": 2.3865685, "tags": {"name": "Dvora.K", "shop": "wigs"}}, {"type": "node", "id": 13392959008, "lat": 48.8849029, "lon": 2.3835028, "tags": {"shop": "tobacco"}}, {"type": "node", "id": 13392959101, "lat": 48.8870531, "lon": 2.3858378, "tags": {"name": "Jad'Or", "phone": "+33 1 42 03 00 80", "shop": "gold_buyer"}}, {"type": "way", "id": 63235648, "nodes": [784634902, 784683684, 784601205, 784692348, 784634902], "tags": {"building": "kiosk", "building:levels": "1", "shop": "newsagent", "source": "cadastre-dgi-fr source : Direction G\u00e9n\u00e9rale des Imp\u00f4ts - Cadastre. Mise \u00e0 jour : 2010"}}, {"type": "way", "id": 63971535, "nodes": [789523193, 789526986, 789525179, 789529725, 789525257, 789524298, 789526298, 789528103, 789527079, 789527347, 789526224, 789525303, 789523408, 789527411, 789525857, 789523849, 789524085, 789529671, 789527144, 789524456, 789527143, 789529645, 789523193], "tags": {"brand": "Toyota", "brand:wikidata": "Q53268", "building": "yes", "name": "Team Toy 75", "opening_hours": "Mo-Fr 08:30-12:30,14:00-19:00; Sa 09:00-12:30,14:00-18:00", "shop": "car", "source": "cadastre-dgi-fr source : Direction G\u00e9n\u00e9rale des Imp\u00f4ts - Cadastre. Mise \u00e0 jour : 2010"}}]}