{"version": 0.6, "generator": "Overpass API 0.7.62.8 e802775f", "osm3s": {"timestamp_osm_base": "2026-01-13T20:38:15Z", "copyright": "The data included in this document is from www.openstreetmap.org. The data is made available under ODbL."}, "elements": [{"type": "node", "id": 43176038, "lat": 48.82122, "lon": 2.3661895}, {"type": "node", "id": 43176041, "lat": 48.821293, "lon": 2.3665096}, {"type": "node", "id": 43176044, "lat": 48.8210963, "lon": 2.3666135}, {"type": "node", "id": 252814154, "lat": 48.8242374, "lon": 2.3651653, "tags": {"brand:wikidata": "Q1005336", "changing_table": "no", "contact:city": "Paris", "contact:housenumber": "48", "contact:postcode": "75013", "contact:street": "Avenue d'Ivry", "contact:website": "https://www.tang-freres.fr/supermarche-asiatique/tang-freres-paris-13-avenue-ivry-historique/", "level": "0", "name": "Tang Fr\u00e8res", "opening_hours": "Tu-Fr 09:00-20:00; Sa 08:00-20:00; Su 08:00-13:00", "organic": "no", "origin": "asian", "shop": "supermarket", "toilets": "no", "wheelchair": "yes"}}, {"type": "node", "id": 494225703, "lat": 48.8262033, "lon": 2.3651094, "tags": {"brand": "Franprix", "brand:wikidata": "Q2420096", "brand:wikipedia": "fr:Franprix", "layer": "2", "level": "2", "name": "Franprix", "opening_hours": "Mo-Sa 08:00-21:00; Su 09:00-21:00", "operator": "Groupe Casino", "shop": "convenience", "source": "cadastre-dgi-fr source : Direction G\u00e9n\u00e9rale des Imp\u00f4ts - Cadastre. Mise \u00e0 jour : 2009", "toilets": "no", "website": "https://www.franprix.fr/magasins/4254", "wheelchair": "yes"}}, {"type": "node", "id": 503047787, "lat": 48.8217647, "lon": 2.3679348}, {"type": "node", "id": 503047790, "lat": 48.8220413, "lon": 2.3677892}, {"type": "node", "id": 533755692, "lat": 48.8234104, "lon": 2.3660411, "tags": {"brand": "Paris Store", "name": "Paris Store", "opening_hours": "Tu-Th 08:45-19:00; Fr 08:45-19:10; Sa 08:30-19:10; Su 08:30-12:30", "origin": "asian", "shop": "supermarket", "website": "https://paris-store.com/magasins/", "wheelchair": "yes"}}, {"type": "node", "id": 533756354, "lat": 48.8254296, "lon": 2.3625833, "tags": {"check_date:opening_hours": "2024-04-08", "name": "Youfeng (\u53cb\u98ce\u4e66\u5e97\uff09", "name:zh": "\u53cb\u98ce\u4e66\u5e97", "opening_hours": "Tu-Sa 10:00-18:30", "operator": "Youfeng", "shop": "books", "type": "asiatique", "wheelchair": "limited"}}, {"type": "node", "id": 909529778, "lat": 48.8197848, "lon": 2.3652117, "tags": {"indoor_seating": "no", "name": "M. Gajet", "opening_hours": "We-Fr 06:00-20:00; Sa 06:00-20:00; Su 07:00-20:00", "outdoor_seating": "no", "payment:credit_cards": "yes", "payment:debit_cards": "yes", "shop": "bakery", "takeaway": "only", "wheelchair": "yes"}}, {"type": "node", "id": 924126731, "lat": 48.8218822, "lon": 2.3648492}, {"type": "node", "id": 924126846, "lat": 48.8221392, "lon": 2.3664754}, {"type": "node", "id": 924127180, "lat": 48.820961, "lon": 2.3666844}, {"type": "node", "id": 924127745, "lat": 48.8244576, "lon": 2.3671096}, {"type": "node", "id": 924130156, "lat": 48.8221461, "lon": 2.3665162}, {"type": "node", "id": 924131195, "lat": 48.8208363, "lon": 2.3661392}, {"type": "node", "id": 924134814, "lat": 48.8220464, "lon": 2.3652934}, {"type": "node", "id": 924139495, "lat": 48.8215303, "lon": 2.3650346}, {"type": "node", "id": 924146483, "lat": 48.8210128, "lon": 2.3669106}, {"type": "node", "id": 924147185, "lat": 48.8214462, "lon": 2.3650788}, {"type": "node", "id": 924147399, "lat": 48.8211217, "lon": 2.366852}, {"type": "node", "id": 924151926, "lat": 48.8215287, "lon": 2.3650277}, {"type": "node", "id": 924157131, "lat": 48.8214448, "lon": 2.3650723}, {"type": "node", "id": 924158883, "lat": 48.8220474, "lon": 2.366524}, {"type": "node", "id": 924159981, "lat": 48.8222943, "lon": 2.366394}, {"type": "node", "id": 924160485, "lat": 48.8213791, "lon": 2.3651144}, {"type": "node", "id": 924160497, "lat": 48.8241371, "lon": 2.3663426}, {"type": "node", "id": 924162123, "lat": 48.8221408, "lon": 2.365705}, {"type": "node", "id": 924162317, "lat": 48.8207937, "lon": 2.3659525}, {"type": "node", "id": 924164094, "lat": 48.8213761, "lon": 2.3656474}, {"type": "node", "id": 924164453, "lat": 48.8211502, "lon": 2.3669948}, {"type": "node", "id": 924168697, "lat": 48.8221774, "lon": 2.3656859}, {"type": "node", "id": 924169735, "lat": 48.820888, "lon": 2.3663644}, {"type": "node", "id": 924171430, "lat": 48.8220563, "lon": 2.3665631}, {"type": "node", "id": 924172759, "lat": 48.824429, "lon": 2.3671201}, {"type": "node", "id": 924231433, "lat": 48.8220499, "lon": 2.3678257}, {"type": "node", "id": 924231516, "lat": 48.8218371, "lon": 2.3682515}, {"type": "node", "id": 1215494564, "lat": 48.8228272, "lon": 2.3628312, "tags": {"check_date": "2025-07-27", "cuisine": "asian;chinese", "name": "Exo Store", "origin": "asian", "shop": "convenience", "type": "asian", "wheelchair": "yes"}}, {"type": "node", "id": 1215494567, "lat": 48.8243996, "lon": 2.3632479, "tags": {"check_date": "2025-07-27", "contact:city": "Paris", "contact:housenumber": "81", "contact:postcode": "75013", "contact:street": "Avenue d'Ivry", "cuisine": "asian", "name": "City Store", "name:zh": "\u540d\u8c6a \u8d85\u5e02", "operator": "BIGSTOREPLUS S.A.S", "ref:FR:SIREN": "434179065", "ref:FR:SIRET": "92179266900027", "shop": "supermarket", "wheelchair": "limited"}}, {"type": "node", "id": 1231409126, "lat": 48.8237538, "lon": 2.3645279, "tags": {"check_date": "2025-07-27", "cuisine": "asian", "name": "P\u00e2tisserie de Saison", "phone": "+33 1 45 84 37 70", "shop": "bakery"}}, {"type": "node", "id": 1306563388, "lat": 48.8252485, "lon": 2.3653047, "tags": {"shop": "bakery"}}, {"type": "node", "id": 1306563391, "lat": 48.8255065, "lon": 2.3654758, "tags": {"female": "yes", "layer": "2", "level": "2", "male": "yes", "name": "Avy Coiffure", "shop": "hairdresser"}}, {"type": "node", "id": 1361563025, "lat": 48.8218187, "lon": 2.3655635, "tags": {"level": "0", "name": "CL Micro r\u00e9paration", "shop": "hifi"}}, {"type": "node", "id": 1361563027, "lat": 48.8218558, "lon": 2.3660383, "tags": {"name": "Fructidor", "shop": "greengrocer"}}, {"type": "node", "id": 1361563034, "lat": 48.8218081, "lon": 2.3653731, "tags": {"shop": "clothes"}}, {"type": "node", "id": 1361563035, "lat": 48.8214831, "lon": 2.3653865, "tags": {"shop": "hairdresser"}}, {"type": "node", "id": 1361563036, "lat": 48.8219529, "lon": 2.3664594, "tags": {"description": "\u00c9galement salon de th\u00e9 et brasserie", "indoor_seating": "yes", "name": "La Gatinaise", "outdoor_seating": "no", "shop": "bakery"}}, {"type": "node", "id": 2075428203, "lat": 48.8224965, "lon": 2.3626101, "tags": {"name": "Tabac de Choisy", "opening_hours": "Mo-Sa 08:00-19:30; Su 09:00-19:00", "shop": "newsagent", "wheelchair": "yes"}}, {"type": "node", "id": 2183952510, "lat": 48.8239486, "lon": 2.3641834, "tags": {"check_date": "2025-07-27", "contact:city": "Paris", "contact:housenumber": "69", "contact:phone": "+33 1 45 83 62 00", "contact:postcode": "75013", "contact:street": "Avenue d'Ivry", "contact:website": "http://www.kimthanh.fr", "name": "Kim Thanh", "opening_hours": "Mo 10:30-19:00;Tu-Th 10:30-13:00, 14:00-19:00, Fr 10:30-13:00, 14:00-20:00, Sa 10:30-20:00", "shop": "gift"}}, {"type": "node", "id": 2183967253, "lat": 48.8239258, "lon": 2.3642439, "tags": {"addr:city": "Paris", "addr:country": "FR", "addr:housenumber": "67", "addr:postcode": "75013", "addr:street": "Avenue d'Ivry", "check_date": "2025-07-27", "cuisine": "asian", "name": "Yv Nghy", "note": "sells mostly pastry, cakes", "shop": "bakery", "url": "http://www.societe.com/societe/nouveau-yv-nghy-324207042.html"}}, {"type": "node", "id": 2184019956, "lat": 48.8233585, "lon": 2.3653758, "tags": {"level": "0", "name": "Saing Heng", "shop": "butcher", "wheelchair": "yes"}}, {"type": "node", "id": 2184027348, "lat": 48.822257, "lon": 2.363195, "tags": {"name": "Anny", "note": "coiffure - esthetique - onglerie", "shop": "hairdresser", "wheelchair": "no"}}, {"type": "node", "id": 2184052289, "lat": 48.8223228, "lon": 2.362744, "tags": {"check_date": "2024-06-13", "name": "Mo Ny", "shop": "hairdresser"}}, {"type": "node", "id": 2217482596, "lat": 48.8210232, "lon": 2.3645538, "tags": {"contact:facebook": "https://fr-fr.facebook.com/Amasia-Market-944041182286041/", "contact:phone": "+33145868618", "name": "Amasia", "opening_hours": "Mo-Sa 09:30-19:00; Su 09:30-13:00", "shop": "convenience", "website": "https://www.amasia.fr/"}}, {"type": "node", "id": 2217482597, "lat": 48.820754, "lon": 2.3639149, "tags": {"contact:city": "Paris", "contact:housenumber": "15", "contact:postcode": "75013", "contact:street": "Avenue de Choisy", "name": "Europasie", "opening_hours:signed": "no", "shop": "convenience", "wheelchair": "yes"}}, {"type": "node", "id": 2217482601, "lat": 48.8215059, "lon": 2.364066, "tags": {"check_date": "2024-06-13", "name": "Kampoul Pich", "shop": "jewelry"}}, {"type": "node", "id": 2217482606, "lat": 48.8217923, "lon": 2.3643222, "tags": {"cuisine": "asian", "name": "Weng Se", "shop": "convenience", "source": "survey"}}, {"type": "node", "id": 2217495887, "lat": 48.8218648, "lon": 2.3646489, "tags": {"name": "Tif' Folie", "shop": "hairdresser"}}, {"type": "node", "id": 2217523030, "lat": 48.8238459, "lon": 2.3627617, "tags": {"check_date": "2025-09-27", "name": "Poly China", "shop": "gift"}}, {"type": "node", "id": 2217523041, "lat": 48.8238851, "lon": 2.3629359, "tags": {"addr:city": "Paris", "addr:housenumber": "11", "addr:postcode": "75013", "addr:street": "Rue des Fr\u00e8res d'Astier de la Vigerie", "check_date": "2025-09-27", "name": "China Europe", "shop": "kitchenware"}}, {"type": "node", "id": 2217575848, "lat": 48.8242547, "lon": 2.3620693, "tags": {"name": "Thai Shop", "shop": "convenience"}}, {"type": "node", "id": 2217685392, "lat": 48.8254173, "lon": 2.3618086, "tags": {"check_date": "2025-11-29", "check_date:opening_hours": "2025-11-29", "name": "Aux Merveilles d'Asie", "opening_hours": "Tu-Sa 11:30-13:00,14:30-18:00; Su 14:30-17:00", "shop": "interior_decoration", "website": "http://www.auxmerveillesdasie.com"}}, {"type": "node", "id": 2217685394, "lat": 48.8251967, "lon": 2.3616507, "tags": {"check_date": "2025-07-27", "level": "0", "name": "L'empire des th\u00e9s", "opening_hours": "Tu-Sa 11:00-18:30", "shop": "tea", "website": "https://www.empiredesthes.fr/", "wheelchair": "yes"}}, {"type": "node", "id": 2217707756, "lat": 48.8249221, "lon": 2.3622205, "tags": {"amenity": "fast_food", "check_date": "2025-09-23", "check_date:opening_hours": "2025-09-23", "cuisine": "sandwich", "indoor_seating": "yes", "level": "0", "name": "Khai Tri", "opening_hours": "Tu-Su 10:00-16:00", "outdoor_seating": "no", "shop": "books", "wheelchair": "no"}}, {"type": "node", "id": 2282385388, "lat": 48.8272451, "lon": 2.3664841, "tags": {"brand": "Sitis", "brand:wikidata": "Q39075072", "level": "0", "name": "Sitis Market", "opening_hours": "Mo-Sa 08:30-23:20; Su 09:00-23:30", "shop": "convenience", "source": "Observations sur place"}}, {"type": "node", "id": 2301505872, "lat": 48.8274182, "lon": 2.3663727, "tags": {"addr:housenumber": "90", "addr:street": "Rue Nationale", "email": "hexamedia90@gmail.com", "name": "Copies Services Hexamedia", "opening_hours": "Mo-Sa 09:00-19:00", "phone": "+33145868200", "shop": "copyshop", "source": "survey", "website": "http://hexamedia.fr/index.html"}}, {"type": "node", "id": 2301505876, "lat": 48.8271625, "lon": 2.3667523, "tags": {"brand": "Foncia", "brand:wikidata": "Q1435638", "brand:wikipedia": "fr:Foncia", "check_date": "2023-10-01", "name": "Sophia Nails", "shop": "beauty", "source": "survey"}}, {"type": "node", "id": 2301505912, "lat": 48.8271778, "lon": 2.3668481, "tags": {"addr:city": "Paris", "addr:housenumber": "76", "addr:postcode": "75013", "addr:street": "Rue de Tolbiac", "name": "Manalit", "opening_hours": "Mo-Fr 07:30-19:00; Sa 08:30-19:00", "shop": "newsagent"}}, {"type": "node", "id": 2329369286, "lat": 48.8240568, "lon": 2.3661703}, {"type": "node", "id": 2329369287, "lat": 48.8242503, "lon": 2.3667859}, {"type": "node", "id": 2329369292, "lat": 48.8243437, "lon": 2.367153}, {"type": "node", "id": 2329369297, "lat": 48.8245225, "lon": 2.3666734}, {"type": "node", "id": 2503349336, "lat": 48.8217309, "lon": 2.3649289, "tags": {"addr:housenumber": "11"}}, {"type": "node", "id": 2503349366, "lat": 48.8215704, "lon": 2.3650134, "tags": {"addr:housenumber": "13", "entrance": "yes"}}, {"type": "node", "id": 2503349376, "lat": 48.821466, "lon": 2.365061, "tags": {"addr:housenumber": "15"}}, {"type": "node", "id": 2503349387, "lat": 48.8214203, "lon": 2.3650926, "tags": {"addr:housenumber": "17"}}, {"type": "node", "id": 2503349530, "lat": 48.8218361, "lon": 2.3648735, "tags": {"addr:housenumber": "9"}}, {"type": "node", "id": 2503349656, "lat": 48.8219913, "lon": 2.3653227}, {"type": "node", "id": 2537258530, "lat": 48.8246925, "lon": 2.3645687, "tags": {"branch": "Olympiades", "brand": "Lidl", "brand:website": "http://www.lidl.fr", "brand:wikidata": "Q151954", "brand:wikipedia": "en:Lidl", "level": "2", "name": "Lidl", "opening_hours": "Mo-Sa 08:30-20:00; Su 08:30-12:15", "shop": "supermarket"}}, {"type": "node", "id": 2573626604, "lat": 48.8211768, "lon": 2.3669808, "tags": {"addr:housenumber": "1", "source": "cadastre-dgi-fr source : Direction G\u00e9n\u00e9rale des Imp\u00f4ts - Cadastre. Mise \u00e0 jour : 2013"}}, {"type": "node", "id": 2573626606, "lat": 48.8217472, "lon": 2.3666815, "tags": {"addr:housenumber": "11", "source": "cadastre-dgi-fr source : Direction G\u00e9n\u00e9rale des Imp\u00f4ts - Cadastre. Mise \u00e0 jour : 2013"}}, {"type": "node", "id": 2573626608, "lat": 48.8218422, "lon": 2.3666316, "tags": {"addr:housenumber": "13", "source": "cadastre-dgi-fr source : Direction G\u00e9n\u00e9rale des Imp\u00f4ts - Cadastre. Mise \u00e0 jour : 2013"}}, {"type": "node", "id": 2573626610, "lat": 48.8219306, "lon": 2.3665852, "tags": {"addr:housenumber": "15", "source": "cadastre-dgi-fr source : Direction G\u00e9n\u00e9rale des Imp\u00f4ts - Cadastre. Mise \u00e0 jour : 2013"}}, {"type": "node", "id": 2573626611, "lat": 48.8220151, "lon": 2.3665409, "tags": {"addr:housenumber": "17", "source": "cadastre-dgi-fr source : Direction G\u00e9n\u00e9rale des Imp\u00f4ts - Cadastre. Mise \u00e0 jour : 2013"}}, {"type": "node", "id": 2573626612, "lat": 48.8221242, "lon": 2.3665276, "tags": {"addr:housenumber": "19", "source": "cadastre-dgi-fr source : Direction G\u00e9n\u00e9rale des Imp\u00f4ts - Cadastre. Mise \u00e0 jour : 2013"}}, {"type": "node", "id": 2573626613, "lat": 48.8222316, "lon": 2.3664269, "tags": {"addr:housenumber": "19b", "source": "cadastre-dgi-fr source : Direction G\u00e9n\u00e9rale des Imp\u00f4ts - Cadastre. Mise \u00e0 jour : 2013"}}, {"type": "node", "id": 2573626620, "lat": 48.8212687, "lon": 2.3669326, "tags": {"addr:housenumber": "3", "source": "cadastre-dgi-fr source : Direction G\u00e9n\u00e9rale des Imp\u00f4ts - Cadastre. Mise \u00e0 jour : 2013"}}, {"type": "node", "id": 2573626631, "lat": 48.8213947, "lon": 2.3668665, "tags": {"addr:housenumber": "5", "source": "cadastre-dgi-fr source : Direction G\u00e9n\u00e9rale des Imp\u00f4ts - Cadastre. Mise \u00e0 jour : 2013"}}, {"type": "node", "id": 2573626633, "lat": 48.8215147, "lon": 2.3668035, "tags": {"addr:housenumber": "7", "source": "cadastre-dgi-fr source : Direction G\u00e9n\u00e9rale des Imp\u00f4ts - Cadastre. Mise \u00e0 jour : 2013"}}, {"type": "node", "id": 2573626635, "lat": 48.8216459, "lon": 2.3667346, "tags": {"addr:housenumber": "9", "source": "cadastre-dgi-fr source : Direction G\u00e9n\u00e9rale des Imp\u00f4ts - Cadastre. Mise \u00e0 jour : 2013"}}, {"type": "node", "id": 2763429843, "lat": 48.8215623, "lon": 2.3662137, "tags": {"brand": "Intermarch\u00e9 Hyper", "brand:wikidata": "Q98278022", "check_date": "2025-07-27", "level": "0", "name": "Intermarch\u00e9 Hyper", "organic": "yes", "phone": "+33 1 42 16 64 00", "shop": "supermarket", "source": "survey", "toilets": "no", "website": "https://www.intermarche.com/magasins/11659/Paris-75013/infos-pratiques", "wheelchair": "yes"}}, {"type": "node", "id": 2789489922, "lat": 48.8214911, "lon": 2.3655902}, {"type": "node", "id": 2814244565, "lat": 48.8219135, "lon": 2.3665942, "tags": {"entrance": "yes", "source": "survey"}}, {"type": "node", "id": 3735691606, "lat": 48.8194291, "lon": 2.3649509, "tags": {"check_date": "2024-11-06", "check_date:opening_hours": "2024-11-06", "name": "Boucherie Phnom Penh", "opening_hours": "Mo-Sa 08:00-19:00; Su 08:00-13:00", "shop": "butcher", "wheelchair": "limited"}}, {"type": "node", "id": 4207537746, "lat": 48.8269706, "lon": 2.3668695, "tags": {"diet:vegetarian": "yes", "level": "0", "name": "H\u00e9ritage", "opening_hours": "Mo-Fr 06:30-20:00; Sa 07:00-19:00; Su off", "operator": "L'Essentiel", "organic": "yes", "payment:credit_cards": "yes", "shop": "bakery", "source": "survey", "toilets": "no", "wheelchair": "yes"}}, {"type": "node", "id": 4366473576, "lat": 48.8269823, "lon": 2.3670111, "tags": {"level": "0", "name": "Corep Tolbiac", "opening_hours": "Mo-Fr 09:00-18:30; Sa 10:00-13:00,14:00-17:30; SH Sa off", "operator": "Corep", "shop": "copyshop", "website": "https://www.corep.fr/agence/corep-paris-tolbiac/", "wheelchair": "designated"}}, {"type": "node", "id": 4366473577, "lat": 48.8269945, "lon": 2.3670797, "tags": {"check_date": "2025-07-05", "check_date:opening_hours": "2025-07-05", "level": "0", "name": "Laverie Libre Service", "opening_hours": "Mo-Su 07:00-22:00", "self_service": "yes", "shop": "laundry", "wheelchair": "yes"}}, {"type": "node", "id": 4366473579, "lat": 48.8270297, "lon": 2.3673358, "tags": {"description": "V\u00eatements pour femmes", "name": "Brissyma", "opening_hours": "Mo-Sa 10:00-19:00", "shop": "clothes"}}, {"type": "node", "id": 4405542492, "lat": 48.8242469, "lon": 2.3678124, "tags": {"check_date:opening_hours": "2024-08-15", "name": "Espace beaut\u00e9 Paris", "opening_hours": "Mo-Sa 09:30-19:30", "shop": "beauty", "wheelchair": "limited"}}, {"type": "node", "id": 4420361992, "lat": 48.826588, "lon": 2.3665327, "tags": {"addr:city": "Paris", "addr:housenumber": "73", "addr:postcode": "75013", "addr:street": "Rue Nationale", "description": "Artisan p\u00e2tissier - salon de th\u00e9", "name": "duthy", "opening_hours": "Mo-Sa 10:00-20:00; Su 11:00-19:00", "phone": "+33 1 45 83 03 31", "shop": "pastry", "wheelchair": "limited"}}, {"type": "node", "id": 4458868397, "lat": 48.8241115, "lon": 2.3681884, "tags": {"laundry_service": "no", "level": "0", "name": "Laverie Libre-Service", "opening_hours": "Mo-Su 08:00-21:00", "self_service": "yes", "shop": "laundry", "wheelchair": "no"}}, {"type": "node", "id": 4556165609, "lat": 48.822963, "lon": 2.3670508, "tags": {"level": "0", "name": "PariSgel \u5df4\u9ece\u51cd\u54c1", "opening_hours": "Mo-Fr 09:30-13:00,14:30-19:00; Sa 09:30-19:00", "shop": "frozen_food", "website": "https://paris-store.com/magasins/"}}, {"type": "node", "id": 5124349109, "lat": 48.8219623, "lon": 2.3670927, "tags": {"name": "Paris Star Fils \u00e0 coudre", "opening_hours": "Mo,Tu,Th-Sa 10:00-14:00,15:00-18:00", "shop": "doityourself"}}, {"type": "node", "id": 5124349114, "lat": 48.8218982, "lon": 2.3662346, "tags": {"addr:city": "Paris", "addr:housenumber": "98", "addr:postcode": "75013", "addr:street": "Boulevard Mass\u00e9na", "name": "PrimaPrix", "shop": "convenience"}}, {"type": "node", "id": 5139145288, "lat": 48.8235765, "lon": 2.3691251, "tags": {"name": "Garage Vinh Loi", "opening_hours": "Mo-Fr 09:30-12:00,14:00-18:30", "shop": "car_repair"}}, {"type": "node", "id": 5820227985, "lat": 48.8252162, "lon": 2.3656191, "tags": {"name": "Infoprint", "shop": "copyshop"}}, {"type": "node", "id": 5909458443, "lat": 48.824336, "lon": 2.3658959}, {"type": "node", "id": 5909458444, "lat": 48.8241368, "lon": 2.3660046}, {"type": "node", "id": 5909458445, "lat": 48.8232577, "lon": 2.3666117}, {"type": "node", "id": 5909458446, "lat": 48.8233033, "lon": 2.3668102}, {"type": "node", "id": 5909458449, "lat": 48.8244271, "lon": 2.3662749}, {"type": "node", "id": 5909458450, "lat": 48.8243321, "lon": 2.3663288}, {"type": "node", "id": 5909458451, "lat": 48.8243053, "lon": 2.3662256}, {"type": "node", "id": 5909458452, "lat": 48.8244023, "lon": 2.3661707}, {"type": "node", "id": 5914744023, "lat": 48.824671, "lon": 2.3671275}, {"type": "node", "id": 6272762975, "lat": 48.8216818, "lon": 2.3666005, "tags": {"level": "0", "name": "M1 Coiffure", "shop": "hairdresser"}}, {"type": "node", "id": 6578105542, "lat": 48.8202202, "lon": 2.3635617, "tags": {"female": "yes", "level": "0", "male": "yes", "name": "\u00c9milie Vany", "opening_hours": "Mo-Sa 09:00-19:00", "shop": "hairdresser"}}, {"type": "node", "id": 6778844829, "lat": 48.8272301, "lon": 2.3672527, "tags": {"check_date": "2023-10-01", "level": "0", "name": "Rana Telecom", "office": "company", "shop": "mobile_phone", "wheelchair": "no"}}, {"type": "node", "id": 7351244476, "lat": 48.82452, "lon": 2.3670871}, {"type": "node", "id": 7351244477, "lat": 48.8245622, "lon": 2.367193}, {"type": "node", "id": 7351244478, "lat": 48.8245844, "lon": 2.3669427}, {"type": "node", "id": 7351244480, "lat": 48.8246212, "lon": 2.3669243}, {"type": "node", "id": 7498299214, "lat": 48.8248271, "lon": 2.3674971, "tags": {"name": "Amis Cultures Voyages", "shop": "travel_agency"}}, {"type": "node", "id": 7544369085, "lat": 48.8215137, "lon": 2.369891, "tags": {"check_date:opening_hours": "2025-07-30", "name": "Maison Caquelin", "opening_hours": "Su-Fr 06:00-20:00", "shop": "bakery"}}, {"type": "node", "id": 7767838889, "lat": 48.8242503, "lon": 2.3665651, "tags": {"amenity": "cafe", "cuisine": "bubble_tea", "level": "1", "name": "Chharm Thai", "shop": "tea", "wheelchair": "yes"}}, {"type": "node", "id": 8051621696, "lat": 48.8218668, "lon": 2.3666187, "tags": {"advertising": "screen"}}, {"type": "node", "id": 8051621731, "lat": 48.8218811, "lon": 2.3661282, "tags": {"level": "0", "name": "Parapharmacie Massena 13", "shop": "chemist", "wheelchair": "yes"}}, {"type": "node", "id": 8078713144, "lat": 48.8241163, "lon": 2.364534, "tags": {"check_date": "2025-07-27", "check_date:opening_hours": "2022-07-03", "name": "CFA Voyages", "opening_hours:signed": "no", "shop": "travel_agency"}}, {"type": "node", "id": 8239448462, "lat": 48.8199493, "lon": 2.3655716, "tags": {"name": "Joaillerie Phnom Penh", "shop": "jewelry"}}, {"type": "node", "id": 8623045144, "lat": 48.8217793, "lon": 2.3679978}, {"type": "node", "id": 8815918022, "lat": 48.8193325, "lon": 2.3650284, "tags": {"check_date:opening_hours": "2024-06-13", "name": "MG Distribution", "opening_hours:signed": "no", "shop": "supermarket", "source": "survey", "wheelchair": "yes"}}, {"type": "node", "id": 8857609296, "lat": 48.8195648, "lon": 2.3643056, "tags": {"check_date": "2025-02-28", "female": "yes", "male": "yes", "name": "Choisy Coiffure", "shop": "hairdresser", "source": "survey"}}, {"type": "node", "id": 8857609297, "lat": 48.8195868, "lon": 2.364384, "tags": {"name": "KLK Nails", "opening_hours": "Mo-Sa 10:00-19:00", "payment:credit_cards": "yes", "payment:debit_cards": "yes", "shop": "beauty", "source": "survey", "wheelchair": "yes"}}, {"type": "node", "id": 8937053762, "lat": 48.8202355, "lon": 2.3644581}, {"type": "node", "id": 8937053763, "lat": 48.8202351, "lon": 2.3644784}, {"type": "node", "id": 8937053764, "lat": 48.820211, "lon": 2.3644977}, {"type": "node", "id": 8937053765, "lat": 48.8201994, "lon": 2.3644873}, {"type": "node", "id": 8937053766, "lat": 48.8201925, "lon": 2.364468}, {"type": "node", "id": 8937053767, "lat": 48.8202286, "lon": 2.3644392}, {"type": "node", "id": 9089011810, "lat": 48.8218782, "lon": 2.3657209, "tags": {"brand": "Zeeman", "brand:wikidata": "Q184399", "level": "1", "name": "Zeeman", "shop": "clothes", "wheelchair": "yes"}}, {"type": "node", "id": 9089019649, "lat": 48.8215429, "lon": 2.3655143, "tags": {"level": "1", "name": "Mon pressing", "opening_hours": "Mo-Sa 09:00-19:30", "shop": "dry_cleaning", "source": "survey;enseigne", "wheelchair": "yes"}}, {"type": "node", "id": 9089019656, "lat": 48.8218692, "lon": 2.3655747, "tags": {"level": "1", "name": "\u4e2d\u570b\u7d05\u9152\u884c", "name:fr": "Cave \u00e0 vin", "shop": "alcohol", "wheelchair": "yes"}}, {"type": "node", "id": 9089019658, "lat": 48.821863, "lon": 2.3654685, "tags": {"addr:postcode": "75013", "check_date": "2025-07-27", "level": "0", "name": "Chen Market \u4e2d\u570b\u7d05\u8d85\u5e02", "opening_hours": "Mo-Sa 09:00-21:00", "shop": "supermarket", "wheelchair": "yes"}}, {"type": "node", "id": 9217083529, "lat": 48.8211162, "lon": 2.3635364, "tags": {"name": "Zenovap", "shop": "e-cigarette"}}, {"type": "node", "id": 9466442232, "lat": 48.8232766, "lon": 2.3666897}, {"type": "node", "id": 9481657041, "lat": 48.8250841, "lon": 2.3619017, "tags": {"check_date": "2025-07-27", "contact:phone": "+33 9 82 47 50 56", "contact:website": "https://mollepatisserie.fr/", "name": "Moll\u00e9 P\u00e2tisserie", "shop": "pastry"}}, {"type": "node", "id": 10108834217, "lat": 48.8241785, "lon": 2.3661254, "tags": {"contact:city": "Paris", "contact:housenumber": "22", "contact:phone": "+33 1 45 85 60 65", "contact:postcode": "75013", "contact:street": "Rue du Disque", "contact:website": "https://placenearme.org/coupes-tendances?q=helena+coiffure", "level": "1", "name": "Helena Coiffure", "official_name": "Helena Coiffure", "shop": "hairdresser", "survey:date": "2024-11-23"}}, {"type": "node", "id": 11663797342, "lat": 48.824213, "lon": 2.3664236, "tags": {"level": "1", "name": "Paris Styles", "shop": "clothes", "wheelchair": "yes"}}, {"type": "node", "id": 11663797354, "lat": 48.8242353, "lon": 2.3660633, "tags": {"level": "1", "name": "Kim Loan", "shop": "jewelry", "survey:date": "2024-11-23"}}, {"type": "node", "id": 11663797356, "lat": 48.824183, "lon": 2.3662759, "tags": {"level": "1", "name": "Audio & Optiques 13", "shop": "hearing_aids", "survey:date": "2024-11-23"}}, {"type": "node", "id": 11794005305, "lat": 48.8202423, "lon": 2.3636764, "tags": {"name": "Mass\u00e9na Photo Express", "shop": "photo"}}, {"type": "node", "id": 12114302204, "lat": 48.8258954, "lon": 2.3648593, "tags": {"name": "Laverie Wash'N Dry", "self_service": "yes", "shop": "laundry"}}, {"type": "node", "id": 12114302207, "lat": 48.8253471, "lon": 2.3652724, "tags": {"name": "DML Paris", "shop": "shoe_repair"}}, {"type": "node", "id": 12139369354, "lat": 48.8245743, "lon": 2.3668989}, {"type": "node", "id": 12295986715, "lat": 48.8239395, "lon": 2.3625247, "tags": {"check_date": "2025-07-27", "name": "Objets d'art Souvenirs", "shop": "art"}}, {"type": "node", "id": 12334163883, "lat": 48.8215448, "lon": 2.365133, "tags": {"brand": "Marionnaud", "brand:wikidata": "Q1129073", "level": "0", "name": "Marionnaud", "shop": "perfumery"}}, {"type": "node", "id": 12367596203, "lat": 48.8238102, "lon": 2.3660109, "tags": {"level": "1", "shop": "optician", "survey:date": "2024-11-23"}}, {"type": "node", "id": 12367596204, "lat": 48.8237543, "lon": 2.3659394, "tags": {"level": "1", "name": "Comptoir d'Asie Kim Nguyen", "shop": "jewelry", "survey:date": "2024-11-23"}}, {"type": "node", "id": 12367598534, "lat": 48.8242715, "lon": 2.3659862, "tags": {"name": "Crystal", "shop": "beauty", "survey:date": "2024-11-23"}}, {"type": "node", "id": 12367614950, "lat": 48.8237689, "lon": 2.3663645, "tags": {"name": "M. Yoyo", "shop": "mobile_phone", "survey:date": "2024-11-23"}}, {"type": "node", "id": 12367614951, "lat": 48.8237395, "lon": 2.3663806, "tags": {"level": "1", "name": "Kim Eng", "shop": "jewelry", "survey:date": "2024-11-23"}}, {"type": "node", "id": 12367614952, "lat": 48.8237009, "lon": 2.3664056, "tags": {"level": "1", "name": "Tai You", "shop": "gift", "survey:date": "2024-11-23"}}, {"type": "node", "id": 12367614953, "lat": 48.823664, "lon": 2.3664235, "tags": {"level": "1", "name": "Optisia", "shop": "optician", "survey:date": "2024-11-23"}}, {"type": "node", "id": 12367614954, "lat": 48.8236567, "lon": 2.3665418, "tags": {"level": "1", "name": "Ao-Ta", "shop": "clothes", "survey:date": "2024-11-23"}}, {"type": "node", "id": 12367614955, "lat": 48.8236171, "lon": 2.3664481, "tags": {"level": "1", "name": "Yinki", "shop": "pastry", "survey:date": "2024-11-23"}}, {"type": "node", "id": 12367614957, "lat": 48.8235558, "lon": 2.366482, "tags": {"level": "1", "name": "Kim-Kee", "shop": "jewelry", "survey:date": "2024-11-23"}}, {"type": "node", "id": 12367614958, "lat": 48.8235593, "lon": 2.3665943, "tags": {"level": "1", "name": "Eleciga", "shop": "e-cigarette", "survey:date": "2024-11-23"}}, {"type": "node", "id": 12367614959, "lat": 48.8235059, "lon": 2.3665095, "tags": {"level": "1", "name": "Borei Angkor", "shop": "gift", "survey:date": "2024-11-23"}}, {"type": "node", "id": 12367614960, "lat": 48.823504, "lon": 2.3666313, "tags": {"name": "Musica", "shop": "music", "survey:date": "2024-11-23"}}, {"type": "node", "id": 12367614962, "lat": 48.8233655, "lon": 2.3665902, "tags": {"conveying": "yes", "name": "m3", "shop": "hairdresser", "survey:date": "2024-11-23"}}, {"type": "node", "id": 12367614963, "lat": 48.8234107, "lon": 2.3666646, "tags": {"level": "1", "name": "Indigo", "shop": "clothes", "survey:date": "2024-11-23"}}, {"type": "node", "id": 12367623274, "lat": 48.8241298, "lon": 2.3662886, "tags": {"level": "1", "name": "Kpop Caf\u00e9", "shop": "gift", "survey:date": "2024-11-23"}}, {"type": "node", "id": 12367623276, "lat": 48.8240677, "lon": 2.3663128, "tags": {"level": "1", "name": "Heng-Heng", "shop": "butcher", "survey:date": "2024-11-23"}}, {"type": "node", "id": 12367623277, "lat": 48.8240925, "lon": 2.3661786, "tags": {"level": "1", "name": "Querencia", "shop": "interior_decoration", "survey:date": "2024-11-23"}}, {"type": "node", "id": 12367623278, "lat": 48.8240348, "lon": 2.3662168, "tags": {"level": "1", "name": "K\u00e9lyne coiffure", "shop": "hairdresser", "survey:date": "2024-11-23"}}, {"type": "node", "id": 12367623279, "lat": 48.8239992, "lon": 2.3663559, "tags": {"level": "1", "name": "Paccard", "shop": "optician", "survey:date": "2024-11-23"}}, {"type": "node", "id": 12367623281, "lat": 48.8238533, "lon": 2.3663237, "tags": {"level": "1", "name": "Bijouka", "shop": "watches", "survey:date": "2024-11-23"}}, {"type": "node", "id": 12367623282, "lat": 48.8238156, "lon": 2.3661827, "tags": {"level": "1", "name": "Wellness jewels", "shop": "watches", "survey:date": "2024-11-23"}}, {"type": "node", "id": 12370453970, "lat": 48.8221853, "lon": 2.3657336, "tags": {"addr:housenumber": "23", "entrance": "yes", "name": "R\u00e9sidence Capri"}}, {"type": "node", "id": 12522609664, "lat": 48.8240024, "lon": 2.3664114, "tags": {"name": "K-pop caf\u00e9", "shop": "music"}}, {"type": "node", "id": 12789644407, "lat": 48.8215899, "lon": 2.3653772, "tags": {"brand": "Optic 2000", "brand:wikidata": "Q3354445", "level": "0", "name": "Optic 2000", "shop": "optician"}}, {"type": "node", "id": 12789644410, "lat": 48.8216453, "lon": 2.3657155, "tags": {"name": "Bel Chou's", "shop": "shoes"}}, {"type": "node", "id": 12789644423, "lat": 48.8216432, "lon": 2.3655713, "tags": {"level": "0", "name": "\u7f8e\u5fc3\u9905\u5bb6", "name:fr": "Mey Xin", "shop": "pastry", "wheelchair": "yes"}}, {"type": "node", "id": 12789644453, "lat": 48.8218761, "lon": 2.3658414, "tags": {"level": "1", "name": "Tech Care", "shop": "computer"}}, {"type": "way", "id": 242889306, "nodes": [503047790, 924231433, 924231516, 8623045144, 503047787, 503047790], "tags": {"building": "retail", "building:levels": "1", "name": "Continental March\u00e9", "opening_hours": "Mo-Sa 09:00-19:00", "shop": "supermarket", "source": "survey"}}, {"type": "way", "id": 332367227, "nodes": [43176044, 924127180, 924146483, 924147399, 924164453, 2573626604, 2573626620, 2573626631, 2573626633, 2573626635, 2573626606, 2573626608, 8051621696, 2814244565, 2573626610, 2573626611, 924158883, 924171430, 2573626612, 924130156, 924126846, 2573626613, 924159981, 12370453970, 924168697, 924162123, 924134814, 2503349656, 924126731, 2503349530, 2503349336, 2503349366, 924139495, 924151926, 2503349376, 924157131, 924147185, 2503349387, 924160485, 2789489922, 924164094, 924162317, 924131195, 924169735, 43176038, 43176041, 43176044], "tags": {"building:part": "yes", "name": "La Galerie Mass\u00e9na", "opening_hours": "Mo-Th 08:30-21:00; Fr,Sa 08:30-21:30; Su 08:30-12:30", "shop": "mall", "source": "cadastre-dgi-fr source : Direction G\u00e9n\u00e9rale des Imp\u00f4ts - Cadastre. Mise \u00e0 jour : 2019, survey", "website": "https://www.la-galerie.com/massena"}}, {"type": "way", "id": 625919256, "nodes": [5909458443, 5909458444, 2329369286, 5909458445, 9466442232, 5909458446, 924160497, 2329369287, 2329369292, 924172759, 924127745, 7351244476, 7351244477, 5914744023, 7351244480, 7351244478, 12139369354, 2329369297, 5909458449, 5909458450, 5909458451, 5909458452, 5909458443], "tags": {"building": "commercial", "level": "1", "name": "Galerie Oslo", "opening_hours": "Mo-Sa 08:00-21:30", "shop": "mall"}}, {"type": "way", "id": 966051353, "nodes": [8937053767, 8937053766, 8937053765, 8937053764, 8937053763, 8937053762, 8937053767], "tags": {"building": "commercial", "building:levels": "1", "check_date": "2024-06-13", "name:signed": "no", "opening_hours:signed": "no", "roof:levels": "0", "roof:shape": "round", "shop": "newsagent", "source": "cadastre-dgi-fr source : Direction Generale des Impots - Cadastre. Mise a jour : 2021", "wheelchair": "yes"}}]}