{"version": 0.6, "generator": "Overpass API 0.7.62.8 e802775f", "osm3s": {"timestamp_osm_base": "2026-01-13T20:52:30Z", "copyright": "The data included in this document is from www.openstreetmap.org. The data is made available under ODbL."}, "elements": [{"type": "node", "id": 253966979, "lat": 48.8713563, "lon": 2.3389691, "tags": {"name": "Passages des Princes", "shop": "mall"}}, {"type": "node", "id": 620845441, "lat": 48.8709967, "lon": 2.3416711, "tags": {"addr:city": "Paris", "addr:postcode": "75002", "addr:street": "Passage des Panoramas", "name": "Passage des Panoramas", "opening_hours": "Mo-Su 06:00-00:00", "shop": "mall", "source": "cadastre-dgi-fr source : Direction G\u00e9n\u00e9rale des Imp\u00f4ts - Cadastre;mise \u00e0 jour : 2010", "toilets": "no", "wikidata": "Q3141829"}}, {"type": "node", "id": 620845622, "lat": 48.8716033, "lon": 2.3417839}, {"type": "node", "id": 620845623, "lat": 48.8716081, "lon": 2.3417869}, {"type": "node", "id": 620845624, "lat": 48.8716071, "lon": 2.3417899}, {"type": "node", "id": 620845625, "lat": 48.8716097, "lon": 2.341799}, {"type": "node", "id": 620845626, "lat": 48.8715965, "lon": 2.3417924}, {"type": "node", "id": 620845627, "lat": 48.8716016, "lon": 2.3417888}, {"type": "node", "id": 620845637, "lat": 48.8716068, "lon": 2.3418143}, {"type": "node", "id": 620845638, "lat": 48.8716005, "lon": 2.3418206}, {"type": "node", "id": 620845639, "lat": 48.8715995, "lon": 2.3418246}, {"type": "node", "id": 620845640, "lat": 48.8715948, "lon": 2.3418215}, {"type": "node", "id": 620845641, "lat": 48.8715958, "lon": 2.3418177}, {"type": "node", "id": 620845642, "lat": 48.8715931, "lon": 2.3418079}, {"type": "node", "id": 687096927, "lat": 48.8715373, "lon": 2.3380244}, {"type": "node", "id": 687096929, "lat": 48.8715328, "lon": 2.3380224}, {"type": "node", "id": 687096931, "lat": 48.8715294, "lon": 2.3380028}, {"type": "node", "id": 687096932, "lat": 48.8715322, "lon": 2.3379969}, {"type": "node", "id": 687096934, "lat": 48.8715318, "lon": 2.3379921}, {"type": "node", "id": 687096936, "lat": 48.871536, "lon": 2.33799}, {"type": "node", "id": 687096938, "lat": 48.8715375, "lon": 2.3379952}, {"type": "node", "id": 687096940, "lat": 48.8715426, "lon": 2.3379986}, {"type": "node", "id": 687096942, "lat": 48.8715461, "lon": 2.3380165}, {"type": "node", "id": 687096943, "lat": 48.8715433, "lon": 2.3380226}, {"type": "node", "id": 687096945, "lat": 48.8715387, "lon": 2.338029}, {"type": "node", "id": 687096946, "lat": 48.8715435, "lon": 2.3380282}, {"type": "node", "id": 687892377, "lat": 48.8718517, "lon": 2.3402879}, {"type": "node", "id": 687892386, "lat": 48.8718576, "lon": 2.3402542}, {"type": "node", "id": 687892480, "lat": 48.8718609, "lon": 2.3402611}, {"type": "node", "id": 687892527, "lat": 48.8718475, "lon": 2.3402568}, {"type": "node", "id": 687892531, "lat": 48.8718541, "lon": 2.3402477}, {"type": "node", "id": 687892718, "lat": 48.8718581, "lon": 2.3402495}, {"type": "node", "id": 687892757, "lat": 48.8718484, "lon": 2.3402816}, {"type": "node", "id": 687892833, "lat": 48.8718456, "lon": 2.3402738}, {"type": "node", "id": 687892835, "lat": 48.8718534, "lon": 2.3402517}, {"type": "node", "id": 687892972, "lat": 48.8718583, "lon": 2.3402787}, {"type": "node", "id": 687893016, "lat": 48.8718479, "lon": 2.3402857}, {"type": "node", "id": 687893112, "lat": 48.8718527, "lon": 2.340284}, {"type": "node", "id": 690981979, "lat": 48.8706824, "lon": 2.3472709}, {"type": "node", "id": 690982017, "lat": 48.8706873, "lon": 2.3473326}, {"type": "node", "id": 690982062, "lat": 48.8706966, "lon": 2.3472764}, {"type": "node", "id": 690982169, "lat": 48.8707057, "lon": 2.3472908}, {"type": "node", "id": 690982332, "lat": 48.8707001, "lon": 2.3473267}, {"type": "node", "id": 690982383, "lat": 48.8706736, "lon": 2.3473276}, {"type": "node", "id": 829891548, "lat": 48.8708262, "lon": 2.3476311}, {"type": "node", "id": 829891857, "lat": 48.8708246, "lon": 2.3476698}, {"type": "node", "id": 829893736, "lat": 48.8708268, "lon": 2.3476274}, {"type": "node", "id": 829894143, "lat": 48.872735, "lon": 2.3435478}, {"type": "node", "id": 829894284, "lat": 48.8728993, "lon": 2.3434023}, {"type": "node", "id": 829894286, "lat": 48.8716136, "lon": 2.3428639}, {"type": "node", "id": 829894359, "lat": 48.8708201, "lon": 2.3476681}, {"type": "node", "id": 829894999, "lat": 48.8708314, "lon": 2.3476328}, {"type": "node", "id": 829896043, "lat": 48.8716377, "lon": 2.3428831}, {"type": "node", "id": 829896185, "lat": 48.8716491, "lon": 2.3428087}, {"type": "node", "id": 829896384, "lat": 48.8728808, "lon": 2.3435963}, {"type": "node", "id": 829896463, "lat": 48.8727529, "lon": 2.3434177}, {"type": "node", "id": 829897626, "lat": 48.8716234, "lon": 2.342878}, {"type": "node", "id": 829898126, "lat": 48.870825, "lon": 2.3476664}, {"type": "node", "id": 829899139, "lat": 48.8727781, "lon": 2.34323}, {"type": "node", "id": 829899422, "lat": 48.8729196, "lon": 2.3431927}, {"type": "node", "id": 829899430, "lat": 48.8708175, "lon": 2.3476546}, {"type": "node", "id": 829899738, "lat": 48.8765294, "lon": 2.3468288, "tags": {"brand": "Copy-Top", "brand:wikidata": "Q101281603", "check_date:opening_hours": "2023-12-11", "email": "papillon@copytop.com", "name": "Copy-Top", "note": "Imprimeur", "official_name": "COPY-TOP Papillon - La Fayette", "opening_hours": "Mo-Fr 09:00-12:30,13:30-18:30", "operator": "COPY-TOP", "phone": "+33 1 55 33 14 44", "shop": "copyshop", "source": "http://www.copytop.com/", "website": "https://www.copytop.com/agence-la-fayette-montholon", "wheelchair": "yes"}}, {"type": "node", "id": 829900157, "lat": 48.8728865, "lon": 2.3435355}, {"type": "node", "id": 829900226, "lat": 48.8708205, "lon": 2.347665}, {"type": "node", "id": 829900564, "lat": 48.8708202, "lon": 2.3476376}, {"type": "node", "id": 829900605, "lat": 48.8708312, "lon": 2.34766}, {"type": "node", "id": 829901743, "lat": 48.8708317, "lon": 2.3476292}, {"type": "node", "id": 829901813, "lat": 48.8716348, "lon": 2.3428034}, {"type": "node", "id": 829901961, "lat": 48.8716219, "lon": 2.3428095}, {"type": "node", "id": 829902132, "lat": 48.8708341, "lon": 2.3476423}, {"type": "node", "id": 831431223, "lat": 48.8766134, "lon": 2.3393993}, {"type": "node", "id": 831432982, "lat": 48.8760541, "lon": 2.3398945}, {"type": "node", "id": 831435964, "lat": 48.876058, "lon": 2.3399422}, {"type": "node", "id": 831437398, "lat": 48.876605, "lon": 2.3393593}, {"type": "node", "id": 831438007, "lat": 48.8760426, "lon": 2.3399071}, {"type": "node", "id": 831441111, "lat": 48.8760697, "lon": 2.3399299}, {"type": "node", "id": 831443021, "lat": 48.8764197, "lon": 2.344422}, {"type": "node", "id": 971476002, "lat": 48.8760475, "lon": 2.3439434}, {"type": "node", "id": 971476013, "lat": 48.8739835, "lon": 2.3443375, "tags": {"shop": "vacant"}}, {"type": "node", "id": 971476102, "lat": 48.8760084, "lon": 2.3439064}, {"type": "node", "id": 971476119, "lat": 48.8760051, "lon": 2.3439488}, {"type": "node", "id": 971476134, "lat": 48.8759983, "lon": 2.3439293}, {"type": "node", "id": 971476152, "lat": 48.8757398, "lon": 2.3438869, "tags": {"name": "Copilote", "opening_hours": "Tu-Sa 10:00-19:00", "shop": "optician", "website": "https://www.mavuemeslunettes.fr/opticiens/ile-de-france/paris/75009/47138"}}, {"type": "node", "id": 971476177, "lat": 48.8760404, "lon": 2.343962}, {"type": "node", "id": 1232685004, "lat": 48.8741307, "lon": 2.3404828, "tags": {"addr:housenumber": "14", "addr:postcode": "75009", "addr:street": "Rue de Provence", "name": "Opulence Tattooshop", "opening_hours": "Mo-Sa 11:00-19:00", "shop": "tattoo", "source": "cadastre-dgi-fr source : Direction G\u00e9n\u00e9rale des Imp\u00f4ts - Cadastre. Mise \u00e0 jour : 2011", "website": "https://www.instagram.com/opulencetattooshop?igsh=MXRpcmY5eWtlYWd3Mw=="}}, {"type": "node", "id": 1234212891, "lat": 48.8758131, "lon": 2.3429411, "tags": {"addr:housenumber": "2", "addr:street": "Rue de Ch\u00e2teaudun", "brand": "Kodak Express", "brand:wikidata": "Q6425126", "name": "Kodak Express", "opening_hours": "Mo-Fr 10:30-19:00; Sa 14:00-19:00", "shop": "photo"}}, {"type": "node", "id": 1241353752, "lat": 48.8714113, "lon": 2.3391522, "tags": {"brand": "Jou\u00e9Club", "brand:wikidata": "Q3187152", "brand:wikipedia": "fr:Jou\u00e9Club", "name": "Jou\u00e9Club", "phone": "+331 53 45 41 41", "shop": "toys", "source": "cadastre-dgi-fr source : Direction G\u00e9n\u00e9rale des Imp\u00f4ts - Cadastre. Mise \u00e0 jour : 2011", "website": "https://www.joueclub.com/"}}, {"type": "node", "id": 1242438632, "lat": 48.8764353, "lon": 2.3443634, "tags": {"addr:housenumber": "42", "source": "cadastre-dgi-fr source : Direction G\u00e9n\u00e9rale des Imp\u00f4ts - Cadastre. Mise \u00e0 jour : 2011"}}, {"type": "node", "id": 1242504175, "lat": 48.8728457, "lon": 2.3432122, "tags": {"addr:housenumber": "16", "source": "cadastre-dgi-fr source : Direction G\u00e9n\u00e9rale des Imp\u00f4ts - Cadastre. Mise \u00e0 jour : 2011"}}, {"type": "node", "id": 1242504485, "lat": 48.8720561, "lon": 2.3419774, "tags": {"addr:city": "Paris", "addr:housenumber": "9", "addr:postcode": "75009", "addr:street": "Passage Jouffroy", "check_date": "2024-02-16", "email": "amourdepierres@gmail.com", "name": "Amour de Pierres", "opening_hours": "Tu-Sa 10:30-19:00, Mo 11:00-19:30", "phone": "+33 1 48 00 90 00", "shop": "jewelry", "source": "cadastre-dgi-fr source : Direction G\u00e9n\u00e9rale des Imp\u00f4ts - Cadastre. Mise \u00e0 jour : 2011", "website": "http://www.amour-de-pierres.com"}}, {"type": "node", "id": 1242504779, "lat": 48.8732443, "lon": 2.342302, "tags": {"addr:city": "Paris", "addr:housenumber": "8", "addr:postcode": "75009", "addr:street": "Passage Verdeau", "name": "Le Bonheur des Dames", "opening_hours": "Mo-Sa 10:30-14:00,14:30-19:00", "payment:american_express": "yes", "payment:cards": "yes", "payment:cash": "yes", "phone": "+33 145230611", "shop": "sewing", "source": "cadastre-dgi-fr source : Direction G\u00e9n\u00e9rale des Imp\u00f4ts - Cadastre. Mise \u00e0 jour : 2011", "website": "https://www.bonheurdesdames.com"}}, {"type": "node", "id": 1242530870, "lat": 48.8719298, "lon": 2.3415791, "tags": {"addr:housenumber": "14", "addr:street": "Boulevard Montmartre", "contact:city": "Paris 9eme Arrondissement", "contact:housenumber": "14", "contact:postcode": "75009", "contact:street": "Boulevard Montmartre", "disused:amenity": "bar", "old_name": "Hard Rock Cafe", "shop": "vacant", "toilets:wheelchair": "yes", "wheelchair": "yes"}}, {"type": "node", "id": 1271556354, "lat": 48.8716788, "lon": 2.3482164, "tags": {"contact:city": "Paris", "contact:housenumber": "37", "contact:postcode": "75010", "contact:street": "Rue de l'\u00c9chiquier", "description": "MAGASIN DE CIGARETTES ELECTRONIQUES", "name": "eCig & Zen", "payment:mastercard": "yes", "payment:visa": "yes", "shop": "e-cigarette", "source": "cadastre-dgi-fr source : Direction G\u00e9n\u00e9rale des Imp\u00f4ts - Cadastre. Mise \u00e0 jour : 2011"}}, {"type": "node", "id": 1293541716, "lat": 48.8765786, "lon": 2.3385925, "tags": {"alt_name": "Le Pain au naturel", "check_date": "2025-11-05", "indoor_seating": "yes", "name": "Moisan", "outdoor_seating": "yes", "ref:FR:SIRET": "79926578000020", "shop": "bakery", "source": "survey"}}, {"type": "node", "id": 1293541721, "lat": 48.8770286, "lon": 2.3391917, "tags": {"check_date": "2025-04-16", "name": "Coffea", "opening_hours": "Tu-Sa 10:00-19:00, Su 10:00-14:00", "shop": "coffee", "website": "https://coffea.fr/"}}, {"type": "node", "id": 1293541724, "lat": 48.876859, "lon": 2.3394, "tags": {"delivery": "yes", "name": "Au Beau Verger", "shop": "greengrocer", "source": "survey"}}, {"type": "node", "id": 1293541725, "lat": 48.8772107, "lon": 2.3395527, "tags": {"name": "Aux 4 Saisons", "shop": "greengrocer", "source": "survey"}}, {"type": "node", "id": 1294579498, "lat": 48.8759937, "lon": 2.3404635, "tags": {"brand": "Carrefour City", "brand:wikidata": "Q2940187", "level": "0", "name": "Carrefour City", "opening_hours": "Mo-Sa 07:00-23:00; Su 09:00-23:00", "organic": "yes", "shop": "convenience", "toilets": "no", "website": "https://www.carrefour.fr/magasin/city-paris-chateaudun", "wheelchair": "yes"}}, {"type": "node", "id": 1299425662, "lat": 48.8767259, "lon": 2.3395836, "tags": {"addr:city": "Paris", "addr:country": "FR", "addr:housenumber": "62", "addr:postcode": "75009", "addr:street": "Rue Lamartine", "brand": "Picard", "brand:wikidata": "Q3382454", "brand:wikipedia": "fr:Picard Surgel\u00e9s", "check_date": "2025-11-04", "check_date:opening_hours": "2025-11-04", "name": "Picard", "opening_hours": "Mo-Sa 09:00-20:30; Su 09:00-12:45", "operator": "Picard", "phone": "+33 1 45 26 22 43", "ref:FR:SIRET": "78493968803290", "shop": "frozen_food", "source": "survey", "website": "https://magasins.picard.fr/454-picard-lamartine", "wheelchair": "yes"}}, {"type": "node", "id": 1336880566, "lat": 48.8750332, "lon": 2.3432145, "tags": {"addr:housenumber": "18", "addr:street": "Rue Cadet", "check_date": "2023-04-29", "name": "Detrad", "opening_hours": "Mo-Sa 11:00-12:00; Mo-Fr 13:00-20:00; Sa 13:00-19:00", "shop": "books", "source": "cadastre-dgi-fr source : Direction G\u00e9n\u00e9rale des Imp\u00f4ts - Cadastre. Mise \u00e0 jour : 2011", "website": "https://www.detrad.com/"}}, {"type": "node", "id": 1342706542, "lat": 48.871547, "lon": 2.3362608, "tags": {"addr:housenumber": "24", "addr:postcode": "75009", "addr:street": "Boulevard des Italiens", "check_date": "2025-01-15", "name": "La Grande Surface", "opening_hours": "Th-Su 18:00-24:00", "shop": "vacant", "source": "survey"}}, {"type": "node", "id": 1440250985, "lat": 48.8771577, "lon": 2.3394367, "tags": {"branch": "Martyrs", "brand": "Ernest & Valentin", "name": "Ernest & Valentin", "ref:FR:SIRET": "83147410100019", "shop": "bakery", "website": "https://ernestetvalentin.com/boulangeries/"}}, {"type": "node", "id": 1440250987, "lat": 48.8769519, "lon": 2.3391542, "tags": {"name": "Droguerie Saint-Georges", "opening_hours": "Tu-Th 10:00-13:00,15:00-19:30, Su 10:00-13:30; Fr 10:00-13:30,15:00-20:00; Sa 10:00-20:00", "shop": "hardware", "source": "survey"}}, {"type": "node", "id": 1481765822, "lat": 48.8716889, "lon": 2.3363851, "tags": {"name": "Centre Faguet Optique", "shop": "optician"}}, {"type": "node", "id": 1483017717, "lat": 48.8762632, "lon": 2.3392544, "tags": {"email": "contact@ladivini.com", "name": "Divini Kreol", "shop": "jewelry", "source": "survey", "website": "https://www.ladivini.com/"}}, {"type": "node", "id": 1483017725, "lat": 48.876751, "lon": 2.3395102, "tags": {"check_date": "2025-11-04", "check_date:opening_hours": "2025-11-04", "name": "Monop' Beauty", "opening_hours": "Mo-Sa 10:00-20:00; Su 10:00-14:00", "ref:FR:SIRET": "34138063200214", "shop": "cosmetics", "source": "survey", "website": "https://www.monoprix.fr/2863.html"}}, {"type": "node", "id": 1483017728, "lat": 48.8760405, "lon": 2.3391799, "tags": {"name": "Meubles & Atmosph\u00e8re", "opening_hours": "Su,Mo 14:00-19:00; Tu-Sa 10:30-13:30,14:30-19:30", "shop": "furniture", "source": "survey"}}, {"type": "node", "id": 1483017729, "lat": 48.8763258, "lon": 2.3392754, "tags": {"name": "PA Design", "opening_hours": "Mo-Fr 11:00-14:00, 15:00-19:00; Sa 10:30-13:00, 14:00-19:00", "phone": "+33 1 42 85 58 33", "shop": "variety_store", "source": "survey", "website": "https://www.pa-design.com/"}}, {"type": "node", "id": 1486313975, "lat": 48.8706911, "lon": 2.3467398, "tags": {"shop": "vacant"}}, {"type": "node", "id": 1486314015, "lat": 48.8707711, "lon": 2.3461822, "tags": {"check_date": "2025-08-01", "name": "Au Sultan", "shop": "tobacco"}}, {"type": "node", "id": 1486314050, "lat": 48.8712614, "lon": 2.3433544, "tags": {"brand": "Levi's", "brand:wikidata": "Q127962", "brand:wikipedia": "en:Levi Strauss & Co.", "clothes": "denim;men;women", "name": "Levi's", "shop": "clothes", "wheelchair": "limited"}}, {"type": "node", "id": 1486314054, "lat": 48.8710449, "lon": 2.3446309, "tags": {"addr:floor": "0", "addr:housenumber": "19", "addr:street": "Boulevard Poissonni\u00e8re", "brand": "Franprix", "brand:wikidata": "Q2420096", "brand:wikipedia": "fr:Franprix", "check_date": "2025-05-22", "level": "0", "name": "Franprix", "opening_hours": "Mo-Sa 08:00-23:00; Su 08:00-22:00", "operator": "Franprix", "shop": "convenience", "website": "https://www.franprix.fr/magasins/6737"}}, {"type": "node", "id": 1486314107, "lat": 48.8707507, "lon": 2.3463202, "tags": {"check_date": "2025-08-01", "name": "DesignOptic", "opening_hours": "Mo-Sa 10:00-19:30", "shop": "optician"}}, {"type": "node", "id": 1486314110, "lat": 48.870998, "lon": 2.3448481, "tags": {"addr:city": "Paris", "brand": "SFR", "brand:wikidata": "Q218765", "brand:wikipedia": "en:SFR", "check_date": "2024-05-18", "name": "SFR", "operator": "SFR", "shop": "mobile_phone"}}, {"type": "node", "id": 1489467267, "lat": 48.8765661, "lon": 2.3397357, "tags": {"name": "Bocoray", "shop": "furniture", "source": "survey"}}, {"type": "node", "id": 1489467274, "lat": 48.8750151, "lon": 2.3392943, "tags": {"name": "Cordonnier", "opening_hours": "Mo-Fr 09:00-19:00", "shop": "shoes", "source": "survey"}}, {"type": "node", "id": 1489467287, "lat": 48.8765327, "lon": 2.3402855, "tags": {"brand": "Naturalia", "brand:wikidata": "Q3337081", "brand:wikipedia": "fr:Naturalia", "name": "Naturalia", "opening_hours": "Mo-Sa 09:00-20:45; Su 09:00-12:45", "operator": "Groupe Casino", "organic": "only", "phone": "+33 1 48 74 66 54", "shop": "convenience", "source": "survey", "website": "https://naturalia.fr/"}}, {"type": "node", "id": 1688122345, "lat": 48.8713621, "lon": 2.3393105, "tags": {"addr:housename": "Passage des Princes", "addr:housenumber": "3;5", "addr:postcode": "75002", "addr:street": "Boulevard des Italiens", "name": "Village Jou\u00e9Club", "name:ru": "\u0412\u0438\u043b\u0430\u0434\u0436 \u0434\u0436\u043e\u043a\u043b\u0443\u0431 \u043c\u0430\u0433\u0430\u0437\u0438\u043d \u0438\u0433\u0440\u0443\u0448\u0435\u043a", "shop": "toys", "source": "www.joueclub.com", "website": "https://www.joueclub.fr/magasin/village-joueclub-paris.html"}}, {"type": "node", "id": 1699161352, "lat": 48.8717448, "lon": 2.340097, "tags": {"brand": "De Fursac", "brand:wikidata": "Q22248311", "brand:wikipedia": "fr:De Fursac", "check_date": "2025-01-03", "clothes": "men", "contact:city": "Paris", "contact:housenumber": "112", "contact:postcode": "75002", "contact:street": "Rue de Richelieu", "description": "V\u00eatements pour homme", "name": "De Fursac", "shop": "clothes", "source": "www.defursac.fr", "website": "https://www.defursac.fr/"}}, {"type": "node", "id": 1699170789, "lat": 48.8739531, "lon": 2.3423256, "tags": {"addr:housenumber": "33 - 35", "addr:postcode": "75009", "addr:street": "Rue du Faubourg Montmartre", "check_date": "2025-04-18", "name": "A la M\u00e8re de Famille", "opening_hours": "Mo-Sa 09:30-20:00; Su 10:00-19:30", "phone": "+33147708369", "shop": "confectionery", "source": "www.lameredefamille.com", "website": "https://www.lameredefamille.com/", "wikidata": "Q22924739"}}, {"type": "node", "id": 1789405054, "lat": 48.8773306, "lon": 2.3392579, "tags": {"brand": "Carrefour City", "brand:wikidata": "Q2940187", "brand:wikipedia": "fr:Carrefour City", "check_date": "2025-04-16", "level": "0", "name": "Carrefour City", "opening_hours": "Mo-Fr 07:00-23:00; Su 09:00-20:00", "operator": "Groupe Carrefour", "operator:wikidata": "Q3117359", "operator:wikipedia": "fr:Groupe Carrefour", "organic": "yes", "phone": "+33 1 48 78 97 11", "shop": "convenience", "source": "survey", "toilets": "no", "wheelchair": "yes"}}, {"type": "node", "id": 1799393550, "lat": 48.8721227, "lon": 2.3420762, "tags": {"check_date": "2024-02-16", "name": "La Cure Gourmande", "opening_hours": "Mo-Su 10:00-20:00", "shop": "confectionery", "wheelchair": "yes"}}, {"type": "node", "id": 1805513394, "lat": 48.87323, "lon": 2.3400464, "tags": {"addr:city": "Paris", "addr:housenumber": "9", "addr:street": "Rue Drouot", "check_date": "2025-03-25", "check_date:opening_hours": "2025-03-25", "name": "H\u00f4tel des ventes Richelieu Drouot", "opening_hours": "Mo-We,Fr,Sa 11:00-18:00; Th 11:00-20:00", "shop": "antiques", "source": "http://www.drouot.com/"}}, {"type": "node", "id": 1821967149, "lat": 48.8717348, "lon": 2.3426744, "tags": {"brand": "Brioche Dor\u00e9e", "brand:website": "https://www.briochedoree.fr", "brand:wikidata": "Q2925606", "brand:wikipedia": "fr:Brioche Dor\u00e9e", "check_date": "2025-12-05", "contact:phone": "+33 1 53 24 63 21", "name": "Brioche Dor\u00e9e", "opening_hours": "Mo-Sa 07:30-20:00", "operator": "Groupe Le Duff", "ref:FR:SIRET": "31890659102609", "shop": "bakery", "source": "survey", "website": "https://www.briochedoree.fr/restaurants/1215-paris-montmartre"}}, {"type": "node", "id": 1821967204, "lat": 48.871223, "lon": 2.3436182, "tags": {"brand": "La Grande R\u00e9cr\u00e9", "brand:wikidata": "Q3209556", "brand:wikipedia": "fr:La Grande R\u00e9cr\u00e9 (magasin)", "check_date": "2024-01-26", "name": "La Grande R\u00e9cr\u00e9", "opening_hours": "Mo-Sa 10:00-20:00; Su 11:00-18:00", "phone": "+33140261220", "shop": "toys", "source": "survey", "website": "https://www.lagranderecre.fr/magasin-jouets-la-grande-recre/paris/paris%20-%20poissonniere/75002.html"}}, {"type": "node", "id": 1823559633, "lat": 48.8771597, "lon": 2.3399018, "tags": {"name": "quelques p\u00e9tales de plus", "shop": "florist", "source": "survey"}}, {"type": "node", "id": 1827138885, "lat": 48.8765696, "lon": 2.3394387, "tags": {"check_date": "2025-04-16", "name": "Cours des Halles", "shop": "convenience"}}, {"type": "node", "id": 1827138889, "lat": 48.8766251, "lon": 2.3411682, "tags": {"name": "Laverie \u00c9clat", "opening_hours": "Mo-Su 07:30-22:00", "self_service": "yes", "shop": "laundry", "source": "survey"}}, {"type": "node", "id": 1827138890, "lat": 48.8764424, "lon": 2.3396153, "tags": {"check_date": "2025-04-16", "laundry_service": "no", "name": "Laverie", "opening_hours": "Mo-Su,PH 07:30-22:00", "self_service": "yes", "shop": "laundry", "wheelchair": "no"}}, {"type": "node", "id": 1827138895, "lat": 48.8766973, "lon": 2.3399021, "tags": {"name": "Mademoiselle Bio", "opening_hours": "Mo-Sa 10:00-19:30", "shop": "beauty"}}, {"type": "node", "id": 1827138896, "lat": 48.8762091, "lon": 2.339799, "tags": {"check_date": "2025-04-16", "name": "Majuscule", "shop": "stationery"}}, {"type": "node", "id": 1827138897, "lat": 48.8764901, "lon": 2.3408775, "tags": {"brand": "Monceau Fleurs", "brand:wikidata": "Q17629431", "brand:wikipedia": "fr:Emova Group", "check_date": "2024-09-23", "name": "Monceau Fleurs", "ref:FR:SIRET": "78886991500025", "shop": "florist", "source": "survey"}}, {"type": "node", "id": 1827138898, "lat": 48.8763363, "lon": 2.3396808, "tags": {"check_date": "2025-04-16", "name": "Na Na", "shop": "clothes"}}, {"type": "node", "id": 1827138901, "lat": 48.8760498, "lon": 2.3397063, "tags": {"name": "Optical Service", "shop": "optician"}}, {"type": "node", "id": 1827138902, "lat": 48.8764871, "lon": 2.3397982, "tags": {"check_date": "2025-04-16", "name": "Pampilles", "shop": "jewelry"}}, {"type": "node", "id": 1827138909, "lat": 48.876676, "lon": 2.3403158, "tags": {"old_name": "Slim Price", "shop": "vacant"}}, {"type": "node", "id": 1827138916, "lat": 48.8764393, "lon": 2.3398662, "tags": {"check_date": "2024-01-26", "name": "Point Soleil", "opening_hours": "Mo-Sa 08:30-21:00; Su 09:00-20:30", "shop": "beauty"}}, {"type": "node", "id": 1827138921, "lat": 48.8762916, "lon": 2.3397239, "tags": {"check_date": "2025-04-16", "cuisine": "italian", "name": "RAP", "phone": "+33 1 42 80 09 91", "shop": "alcohol"}}, {"type": "node", "id": 1827138922, "lat": 48.8761628, "lon": 2.3398342, "tags": {"brand": "5\u00e0sec", "brand:wikidata": "Q2817899", "brand:wikipedia": "fr:5\u00e0sec", "name": "5\u00e0sec", "opening_hours": "Mo-Fr 08:30-20:00; Sa 09:00-19:00", "shop": "dry_cleaning"}}, {"type": "node", "id": 1827699345, "lat": 48.875823, "lon": 2.3427579, "tags": {"brand": "Franprix", "brand:wikidata": "Q2420096", "brand:wikipedia": "fr:Franprix", "name": "Franprix", "opening_hours": "Mo-Sa 08:00-22:00; Su 09:00-12:00+", "operator": "Groupe Casino", "shop": "convenience", "website": "https://www.franprix.fr/magasins/6214", "wheelchair": "yes"}}, {"type": "node", "id": 1979474797, "lat": 48.8760274, "lon": 2.3439678}, {"type": "node", "id": 2000262281, "lat": 48.8768292, "lon": 2.3480366, "tags": {"addr:housenumber": "88", "addr:street": "Rue La Fayette", "atm": "no", "brand": "U Express", "brand:wikidata": "Q2529029", "internet_access": "no", "name": "U Express", "opening_hours": "Mo-Sa 07:30-22:30; Su 09:00-22:30", "shop": "convenience", "website": "https://www.coursesu.com/", "wheelchair": "yes"}}, {"type": "node", "id": 2103216536, "lat": 48.8731717, "lon": 2.3441122, "tags": {"brand": "Mr.Bricolage", "brand:wikidata": "Q3141657", "name": "Mr.Bricolage", "opening_hours": "Mo-Sa 09:30-19:30; PH closed", "shop": "doityourself"}}, {"type": "node", "id": 2125571197, "lat": 48.8720384, "lon": 2.3430498, "tags": {"brand": "Carrefour City", "brand:wikidata": "Q2940187", "brand:wikipedia": "fr:Carrefour City", "level": "0", "name": "Carrefour City", "opening_hours": "Mo-Sa 07:00-23:00; Su 09:00-23:00", "operator": "Groupe Carrefour", "operator:wikidata": "Q3117359", "operator:wikipedia": "fr:Groupe Carrefour", "organic": "yes", "phone": "+33 1 47 70 08 02", "shop": "convenience", "source": "survey", "toilets": "no", "website": "https://www.carrefour.fr/magasin/city-paris-faubourg-montmartre-9"}}, {"type": "node", "id": 2125571214, "lat": 48.8716938, "lon": 2.3429662, "tags": {"diet:vegan": "only", "name": "Land&Monkeys", "opening_hours": "Mo-Su 07:30-20:00", "shop": "bakery", "source": "survey", "website": "https://www.land-and-monkeys.com"}}, {"type": "node", "id": 2126361725, "lat": 48.8722919, "lon": 2.3433234, "tags": {"name": "L'Or\u00e9e de Montmartre", "shop": "convenience", "source": "survey"}}, {"type": "node", "id": 2126361727, "lat": 48.8718705, "lon": 2.343317, "tags": {"addr:city": "Paris", "addr:housenumber": "6", "addr:postcode": "75009", "addr:street": "Rue du Faubourg Montmartre", "brand": "Naturalia", "brand:wikidata": "Q3337081", "brand:wikipedia": "fr:Naturalia", "name": "Naturalia", "opening_hours": "Su-Fr 09:00-20:45; Sa 09:00-12:45", "phone": "+33 1 48 78 50 16", "shop": "supermarket", "source": "survey", "website": "https://magasins.naturalia.fr/naturalia/fr/store/france/ile-de-france/paris/paris/grands-boulevards/4002"}}, {"type": "node", "id": 2160594534, "lat": 48.8763592, "lon": 2.3483732, "tags": {"brand": "Franprix", "brand:wikidata": "Q2420096", "brand:wikipedia": "fr:Franprix", "name": "Franprix", "opening_hours": "Mo-Sa 08:30-22:00; Su 09:00-13:00", "operator": "Groupe Casino", "shop": "convenience", "source": "survey:2016-06-03", "website": "https://www.franprix.fr/", "wheelchair": "yes"}}, {"type": "node", "id": 2162859970, "lat": 48.8765499, "lon": 2.3393389}, {"type": "node", "id": 2162859971, "lat": 48.8765943, "lon": 2.3394273}, {"type": "node", "id": 2164023038, "lat": 48.8706548, "lon": 2.3429479, "tags": {"addr:housenumber": "168", "addr:street": "Rue Montmartre", "brand:wikipedia": "en:Paul (bakery)", "check_date": "2025-03-02", "indoor_seating": "no", "name": "Urban Bakery", "opening_hours": "Mo-Sa 07:00-19:30; Su 08:00-18:00", "outdoor_seating": "no", "shop": "bakery", "source": "survey", "takeaway": "only", "wheelchair": "limited"}}, {"type": "node", "id": 2409683713, "lat": 48.8764887, "lon": 2.3444554, "tags": {"check_date": "2024-09-23", "name": "Miche de Pain", "opening_hours": "Mo-Sa 07:00-20:00", "shop": "bakery", "source": "survey"}}, {"type": "node", "id": 2482279106, "lat": 48.8709083, "lon": 2.3455292, "tags": {"brand": "Vapostore", "brand:wikidata": "Q91257968", "contact:city": "Paris", "contact:facebook": "https://www.facebook.com/vapostoreofficiel", "contact:housenumber": "15", "contact:phone": "+33 9 80 76 86 60", "contact:postcode": "75002", "contact:street": "Boulevard Poissonni\u00e8re", "contact:website": "https://www.vapostore.com", "name": "Vapostore", "opening_hours": "Mo-Sa 09:30-19:30", "shop": "e-cigarette"}}, {"type": "node", "id": 2482357787, "lat": 48.8750936, "lon": 2.3402805, "tags": {"brand": "Vapostore", "brand:wikidata": "Q91257968", "contact:facebook": "https://www.facebook.com/vapostoreofficiel", "contact:housenumber": "8", "contact:phone": "+33983273521", "contact:street": "Rue de la Victoire", "contact:website": "https://www.vapostore.com", "name": "Vapostore", "opening_hours": "Mo-Fr 10:00-20:00; Sa 10:00-19:00", "shop": "e-cigarette"}}, {"type": "node", "id": 2500810551, "lat": 48.8759587, "lon": 2.3460623, "tags": {"name": "Josy Coiffure", "shop": "hairdresser"}}, {"type": "node", "id": 2514493575, "lat": 48.8760579, "lon": 2.3437445, "tags": {"beauty": "hair;nails;skin_care;massage", "brand": "Carlance", "brand:wikidata": "Q91601625", "name": "Carlance", "opening_hours": "Mo-Fr 09:00-20:00; Sa 10:00-19:00; PH closed", "shop": "beauty", "source": "survey"}}, {"type": "node", "id": 2514493579, "lat": 48.8764597, "lon": 2.3444659}, {"type": "node", "id": 2514493580, "lat": 48.8764785, "lon": 2.3444089}, {"type": "node", "id": 2514493581, "lat": 48.8767036, "lon": 2.3445489, "tags": {"check_date": "2024-09-23", "diet:halal": "only", "name": "Halal Baraka", "shop": "butcher", "source": "survey"}}, {"type": "node", "id": 2608252634, "lat": 48.8734347, "lon": 2.342338, "tags": {"name": "Librairie J.N. Santon", "phone": "+33142464109", "shop": "books"}}, {"type": "node", "id": 2608252648, "lat": 48.8724555, "lon": 2.3422148, "tags": {"fax": "+33148000824", "name": "M&G Segas", "opening_hours": "Mo-Sa 10:30-19:00", "phone": "+33147708965", "shop": "canes"}}, {"type": "node", "id": 2692650181, "lat": 48.8729482, "lon": 2.3451927, "tags": {"contact:city": "Paris", "contact:housenumber": "6", "contact:postcode": "75009", "contact:street": "Rue de Tr\u00e9vise", "name": "Hubert", "note": "Boulangerie-P\u00e2tisserie- Restauration", "opening_hours": "Mo-Fr 07:00-20:00", "operator": "Hubert", "pastry": "yes", "shop": "bakery"}}, {"type": "node", "id": 2692650182, "lat": 48.8737124, "lon": 2.3451304, "tags": {"name": "Tr\u00e9vise", "shop": "convenience"}}, {"type": "node", "id": 2799009805, "lat": 48.8767236, "lon": 2.3413508, "tags": {"brand": "Biguine", "name": "Biguine", "opening_hours": "Tu,We,Fr 10:00-19:00, Th 10:00-20:30, Sa 09:30-19:00", "phone": "+33 1 42 80 10 77", "shop": "hairdresser", "source": "survey"}}, {"type": "node", "id": 2799009819, "lat": 48.8749061, "lon": 2.3413483, "tags": {"name": "Quelque Part... La Mati\u00e8re", "opening_hours": "We-Su 10:00-20:00", "shop": "pastry", "source": "survey 2013", "website": "https://lamatiere.quelquepart.net"}}, {"type": "node", "id": 2799009825, "lat": 48.8769659, "lon": 2.341877, "tags": {"brand": "Amplifon", "brand:wikidata": "Q477222", "name": "Amplifon", "opening_hours": "Mo-Fr 10:00-12:30,14:00-18:30", "ref:FR:SIRET": "31808311009145", "shop": "hearing_aids", "source": "survey"}}, {"type": "node", "id": 2799009885, "lat": 48.8764669, "lon": 2.3413894, "tags": {"addr:housenumber": "10", "addr:postcode": "75009", "addr:street": "Rue de Maubeuge", "bar": "yes", "description": "Vins/Disques/Magazines", "name": "Fro Paris Est", "opening_hours": "Tu-Sa 17:00-23:00", "operator": "FRO. PARIS EST", "ref:FR:SIRET": "89174262900027", "restaurant": "yes", "shop": "wine", "source": "survey", "website": "https://froparis.fr/"}}, {"type": "node", "id": 2799010408, "lat": 48.8713316, "lon": 2.3433988}, {"type": "node", "id": 2799010409, "lat": 48.8713358, "lon": 2.3434107}, {"type": "node", "id": 2799010410, "lat": 48.8713387, "lon": 2.3433545}, {"type": "node", "id": 2799010411, "lat": 48.8713456, "lon": 2.3434133}, {"type": "node", "id": 2799010412, "lat": 48.8713534, "lon": 2.343402}, {"type": "node", "id": 2799010413, "lat": 48.8713605, "lon": 2.3433633}, {"type": "node", "id": 2799010427, "lat": 48.8768139, "lon": 2.3415521, "tags": {"cannabis:cbd": "only", "name": "GreenClub CBD", "shop": "cannabis"}}, {"type": "node", "id": 3240753451, "lat": 48.8758793, "lon": 2.347715, "tags": {"addr:city": "Paris", "addr:housenumber": "2", "addr:postcode": "75009", "addr:street": "Rue Bleue", "contact:instagram": "https://www.instagram.com/union_boulangerie/?hl=fr", "name": "Union", "opening_hours": "Mo-Sa 12:00-15:30, 18:30-22:30", "operator": "Ma\u00ebva Manchon et Charles Ye", "shop": "bakery"}}, {"type": "node", "id": 3319162402, "lat": 48.8706132, "lon": 2.3372378, "tags": {"addr:housenumber": "3", "addr:street": "Rue de Marivaux", "check_date": "2025-08-26", "name": "Librairie Th\u00e9\u00e2trale", "opening_hours": "Mo-Sa 12:00-20:00", "shop": "books", "source": "survey", "website": "http://librairie-theatrale.com/"}}, {"type": "node", "id": 3401578255, "lat": 48.8767506, "lon": 2.3486006, "tags": {"check_date:opening_hours": "2024-02-21", "contact:city": "Paris", "contact:housenumber": "89", "contact:phone": "+33 1 40 22 06 94", "contact:postcode": "75009", "contact:street": "Rue du Faubourg Poissonni\u00e8re", "contact:website": "http://www.libreria.fr/store/", "name": "La Libreria", "opening_hours": "Mo 14:00-19:00; Tu-Sa 10:00-19:00", "shop": "books"}}, {"type": "node", "id": 3415271564, "lat": 48.8766024, "lon": 2.3419539, "tags": {"check_date:opening_hours": "2024-10-24", "female": "yes", "male": "yes", "name": "La maison du v\u00e9g\u00e9tal", "opening_hours:signed": "no", "shop": "hairdresser"}}, {"type": "node", "id": 3415273692, "lat": 48.8773162, "lon": 2.3407784, "tags": {"name": "L'\u0152il du Huit", "phone": "+33 1 40 23 02 92", "shop": "art", "website": "https://oeilduhuit.com/"}}, {"type": "node", "id": 3420658856, "lat": 48.873028, "lon": 2.3432347, "tags": {"brand": "Optic 2000", "brand:wikidata": "Q3354445", "brand:wikipedia": "fr:Optic 2000", "name": "Optic 2000", "shop": "optician", "source": "survey"}}, {"type": "node", "id": 3420658857, "lat": 48.8756291, "lon": 2.3434401, "tags": {"addr:city": "Paris", "brand": "Optic 2000", "brand:wikidata": "Q3354445", "brand:wikipedia": "fr:Optic 2000", "check_date": "2025-03-25", "check_date:opening_hours": "2025-03-25", "name": "Optic 2000", "opening_hours": "Mo-Fr 09:30-19:30; Sa 10:00-19:00", "shop": "optician", "source": "survey"}}, {"type": "node", "id": 3438037622, "lat": 48.8762334, "lon": 2.344818, "tags": {"name": "Direct + optique et audition", "shop": "optician", "source": "survey:15-03-28"}}, {"type": "node", "id": 3438053657, "lat": 48.8759264, "lon": 2.3448956, "tags": {"addr:housenumber": "27", "addr:street": "Rue Bleue", "check_date:opening_hours": "2024-10-15", "name": "Xavier alcool sans alcool", "opening_hours:signed": "no", "operator": "Belhadev David", "shop": "alcohol", "source": "survey:2015-03-28", "website": "https://xavieralcoolsansalcool.com/"}}, {"type": "node", "id": 3438053659, "lat": 48.8759009, "lon": 2.3451202, "tags": {"brand": "Intermarch\u00e9 Express", "brand:wikidata": "Q98278043", "diet:halal": "yes", "name": "Intermarch\u00e9 Express", "opening_hours": "Mo-Sa 08:30-21:30; Su 09:00-21:30", "operator": "Groupement des Mousquetaires", "phone": "+33 1 48 24 93 86", "shop": "convenience", "source": "survey:2015-03-28", "website": "https://www.supermarchesg20.com/nos-magasins/baltaian-cie"}}, {"type": "node", "id": 3438053660, "lat": 48.8760973, "lon": 2.3452316, "tags": {"name": "Optical Discount", "opening_hours": "Mo 11:00-19:30; Tu-Fr 09:30-19:15; We 09:30-19:30; Sa 10:00-19:00", "phone": "+33 1 76 40 03 59", "shop": "optician", "source": "survey:2015-03-28", "website": "https://opticien.opticaldiscount.com/93100-optical-discount-la-fayette"}}, {"type": "node", "id": 3438053664, "lat": 48.8759474, "lon": 2.3446912, "tags": {"addr:housenumber": "29", "addr:street": "Rue bleue", "name": "Bar a brioches", "name:fr": "Bar \u00e0 brioches", "opening_hours": "Mo-Fr 08:30-18:30; Sa 11:00-18:30", "phone": "+33 1 42 66 41 86", "shop": "pastry", "smoking": "outside", "takeaway": "yes", "website": "https://www.le-bab.fr"}}, {"type": "node", "id": 3438053665, "lat": 48.8759405, "lon": 2.3447984, "tags": {"female": "yes", "male": "yes", "name": "NM Coiffure Modish", "opening_hours": "Mo-Sa 09:30-19:30", "shop": "hairdresser", "source": "survey:2015-03-28"}}, {"type": "node", "id": 3519106082, "lat": 48.875183, "lon": 2.3433221, "tags": {"name": "Thomas Artisan Fromager", "shop": "cheese"}}, {"type": "node", "id": 3562130098, "lat": 48.8765775, "lon": 2.3483671, "tags": {"name": "Librairie Flamberge", "note": "Old books store", "phone": "+33 1 42 46 05 65", "shop": "books"}}, {"type": "node", "id": 3564245495, "lat": 48.873393, "lon": 2.343509, "tags": {"addr:city": "Paris", "addr:housenumber": "5", "addr:postcode": "75009", "addr:street": "Rue Geoffroy Marie", "brand": "Franprix", "brand:wikidata": "Q2420096", "brand:wikipedia": "fr:Franprix", "name": "Franprix", "opening_hours": "Mo-Sa 07:30-22:00", "shop": "convenience", "source": "survey", "website": "https://www.franprix.fr/magasins/6323", "wheelchair": "no"}}, {"type": "node", "id": 3564245496, "lat": 48.8735908, "lon": 2.343913, "tags": {"addr:city": "Paris", "addr:housenumber": "9", "addr:postcode": "75009", "addr:street": "Rue Geoffroy Marie", "laundry_service": "no", "name": "my Laundry", "opening_hours": "PH,Mo-Su 07:00-22:00", "self_service": "yes", "shop": "laundry", "source": "survey"}}, {"type": "node", "id": 3564245505, "lat": 48.873479, "lon": 2.3436947, "tags": {"name": "Sauveur Man", "shop": "tailor", "source": "survey"}}, {"type": "node", "id": 3588432322, "lat": 48.8750842, "lon": 2.344465, "tags": {"name": "Point Service Mobiles", "shop": "mobile_phone", "source": "survey 2023"}}, {"type": "node", "id": 3588432324, "lat": 48.8750475, "lon": 2.3443252, "tags": {"name": "Le Bonheur", "shop": "massage", "source": "survey 2015"}}, {"type": "node", "id": 3668183473, "lat": 48.8752683, "lon": 2.3407374, "tags": {"addr:city": "Paris", "addr:housenumber": "53", "addr:postcode": "75009", "addr:street": "Rue du Faubourg Montmartre", "amenity": "bar", "check_date:opening_hours": "2024-10-17", "contact:phone": "+33 9 74 64 18 59", "indoor_seating": "yes", "name": "La Chope", "opening_hours:signed": "no", "outdoor_seating": "no", "shop": "tobacco"}}, {"type": "node", "id": 3668183475, "lat": 48.8748272, "lon": 2.34036, "tags": {"name": "Initial", "shop": "hairdresser"}}, {"type": "node", "id": 3668191925, "lat": 48.8750008, "lon": 2.3396317, "tags": {"name": "Color Forever", "opening_hours": "Mo-Sa 10:00-20:00", "phone": "+33 1 44 63 93 61", "shop": "beauty", "website": "https://www.colorforever.com/"}}, {"type": "node", "id": 3701328326, "lat": 48.8740833, "lon": 2.3480437, "tags": {"addr:city": "Paris", "addr:housenumber": "44", "addr:postcode": "75010", "addr:street": "Rue du Faubourg Poissonni\u00e8re", "atm": "yes", "brand": "NOUS anti-gaspi", "brand:wikidata": "Q130144283", "contact:city": "Paris", "contact:housenumber": "44", "contact:postcode": "75010", "contact:street": "Rue du Faubourg Poissonni\u00e8re", "description": "Anciennement :  LCL", "email": "direction-parispoissonniere@nousantigaspi.com", "name": "NOUS anti-gaspi", "opening_hours": "Su-Fr 10:00-20:00; Sa 10:00-13:00", "phone": "+33 1 47 70 11 17", "shop": "convenience", "website": "https://www.nousantigaspi.com/magasin-paris-poissonniere"}}, {"type": "node", "id": 3702598115, "lat": 48.8755937, "lon": 2.3398746, "tags": {"brand": "Copy-Top", "brand:wikidata": "Q101281603", "check_date": "2025-09-05", "name": "Copy-Top", "note": "Imprimeur", "official_name": "COPY-TOP Le Peletier - Ch\u00e2teaudun", "opening_hours": "Mo-Fr 09:00-19:00", "operator": "COPY-TOP", "phone": "+33 1 55 07 80 70", "shop": "copyshop", "source": "http://www.copytop.com/", "website": "https://www.copytop.com/agence-le-pelletier-chateaudun"}}, {"type": "node", "id": 3702668021, "lat": 48.8718843, "lon": 2.3480515, "tags": {"brand": "Copy-Top", "brand:wikidata": "Q101281603", "check_date": "2025-08-01", "check_date:opening_hours": "2024-07-18", "contact:city": "Paris", "contact:housenumber": "16", "contact:phone": "+33 1 55 33 14 50", "contact:postcode": "75010", "contact:street": "Rue du Faubourg Poissonni\u00e8re", "contact:website": "https://www.copytop.com/agence-bonne-nouvelle", "name": "Copy-Top", "official_name": "COPY-TOP Bonne Nouvelle", "opening_hours": "Mo-Fr 09:00-19:00", "operator": "COPY-TOP", "ref:FR:SIRET": "30486281600036", "shop": "copyshop", "source": "http://www.copytop.com/"}}, {"type": "node", "id": 3714160888, "lat": 48.8725858, "lon": 2.3422538, "tags": {"addr:city": "Paris", "addr:postcode": "75009", "addr:street": "Passage Jouffroy", "name": "Passage Jouffroy", "opening_hours": "Mo-Su 07:00-21:00", "shop": "mall", "wheelchair": "yes", "wikidata": "Q2055773"}}, {"type": "node", "id": 3746141664, "lat": 48.8733638, "lon": 2.3430392, "tags": {"addr:housenumber": "22 bis", "addr:street": "Rue du Faubourg Montmartre", "check_date": "2024-09-06", "name": "Au Fou Rire", "shop": "sewing"}}, {"type": "node", "id": 4034254546, "lat": 48.8757004, "lon": 2.344551, "tags": {"name": "Victor Coiffure", "shop": "hairdresser"}}, {"type": "node", "id": 4034254548, "lat": 48.8762721, "lon": 2.3442309, "tags": {"check_date": "2025-10-01", "name": "Cadet Bazar", "shop": "variety_store"}}, {"type": "node", "id": 4045852663, "lat": 48.8747439, "lon": 2.3412163, "tags": {"contact:phone": "+33 1 42 46 86 86", "name": "Comptoir d'Achats", "opening_hours": "Mo-Th 10:30-19:30; Fr 10:30-16:00; Apr-Sep Fr 10:30-19:00", "shop": "pawnbroker"}}, {"type": "node", "id": 4125470313, "lat": 48.8769416, "lon": 2.344622, "tags": {"name": "Robert", "opening_hours": "Mo-Fr 10:00-13:00,14:30-19:00", "shop": "jewelry"}}, {"type": "node", "id": 4125480964, "lat": 48.8773403, "lon": 2.3445278, "tags": {"name": "Chez Cali", "opening_hours": "Mo 18:00-24:00, Tu-Su 16:00-01:30", "shop": "convenience", "start_date": "1986"}}, {"type": "node", "id": 4207600000, "lat": 48.8731715, "lon": 2.343934, "tags": {"name": "Au Petit Lavoir", "opening_hours": "Mo-Fr 08:00-19:30, Sa 09:30-19:30", "shop": "dry_cleaning"}}, {"type": "node", "id": 4210615398, "lat": 48.8717953, "lon": 2.3480475, "tags": {"name": "Tuti Pasta", "shop": "pasta", "source": "survey:2016-05-27;local knowledge"}}, {"type": "node", "id": 4224614794, "lat": 48.8760786, "lon": 2.3482332, "tags": {"brand": "La Vie Claire", "brand:wikidata": "Q3213589", "brand:wikipedia": "fr:La Vie claire", "bulk_purchase": "yes", "email": "poissonniere@lavieclaire.com", "name": "La Vie Claire", "opening_hours": "Mo-Sa 09:30-20:00; Su 10:00-12:30", "organic": "only", "phone": "+33 1 42 46 10 40", "shop": "supermarket", "source": "survey:2016-06-03", "website": "https://www.lavieclaire.com/magasin-bio/paris-poissonniere.html"}}, {"type": "node", "id": 4224614796, "lat": 48.8761208, "lon": 2.3485006, "tags": {"contact:city": "Paris", "contact:housenumber": "70", "contact:postcode": "75009", "contact:street": "Rue du Faubourg Poissonni\u00e8re", "contact:website": "https://www.queennailsparis.fr/", "name": "Queen Nails", "ref:FR:SIRET": "94183307100017", "shop": "beauty"}}, {"type": "node", "id": 4224614798, "lat": 48.8759703, "lon": 2.3484111, "tags": {"check_date:opening_hours": "2024-10-15", "contact:city": "Paris", "contact:housenumber": "68", "contact:phone": "+33 1 47 70 28 71", "contact:postcode": "75010", "contact:street": "Rue du Faubourg Poissonni\u00e8re", "contact:website": "https://papeterie-perjac.com/", "name": "Papeterie Perjac", "opening_hours": "Mo-Fr 09:00-19:30", "opening_hours:signed": "no", "ref:FR:SIRET": "31240899000017", "shop": "stationery", "source": "survey:2016-06-03"}}, {"type": "node", "id": 4349858405, "lat": 48.8745595, "lon": 2.3394667, "tags": {"check_date": "2025-09-05", "name": "Atelier NA", "opening_hours": "Mo-Sa 11:00-20:00", "shop": "tailor"}}, {"type": "node", "id": 4418734889, "lat": 48.8714298, "lon": 2.3423492, "tags": {"brand": "Maisons du Monde", "brand:wikidata": "Q3280364", "brand:wikipedia": "fr:Maisons du Monde", "check_date": "2024-09-06", "check_date:opening_hours": "2021-06-04", "name": "Maisons du Monde", "opening_hours": "Mo-Sa 10:00-20:00; Su 11:00-19:00", "shop": "furniture"}}, {"type": "node", "id": 4439381192, "lat": 48.8770679, "lon": 2.3390128, "tags": {"addr:street": "Rue Notre-Dame-de-Lorette", "name": "Les Fleurs d'Aline", "opening_hours": "Mo 09:30-20:30; Tu-Sa 09:00-20:30; Su 09:30-19:00", "shop": "florist"}}, {"type": "node", "id": 4448519359, "lat": 48.8738936, "lon": 2.3480813, "tags": {"brand": "Franprix", "brand:wikidata": "Q2420096", "brand:wikipedia": "fr:Franprix", "contact:city": "Paris", "contact:housenumber": "42", "contact:phone": "+33 1 42 47 20 35", "contact:postcode": "75010", "contact:street": "Rue du Faubourg Poissonni\u00e8re", "contact:website": "https://www.franprix.fr/magasins/5739", "name": "Franprix", "opening_hours": "Mo-Sa 07:30-22:00; Su 08:30-20:00", "operator": "Groupe Casino", "ref:FR:SIRET": "53153861900028", "shop": "convenience"}}, {"type": "node", "id": 4508911816, "lat": 48.874191, "lon": 2.3481612, "tags": {"check_date": "2023-11-21", "name": "Coop\u00e9rative Latte Cisternino", "opening_hours": "Mo-Sa 10:00-13:30,16:30-20:00", "owner": "Barbierato Alessandro", "phone": "+33 1 47 70 30 36", "shop": "convenience"}}, {"type": "node", "id": 4511105747, "lat": 48.8756513, "lon": 2.3399194, "tags": {"books": "comic", "check_date:opening_hours": "2022-09-18", "contact:city": "Paris 9eme Arrondissement", "contact:housenumber": "42", "contact:phone": "+33 1 42 00 22 31", "contact:postcode": "75009", "contact:street": "Rue le Peletier", "name": "Bulles en t\u00eate Le Peletier", "opening_hours": "Mo-Sa 10:00-20:00", "ref:FR:SIRET": "82104110000024", "shop": "books", "source": "survey", "wheelchair": "limited"}}, {"type": "node", "id": 4628572591, "lat": 48.8770464, "lon": 2.3490511, "tags": {"name": "D&M Outlet", "shop": "clothes"}}, {"type": "node", "id": 4642561381, "lat": 48.8764216, "lon": 2.3466605, "tags": {"brand": "Yuba;Urban arrow;Tern;Moustache;Cannondale;Peugeot;Gitane;Giant;Winora;Haibike", "name": "Ecox", "opening_hours": "Tu-Sa 09:30-14:00,15:00-19:00", "service:bicycle:ebike": "yes", "service:bicycle:pump": "yes", "service:bicycle:rental": "yes", "service:bicycle:repair": "yes", "service:bicycle:retail": "yes", "shop": "bicycle", "website": "https://www.ecox.fr/nos-magasins/lafayette"}}, {"type": "node", "id": 4672176218, "lat": 48.8740928, "lon": 2.3474015, "tags": {"addr:city": "Paris", "addr:housenumber": "4", "addr:postcode": "75009", "addr:street": "Rue Richer", "name": "Pastel", "opening_hours": "Tu 11:00-14:00, 15:00-19:00; We-Fr 10:00-14:00, 15:00-19:00; Sa 10:30-19:00", "phone": "+33183960650", "shop": "bicycle", "website": "https://www.pastel-cycles.com/"}}, {"type": "node", "id": 4769768774, "lat": 48.8706345, "lon": 2.3470576, "tags": {"brand": "Carrefour City", "brand:wikidata": "Q2940187", "check_date": "2025-08-09", "check_date:opening_hours": "2025-08-09", "name": "Carrefour City", "not:brand:wikidata": "Q89029601", "opening_hours": "Mo-Sa 07:00-22:00", "operator": "Casino", "shop": "convenience", "source": "survey", "start_date": "27/07/2017", "website": "http://magasins.lepetitcasino.com/fr/s/casino-toutpres-paris-poissonniere"}}, {"type": "node", "id": 4818267824, "lat": 48.8749672, "lon": 2.3479488, "tags": {"name": "DocSide", "name:fr": "DocSide", "shop": "copyshop"}}, {"type": "node", "id": 4818267924, "lat": 48.8735163, "lon": 2.3477635, "tags": {"name": "Courbettes et Galipettes", "opening_hours": "Mo-Fr 10:00-18:00", "shop": "clothes"}}, {"type": "node", "id": 4818267925, "lat": 48.8743683, "lon": 2.3481046, "tags": {"contact:city": "Paris", "contact:housenumber": "48", "contact:postcode": "75010", "contact:street": "Rue du Faubourg Poissonni\u00e8re", "name": "R\u00eave Bleu", "opening_hours": "Mo 12:00-19:00; Tu-Fr 10:00-19:30; Sa 10:00-18:30", "ref:FR:SIRET": "52987365500011", "shop": "beauty"}}, {"type": "node", "id": 4858216122, "lat": 48.8725712, "lon": 2.3433228, "tags": {"addr:housenumber": "12", "addr:postcode": "75009", "addr:street": "Rue du Faubourg Montmartre", "brand": "Normal", "brand:wikidata": "Q19562429", "bulk_purchase": "yes", "level": "0", "name": "Normal", "organic": "only", "shop": "chemist", "toilets": "no", "wheelchair": "yes"}}, {"type": "node", "id": 4862202053, "lat": 48.8740126, "lon": 2.3372739, "tags": {"female": "yes", "male": "yes", "name": "Claude Pascal", "shop": "hairdresser"}}, {"type": "node", "id": 4862202055, "lat": 48.8740898, "lon": 2.3375621, "tags": {"name": "Voyages Op\u00e9ra Lafayette", "shop": "travel_agency"}}, {"type": "node", "id": 4868565518, "lat": 48.8739846, "lon": 2.342192, "tags": {"name": "Ceylon", "shop": "jewelry"}}, {"type": "node", "id": 4874187823, "lat": 48.8758055, "lon": 2.3392925, "tags": {"brand": "Camille Albane", "brand:wikidata": "Q62965183", "name": "Camille Albane", "name:fr": "Camille Albane", "shop": "hairdresser"}}, {"type": "node", "id": 4885486222, "lat": 48.8770309, "lon": 2.3478763, "tags": {"name": "Ping Beaut\u00e9", "shop": "beauty"}}, {"type": "node", "id": 4885486426, "lat": 48.8771429, "lon": 2.3427833, "tags": {"name": "La Petite D\u00e9couverte", "name:fr": "La petite d\u00e9couverte", "ref:FR:SIRET": "49413647600020", "shop": "books"}}, {"type": "node", "id": 4885486428, "lat": 48.8772711, "lon": 2.3419938, "tags": {"name": "Les Experts du Mac", "shop": "computer"}}, {"type": "node", "id": 4885496522, "lat": 48.8772189, "lon": 2.3447092, "tags": {"contact:mobile": "+33 6 88 54 03 73", "name": "Akuavi", "shop": "clothes"}}, {"type": "node", "id": 4885511822, "lat": 48.877449, "lon": 2.3410189, "tags": {"name": "Les Arpenteurs", "shop": "books"}}, {"type": "node", "id": 4903781670, "lat": 48.8698973, "lon": 2.3479451, "tags": {"check_date": "2025-08-06", "name": "Supermarket", "phone": "+33 9 83 40 18 67", "shop": "convenience"}}, {"type": "node", "id": 4903781671, "lat": 48.8700159, "lon": 2.3477442, "tags": {"addr:housenumber": "33", "addr:street": "Rue Poissonni\u00e8re", "check_date": "2025-08-06", "female": "yes", "male": "yes", "name": "M\u00e9lissage", "opening_hours": "Mo-Fr 10:00-19:00; Sa 09:30-19:00", "shop": "hairdresser"}}, {"type": "node", "id": 4954891336, "lat": 48.872195, "lon": 2.3399317, "tags": {"addr:city": "Paris", "addr:housenumber": "2", "addr:postcode": "75009", "addr:street": "Boulevard Haussmann", "brand": "HEMA", "brand:website": "https://www.hema.fr/", "brand:wikidata": "Q903805", "brand:wikipedia": "fr:HEMA", "check_date": "2023-08-06", "name": "HEMA", "shop": "department_store"}}, {"type": "node", "id": 4954891339, "lat": 48.870916, "lon": 2.3454638, "tags": {"brand": "Nocib\u00e9", "brand:wikidata": "Q3342592", "brand:wikipedia": "fr:Nocib\u00e9", "check_date": "2024-05-18", "name": "Nocib\u00e9", "opening_hours": "Tu-Sa 11:00-19:00", "shop": "cosmetics"}}, {"type": "node", "id": 4954891722, "lat": 48.8714356, "lon": 2.3379199, "tags": {"addr:floor": "0", "branch": "Boulevard des Italiens", "brand": "Nicolas", "brand:website": "https://www.nicolas.com/", "brand:wikidata": "Q3340012", "brand:wikipedia": "fr:Nicolas (entreprise vinicole)", "check_date": "2025-10-17", "contact:city": "Paris", "contact:housenumber": "11", "contact:postcode": "75002", "contact:street": "Boulevard des Italiens", "level": "0", "name": "Nicolas", "operator": "\u00c9tablissements Nicolas", "operator:ref:FR:SIREN": "542066238", "payment:cash": "yes", "payment:credit_cards": "yes", "payment:debit_cards": "yes", "payment:visa": "yes", "ref:FR:NAF": "47.25Z", "ref:FR:SIRET": "54206623808068", "ref:vatin": "FR31542066238", "shop": "alcohol"}}, {"type": "node", "id": 4954891725, "lat": 48.8718479, "lon": 2.342035, "tags": {"addr:housenumber": "10", "addr:street": "Boulevard Montmartre", "check_date": "2024-02-16", "name": "Kilo Shop", "opening_hours": "Mo-Sa 11:00-19:30", "shop": "clothes"}}, {"type": "node", "id": 4966817510, "lat": 48.8755692, "lon": 2.3436272, "tags": {"name": "Light Optical", "opening_hours": "Mo-Sa 10:00-19:30", "shop": "optician", "website": "https://www.lightoptical.fr"}}, {"type": "node", "id": 5084704478, "lat": 48.8719926, "lon": 2.3436867, "tags": {"addr:city": "Paris", "addr:housenumber": "1ter", "addr:postcode": "75009", "addr:street": "Cit\u00e9 Berg\u00e8re", "female": "yes", "male": "yes", "name": "Galaxie Coiffeur", "operator": "Galaxie Coiffeur", "phone": "+33 1 48 24 99 16", "shop": "hairdresser"}}, {"type": "node", "id": 5130551426, "lat": 48.8756793, "lon": 2.339652, "tags": {"brand": "Krys", "brand:wikidata": "Q3119538", "brand:wikipedia": "fr:Krys Group", "check_date": "2025-09-05", "name": "Krys", "shop": "optician"}}, {"type": "node", "id": 5150224621, "lat": 48.8754667, "lon": 2.3433075, "tags": {"check_date": "2023-04-29", "indoor_seating": "no", "name": "Maison Dupuy", "opening_hours": "Mo,We-Sa 07:00-20:00; Su 07:00-13:30", "outdoor_seating": "no", "ref:FR:SIREN": "318918877", "ref:FR:SIRET": "31891887700024", "shop": "bakery", "takeaway": "only"}}, {"type": "node", "id": 5173516367, "lat": 48.877203, "lon": 2.3386112, "tags": {"shop": "vacant"}}, {"type": "node", "id": 5186169365, "lat": 48.8752747, "lon": 2.3433905, "tags": {"contact:phone": "+33 1 42 47 00 38", "drink:wine": "yes", "name": "\u00c2me & Esprit du Vin", "opening_hours": "Mo 16:00-22:00, Tu 15:00-24:00, We-Sa 10:30-24:00", "shop": "alcohol"}}, {"type": "node", "id": 5186169366, "lat": 48.8753823, "lon": 2.3432366, "tags": {"craft": "caterer", "cuisine": "italian", "name": "A Terra Nostra", "opening_hours": "Tu-Sa 10:00-20:00; Tu-Fr 13:00-16:00 closed", "shop": "deli"}}, {"type": "node", "id": 5186169367, "lat": 48.8751207, "lon": 2.3432714, "tags": {"check_date": "2025-05-13", "name": "Maison Baroche", "shop": "deli"}}, {"type": "node", "id": 5198940122, "lat": 48.8710696, "lon": 2.3445464, "tags": {"contact:city": "Paris", "contact:housenumber": "21", "contact:postcode": "75002", "contact:street": "Boulevard Poissonni\u00e8re", "name": "Jonfa", "shop": "leather"}}, {"type": "node", "id": 5542639040, "lat": 48.8769814, "lon": 2.3393819, "tags": {"addr:postcode": "75009", "name": "Boucherie", "phone": "+33 1 48 78 59 99", "shop": "butcher"}}, {"type": "node", "id": 5590892910, "lat": 48.8773243, "lon": 2.3388197, "tags": {"addr:city": "Paris", "addr:country": "FR", "addr:housenumber": "8", "addr:postcode": "75009", "addr:street": "Rue Notre-Dame-de-Lorette", "brand": "Carrefour City", "brand:wikidata": "Q2940187", "brand:wikipedia": "fr:Carrefour City", "name": "Carrefour City", "opening_hours": "Mo-Sa 07:00-23:00; Su 09:00-13:00", "operator": "Groupe Carrefour", "operator:wikidata": "Q3117359", "operator:wikipedia": "fr:Groupe Carrefour", "phone": "+33 1 48 78 97 11", "shop": "convenience", "website": "https://www.carrefour.fr/magasin/city-paris-notre-dame-de-lorette", "wheelchair": "yes"}}, {"type": "node", "id": 5630045327, "lat": 48.8735683, "lon": 2.3429846, "tags": {"name": "M. Denis", "opening_hours": "Fr-Tu 07:00-20:00", "shop": "bakery"}}, {"type": "node", "id": 5804606477, "lat": 48.8771173, "lon": 2.3427039, "tags": {"laundry_service": "yes", "name": "Pressing - Laverie", "self_service": "yes", "shop": "laundry"}}, {"type": "node", "id": 5898548004, "lat": 48.8718997, "lon": 2.3417242, "tags": {"brand": "Casino Shop", "brand:wikidata": "Q89029601", "name": "Casino Shop", "opening_hours": "Mo-Sa 09:00-21:00; Su 11:00-20:30", "operator": "Casino", "shop": "convenience", "website": "http://magasins.lepetitcasino.com/fr/s/casino-toutpres-paris-montmartre", "wheelchair": "yes"}}, {"type": "node", "id": 6016286369, "lat": 48.8711676, "lon": 2.3438595, "tags": {"contact:city": "Paris", "contact:email": "contact@icilibrairie.fr", "contact:facebook": "https://www.facebook.com/Icigrandsboulevards/", "contact:housenumber": "25", "contact:instagram": "https://www.instagram.com/icigrandsboulevards/", "contact:postcode": "75002", "contact:street": "Boulevard Poissonni\u00e8re", "contact:twitter": "https://twitter.com/Icigrandsbvd", "contact:website": "https://www.icigrandsboulevards.fr/", "name": "Ici Librairie", "opening_hours": "Mo-Sa 10:00-20:00", "payment:credit_cards": "yes", "payment:debit_cards": "yes", "phone": "+33 1 85 01 67 30", "shop": "books", "wheelchair": "yes"}}, {"type": "node", "id": 6044004255, "lat": 48.8741043, "lon": 2.3420981, "tags": {"amenity": "bar", "contact:city": "Paris", "contact:housenumber": "37", "contact:phone": "+33 1 45 89 23 96", "contact:postcode": "75009", "contact:street": "Rue du Faubourg Montmartre", "email": "hello@monbleu.fr", "indoor_seating": "yes", "level": "0", "name": "Monbleu", "outdoor_seating": "yes", "shop": "cheese", "website": "https://www.monbleu.fr/monbleu-faubourg-montmartre/", "website:menu": "https://www.monbleu.fr/monbleu-faubourg-montmartre/menu/"}}, {"type": "node", "id": 6044041367, "lat": 48.8739929, "lon": 2.3420481, "tags": {"addr:city": "Paris", "addr:housenumber": "1", "addr:postcode": "75009", "addr:street": "Rue de Provence", "check_date": "2025-11-15", "level": "0", "name": "Aux Castelblangeois", "payment:cards": "yes", "payment:cash": "yes", "phone": "+33 153340875", "shop": "bakery"}}, {"type": "node", "id": 6044156188, "lat": 48.8741893, "lon": 2.3396238, "tags": {"brand": "Franprix", "brand:wikidata": "Q2420096", "brand:wikipedia": "fr:Franprix", "contact:city": "Paris", "contact:housenumber": "22", "contact:postcode": "75009", "contact:street": "Rue de Provence", "name": "Franprix", "opening_hours": "Mo-Sa 07:30-22:00, Su 09:00-22:00", "shop": "convenience", "website": "https://www.franprix.fr/magasins/4211"}}, {"type": "node", "id": 6112669236, "lat": 48.8754953, "lon": 2.3405363, "tags": {"addr:city": "Paris", "addr:housenumber": "57", "addr:postcode": "75009", "addr:street": "Rue du Faubourg Montmartre", "check_date:opening_hours": "2024-10-17", "name": "The \u00d6logg\u00ef", "opening_hours:signed": "no", "shop": "tea"}}, {"type": "node", "id": 6155490687, "lat": 48.8707259, "lon": 2.3426454, "tags": {"level": "0", "name": "Stock 157", "ref:FR:SIRET": "50536993400011", "shop": "clothes"}}, {"type": "node", "id": 6408770986, "lat": 48.8771544, "lon": 2.3483977, "tags": {"addr:housenumber": "89", "addr:postcode": "75009", "addr:street": "Rue La Fayette", "name": "World Informatique", "shop": "mobile_phone"}}, {"type": "node", "id": 6449249786, "lat": 48.8768258, "lon": 2.3443543, "tags": {"addr:housenumber": "3", "addr:street": "Rue Marguerite de Rochechouart", "name": "Aurore Capucine", "opening_hours": "Tu-Fr 11:00-20:00", "phone": "+33 1 48 78 16 20", "ref:FR:SIRET": "83523250500015", "shop": "pastry"}}, {"type": "node", "id": 6538313585, "lat": 48.8764524, "lon": 2.3417428, "tags": {"addr:housenumber": "19", "addr:postcode": "75009", "addr:street": "Rue Lamartine", "name": "Bis Boutique Solidaire", "opening_hours": "Tu-Sa 10:00-19:30", "second_hand": "only", "shop": "clothes", "website": "https://www.bisboutiquesolidaire.fr/"}}, {"type": "node", "id": 6855305090, "lat": 48.8742907, "lon": 2.3423893, "tags": {"addr:city": "Paris", "addr:housenumber": "1bis", "addr:postcode": "75009", "addr:street": "Rue Cadet", "name": "Les P\u00eachus", "shop": "seafood"}}, {"type": "node", "id": 6987051308, "lat": 48.8729456, "lon": 2.3396306, "tags": {"shop": "antiques"}}, {"type": "node", "id": 7089145288, "lat": 48.8753888, "lon": 2.3482944, "tags": {"contact:city": "Paris", "contact:housenumber": "60", "contact:phone": "+33 1 53 62 00 58", "contact:postcode": "75010", "contact:street": "Rue du Faubourg Poissonni\u00e8re", "contact:website": "https://www.boulangerie-michalak.com/", "name": "La Boulangerie Michalak", "name:fr": "La Boulangerie Michalak", "opening_hours": "Tu-Fr 08:30-19:30; Sa 08:30-19:00; Mo 09:30-19:00", "ref:FR:NAF": "1071C", "ref:FR:SIRET": "89915945300013", "ref:vatin": "FR36899159453", "shop": "bakery"}}, {"type": "node", "id": 7390934982, "lat": 48.8757097, "lon": 2.3411031, "tags": {"brand": "Office Depot", "brand:wikidata": "Q1337797", "brand:wikipedia": "en:Office Depot", "fax": "+33 1 49 70 91 45", "name": "Office Depot", "opening_hours": "Mo-Sa 10:00-19:00", "phone": "+33 1 49 70 91 40", "shop": "stationery"}}, {"type": "node", "id": 7527003432, "lat": 48.8707877, "lon": 2.3484373, "tags": {"amenity": "ice_cream", "brand": "Amorino", "brand:wikidata": "Q2843884", "check_date": "2025-06-18", "indoor_seating": "yes", "name": "Amorino", "outdoor_seating": "yes", "shop": "pastry", "smoking": "outside", "wheelchair": "yes"}}, {"type": "node", "id": 7659450763, "lat": 48.8739832, "lon": 2.3428795, "tags": {"name": "Gayla Phone", "shop": "mobile_phone"}}, {"type": "node", "id": 7775431554, "lat": 48.8775908, "lon": 2.3395546, "tags": {"check_date:opening_hours": "2024-09-22", "name": "Au Bout Du Champ", "opening_hours": "Mo 16:00-20:00; Tu-Fr 10:00-20:00; Sa 09:30-20:00; Su 09:30-19:00", "ref:FR:SIRET": "89315237100124", "shop": "greengrocer", "source": "survey", "source:opening_hours": "website", "website": "https://auboutduchamp.com"}}, {"type": "node", "id": 7794607305, "lat": 48.8776169, "lon": 2.3393501, "tags": {"check_date": "2025-04-16", "name": "Le Repaire de Bacchus", "ref:FR:SIRET": "51323526700061", "shop": "wine"}}, {"type": "node", "id": 7899775463, "lat": 48.8703145, "lon": 2.3479832, "tags": {"check_date": "2025-08-06", "name": "Pacific Coast", "shop": "outdoor"}}, {"type": "node", "id": 7994117385, "lat": 48.8770193, "lon": 2.342449, "tags": {"addr:housenumber": "20", "addr:postcode": "75009", "addr:street": "Rue de Maubeuge", "email": "mediterranee@maboutiquedudos.com", "name": "La Boutique du Dos", "opening_hours": "Mo 14:00-19:00; Tu-Fr 10:00-19:00; Sa 10:00-18:00", "phone": "+33 1 42 80 43 28", "ref:FR:SIRET": "93910306500024", "shop": "furniture", "website": "https://www.laboutiquedudos.com"}}, {"type": "node", "id": 8540600263, "lat": 48.8709577, "lon": 2.3475045, "tags": {"check_date": "2025-08-01", "shop": "vacant"}}, {"type": "node", "id": 8648981742, "lat": 48.876685, "lon": 2.3405579, "tags": {"old_name": "Humphris", "shop": "vacant"}}, {"type": "node", "id": 8753154917, "lat": 48.8712085, "lon": 2.3480106, "tags": {"addr:city": "Paris", "addr:housenumber": "6", "addr:postcode": "75010", "addr:street": "Rue du Faubourg Poissonni\u00e8re", "name": "Newan", "shop": "beauty"}}, {"type": "node", "id": 8879556218, "lat": 48.8773552, "lon": 2.3425331, "tags": {"brand": "Biocoop", "brand:wikidata": "Q2904039", "brand:wikipedia": "fr:Biocoop", "contact:city": "Paris", "contact:housenumber": "4", "contact:phone": "+33 1 40 38 61 08", "contact:postcode": "75009", "contact:street": "Rue Choron", "contact:website": "https://www.biocoopchoron.fr", "name": "Biocoop", "official_name": "Biocoop Choron", "opening_hours": "Mo-Sa 10:00-20:00", "organic": "only", "ref:FR:SIRET": "88377415000014", "shop": "convenience"}}, {"type": "node", "id": 9244534311, "lat": 48.8753951, "lon": 2.3455797, "tags": {"check_date": "2025-09-28", "name": "Mon soulier", "shop": "shoes", "website": "https://www.monsoulier.fr"}}, {"type": "node", "id": 9244550190, "lat": 48.8753932, "lon": 2.3453791, "tags": {"opening_hours": "Tu-Fr 11:00-19:30", "shop": "honey"}}, {"type": "node", "id": 9300057590, "lat": 48.8770583, "lon": 2.3391987, "tags": {"check_date": "2025-04-16", "name": "Fromager Chataigner", "ref:FR:SIRET": "94889751700017", "shop": "cheese"}}, {"type": "node", "id": 9300057591, "lat": 48.8771377, "lon": 2.3392215, "tags": {"shop": "deli"}}, {"type": "node", "id": 9300057592, "lat": 48.8771853, "lon": 2.3392336, "tags": {"check_date": "2025-04-16", "name": "La souris gourmande", "shop": "cheese"}}, {"type": "node", "id": 9300057593, "lat": 48.8772259, "lon": 2.339243, "tags": {"check_date": "2025-04-16", "name": "Au Bon Port", "shop": "seafood"}}, {"type": "node", "id": 9300057594, "lat": 48.8774058, "lon": 2.3392953, "tags": {"brand": "Marionnaud", "brand:wikidata": "Q1129073", "check_date": "2025-04-16", "name": "Marionnaud", "ref:FR:SIRET": "34867416901025", "shop": "perfumery"}}, {"type": "node", "id": 9300057595, "lat": 48.8774579, "lon": 2.3393154, "tags": {"check_date": "2025-04-16", "name": "La Chambre aux Confitures", "shop": "confectionery"}}, {"type": "node", "id": 9300057596, "lat": 48.8775152, "lon": 2.3393235, "tags": {"brand": "Jimmy Fairly", "brand:wikidata": "Q104825419", "check_date": "2025-04-16", "name": "Jimmy Fairly", "ref:FR:SIRET": "53042242700332", "shop": "optician"}}, {"type": "node", "id": 9300057597, "lat": 48.8775593, "lon": 2.3393369, "tags": {"check_date": "2025-04-16", "name": "Orph\u00e9e", "ref:FR:SIRET": "47932629000018", "shop": "jewelry"}}, {"type": "node", "id": 9455171456, "lat": 48.8759493, "lon": 2.3406948, "tags": {"check_date:opening_hours": "2024-10-14", "name": "CBD High", "opening_hours:signed": "no", "shop": "cannabis"}}, {"type": "node", "id": 9455171458, "lat": 48.8759281, "lon": 2.3409895, "tags": {"check_date:opening_hours": "2024-10-14", "name": "Le Timbre et la Lettre", "opening_hours:signed": "no", "shop": "antiques"}}, {"type": "node", "id": 9455171466, "lat": 48.8764671, "lon": 2.3416467, "tags": {"check_date:opening_hours": "2024-10-24", "name": "Yodoya", "opening_hours": "Tu-Sa 11:00-19:00", "shop": "gift", "website": "https://www.yodoya.fr"}}, {"type": "node", "id": 9455171467, "lat": 48.8764749, "lon": 2.3415493, "tags": {"check_date:opening_hours": "2024-10-24", "name": "Autre Vue", "opening_hours:signed": "no", "shop": "optician", "wheelchair": "no"}}, {"type": "node", "id": 9455171469, "lat": 48.8762541, "lon": 2.3408776, "tags": {"beauty": "cosmetics", "brand": "Body Minute", "brand:wikidata": "Q104972220", "name": "Body Minute", "opening_hours": "Mo-Sa 10:00-19:00", "ref:FR:SIRET": "42976831000071", "shop": "beauty"}}, {"type": "node", "id": 9455171470, "lat": 48.8755141, "lon": 2.3417532, "tags": {"brand": "Carrefour City", "brand:wikidata": "Q2940187", "name": "Carrefour City", "opening_hours": "Mo-Sa 07:00-22:00; Su 10:00-22:00", "shop": "convenience", "website": "https://www.carrefour.fr/magasin/city-paris-buffault"}}, {"type": "node", "id": 9455171471, "lat": 48.8759443, "lon": 2.3407846, "tags": {"check_date:opening_hours": "2024-10-14", "name": "Diva Cr\u00e9ations", "opening_hours:signed": "no", "shop": "clothes"}}, {"type": "node", "id": 9455171474, "lat": 48.8759131, "lon": 2.3412945, "tags": {"check_date:opening_hours": "2024-10-14", "name": "Les Blanchisseuses", "opening_hours:signed": "no", "shop": "dry_cleaning"}}, {"type": "node", "id": 9455171475, "lat": 48.8758892, "lon": 2.3415933, "tags": {"check_date:opening_hours": "2024-10-24", "name": "A&D Martinez", "opening_hours:signed": "no", "shop": "antiques"}}, {"type": "node", "id": 9455171477, "lat": 48.8756175, "lon": 2.3424343, "tags": {"name": "Droit de Regard", "shop": "optician"}}, {"type": "node", "id": 9455171482, "lat": 48.8758856, "lon": 2.3416712, "tags": {"name": "Saralinka", "opening_hours": "Mo-Fr 09:00-13:30,15:00-19:00", "shop": "jewelry"}}, {"type": "node", "id": 9558735500, "lat": 48.8770283, "lon": 2.3394079, "tags": {"amenity": "restaurant", "butcher": "poultry", "check_date": "2025-04-16", "name": "Chez Plume", "shop": "butcher"}}, {"type": "node", "id": 9558791598, "lat": 48.8773994, "lon": 2.3428098, "tags": {"name": "C4V", "opening_hours": "Mo-Sa 10:00-13:30,14:30-19:00", "ref:FR:SIRET": "37883730600067", "shop": "pet"}}, {"type": "node", "id": 9558798417, "lat": 48.8765284, "lon": 2.3405168, "tags": {"check_date": "2024-09-23", "name": "Salon de Beaut\u00e9", "shop": "beauty"}}, {"type": "node", "id": 9558811917, "lat": 48.8768986, "lon": 2.3422062, "tags": {"name": "R\u00eave d'Orient", "ref:FR:SIRET": "49343184500012", "shop": "beauty"}}, {"type": "node", "id": 9558815317, "lat": 48.8772468, "lon": 2.3429809, "tags": {"brand": "Selectour", "brand:wikidata": "Q3478073", "name": "Selectour", "shop": "travel_agency"}}, {"type": "node", "id": 9558818417, "lat": 48.8767814, "lon": 2.341944, "tags": {"name": "D\u00e9tente et Nails", "ref:FR:SIRET": "87795535100011", "shop": "massage"}}, {"type": "node", "id": 9558818418, "lat": 48.8770459, "lon": 2.3425161, "tags": {"name": "MBG Mobile", "shop": "mobile_phone"}}, {"type": "node", "id": 9558818419, "lat": 48.877155, "lon": 2.3427282, "tags": {"name": "Primeur \u00c9thique", "shop": "greengrocer"}}, {"type": "node", "id": 9558818517, "lat": 48.8768047, "lon": 2.342001, "tags": {"name": "L'Atelier du Sourcil", "shop": "beauty"}}, {"type": "node", "id": 9558818518, "lat": 48.8773986, "lon": 2.3428478, "tags": {"name": "Repaire Phone", "opening_hours": "Mo-Sa 10:00-24:00", "ref:FR:SIRET": "90462420200019", "shop": "mobile_phone"}}, {"type": "node", "id": 9558821717, "lat": 48.8773937, "lon": 2.3432773, "tags": {"name": "N\u00e9o-Image", "ref:FR:SIRET": "50894815500017", "shop": "beauty"}}, {"type": "node", "id": 9561974972, "lat": 48.871716, "lon": 2.3477663, "tags": {"check_date": "2024-05-24", "name": "Point Soleil", "opening_hours": "Mo-Sa 08:30-20:30; Su 10:00-20:00", "shop": "beauty"}}, {"type": "node", "id": 9610265888, "lat": 48.8744878, "lon": 2.3419263, "tags": {"name": "Le Chanvrier Fran\u00e7ais", "opening_hours": "11:30-20:00", "shop": "cannabis", "website": "https://lechanvrierfrancais.com"}}, {"type": "node", "id": 9610302099, "lat": 48.8732923, "lon": 2.34309, "tags": {"check_date": "2024-09-06", "name": "Clown Montmartre", "shop": "outdoor"}}, {"type": "node", "id": 9610302100, "lat": 48.8719354, "lon": 2.3486922, "tags": {"contact:city": "Paris", "contact:housenumber": "42", "contact:postcode": "75010", "contact:street": "Rue de l'\u00c9chiquier", "name": "Ika", "ref:FR:SIRET": "34497033000017", "shop": "clothes"}}, {"type": "node", "id": 9610320196, "lat": 48.8732125, "lon": 2.3450331, "tags": {"male": "yes", "name": "Bonhomme", "opening_hours": "Mo-Sa 09:00-20:00", "shop": "hairdresser"}}, {"type": "node", "id": 9610321068, "lat": 48.8747834, "lon": 2.3411569, "tags": {"name": "Eve manucure", "shop": "beauty"}}, {"type": "node", "id": 9610327814, "lat": 48.8737366, "lon": 2.3445651, "tags": {"name": "Lez art du corps 2", "shop": "tattoo"}}, {"type": "node", "id": 9610332426, "lat": 48.8744313, "lon": 2.3416441, "tags": {"contact:phone": "+33 1 47 70 53 35", "female": "yes", "male": "yes", "name": "MK Coiffure", "opening_hours": "Mo 12:00-20:00, Tu-Sa 10:00-20:00", "shop": "hairdresser", "website": "https://www.mkcoiffure.fr"}}, {"type": "node", "id": 9610334071, "lat": 48.8720351, "lon": 2.3482268, "tags": {"check_date": "2025-08-01", "contact:city": "Paris", "contact:housenumber": "48", "contact:postcode": "75010", "contact:street": "Rue de l'\u00c9chiquier", "name": "La beaut\u00e9 des ongles", "ref:FR:SIRET": "81110308400018", "shop": "beauty"}}, {"type": "node", "id": 9610341537, "lat": 48.8736527, "lon": 2.3440325, "tags": {"addr:city": "Paris", "addr:housenumber": "9 bis", "addr:postcode": "75009", "addr:street": "Rue Geoffroy Marie", "name": "Tatulyan", "shop": "vacant"}}, {"type": "node", "id": 9610342624, "lat": 48.8743747, "lon": 2.3417313, "tags": {"brand": "Cocci Market", "brand:wikidata": "Q90020480", "name": "Cocci Market", "shop": "convenience"}}, {"type": "node", "id": 9836774752, "lat": 48.8723048, "lon": 2.3430499, "tags": {"branch": "Faubourg Montmartre", "brand": "Nicolas", "brand:website": "https://www.nicolas.com/", "brand:wikidata": "Q3340012", "brand:wikipedia": "fr:Nicolas (entreprise vinicole)", "contact:city": "Paris", "contact:housenumber": "13", "contact:postcode": "75009", "contact:street": "Rue du Faubourg Montmartre", "name": "Nicolas", "operator": "\u00c9tablissements Nicolas", "operator:ref:FR:SIREN": "542066238", "ref:FR:NAF": "47.25Z", "ref:FR:SIRET": "54206623808530", "ref:vatin": "FR31542066238", "shop": "alcohol"}}, {"type": "node", "id": 9836774754, "lat": 48.8722634, "lon": 2.3430495, "tags": {"brand": "Marionnaud", "brand:wikidata": "Q1129073", "brand:wikipedia": "fr:Marionnaud", "check_date": "2024-09-06", "name": "Marionnaud", "shop": "perfumery"}}, {"type": "node", "id": 9836877501, "lat": 48.8714861, "lon": 2.3443054, "tags": {"name": "Le Petit Fumeur", "shop": "e-cigarette"}}, {"type": "node", "id": 9836928988, "lat": 48.8714589, "lon": 2.344509, "tags": {"addr:city": "Paris", "addr:housenumber": "26", "addr:postcode": "75009", "addr:street": "Boulevard Poissonni\u00e8re", "brand": "La Boutique du Coiffeur", "brand:wikidata": "Q104600156", "name": "La Boutique du Coiffeur", "opening_hours": "Mo-Fr 10:00-20:00; Sa 10:00-19:30", "phone": "+33148018099", "shop": "hairdresser_supply", "website": "https://www.laboutiqueducoiffeur.com/paris/"}}, {"type": "node", "id": 9864287800, "lat": 48.87632, "lon": 2.3385031, "tags": {"brand": "Franck Provost", "brand:wikidata": "Q62805922", "female": "yes", "male": "yes", "name": "Franck Provost", "opening_hours": "Mo-Fr 09:30-19:00; Sa 09:30-18:30", "shop": "hairdresser"}}, {"type": "node", "id": 9864287813, "lat": 48.8764468, "lon": 2.3393258, "tags": {"name": "Dis Bonjour \u00e0 la Dame", "shop": "craft"}}, {"type": "node", "id": 10067606817, "lat": 48.8739903, "lon": 2.3434058, "tags": {"addr:housenumber": "45", "addr:postcode": "75009", "addr:street": "Rue Richer", "check_date:opening_hours": "2024-02-02", "email": "info@tabletennis11.fr", "name": "Tabletennis11", "opening_hours": "Mo-Fr 10:00-18:20; Sa 10:00-16:45", "shop": "sports", "website": "https://www.tabletennis11.fr"}}, {"type": "node", "id": 10276324811, "lat": 48.8700961, "lon": 2.3481281, "tags": {"addr:city": "Paris", "addr:housenumber": "36", "addr:postcode": "75002", "addr:street": "Rue de la Lune", "check_date": "2025-07-03", "description": "Mexican grocery store", "name": "La Esquinita", "shop": "convenience"}}, {"type": "node", "id": 10316532009, "lat": 48.8756299, "lon": 2.3422558, "tags": {"addr:housenumber": "1", "addr:postcode": "75009", "addr:street": "Rue de Ch\u00e2teaudun", "name": "Les Velos de Panames", "opening_hours": "Mo-Fr 08:30-14:00, 16:00-19:00", "phone": "+33 9 87 46 52 55", "shop": "bicycle", "website": "https://lesvelosdepaname.fr/"}}, {"type": "node", "id": 10649537087, "lat": 48.8721329, "lon": 2.3397477, "tags": {"shop": "newsagent"}}, {"type": "node", "id": 10766344414, "lat": 48.8739966, "lon": 2.3414565, "tags": {"name": "La banque du timbre", "shop": "collector"}}, {"type": "node", "id": 10873720687, "lat": 48.8757629, "lon": 2.3445597, "tags": {"name": "Multiservice", "shop": "mobile_phone"}}, {"type": "node", "id": 10967994829, "lat": 48.8714622, "lon": 2.3381511, "tags": {"check_date": "2025-10-17", "indoor_seating": "yes", "name": "Merci J\u00e9r\u00f4me !", "opening_hours": "Mo-Sa 07:00-19:30", "outdoor_seating": "yes", "ref:FR:SIRET": "83128332000016", "shop": "bakery"}}, {"type": "node", "id": 10967994832, "lat": 48.8709605, "lon": 2.338981, "tags": {"beauty": "nails", "name": "Nails by Bratz", "opening_hours": "Tu-Su 11:00-21:00", "ref:FR:SIREN": "904638863", "ref:FR:SIRET": "90463886300012", "shop": "beauty"}}, {"type": "node", "id": 10967994833, "lat": 48.8710162, "lon": 2.3382002, "tags": {"contact:mobile": "+33 7 69 10 41 26", "contact:phone": "+33 9 87 00 06 98", "name": "Eden Perfect", "opening_hours": "Mo-Fr 10:00-18:00, Sa 10:00-18:30", "ref:FR:SIRET": "88789935900020", "shop": "hairdresser"}}, {"type": "node", "id": 10967994834, "lat": 48.8709342, "lon": 2.3391146, "tags": {"name": "Institut Ma\u00efdo", "opening_hours": "Tu-Su 10:00-20:00", "phone": "+33 7 64 82 73 29", "shop": "massage"}}, {"type": "node", "id": 10967994835, "lat": 48.8711364, "lon": 2.3387601, "tags": {"contact:mobile": "+33 6 17 42 18 48", "contact:phone": "+33 1 73 74 55 97", "name": "Sant\u00e9 et \u00c9quilibre", "shop": "massage"}}, {"type": "node", "id": 10998043762, "lat": 48.8708767, "lon": 2.3370406, "tags": {"addr:floor": "0", "addr:housenumber": "26", "addr:street": "Rue de Gramont", "check_date": "2025-08-26", "level": "0", "male": "yes", "name": "Tiflow Barber", "opening_hours": "Mo-Th 09:30-19:30, Fr 09:30-13:30,14:30-20:00, Sa 10:00-19:30", "shop": "hairdresser", "wheelchair": "limited"}}, {"type": "node", "id": 11056339053, "lat": 48.8706299, "lon": 2.3444572, "tags": {"addr:city": "Paris", "addr:housenumber": "8", "addr:postcode": "75002", "addr:street": "Rue d'Uz\u00e8s", "name": "h2impression", "opening_hours": "Mo-Fr 09:30-19:00", "payment:cash": "yes", "payment:contactless": "yes", "payment:credit_cards": "yes", "phone": "+331 47 00 40 24", "shop": "copyshop"}}, {"type": "node", "id": 11069621943, "lat": 48.8715029, "lon": 2.3442285, "tags": {"name": "Muses", "shop": "shoes"}}, {"type": "node", "id": 11069621944, "lat": 48.8715435, "lon": 2.3439538, "tags": {"name": "Boulevard D\u2019Stocks", "shop": "clothes"}}, {"type": "node", "id": 11069621945, "lat": 48.8715246, "lon": 2.3440795, "tags": {"name": "Bee\u2019 Shoes", "shop": "shoes"}}, {"type": "node", "id": 11090136325, "lat": 48.8741082, "lon": 2.3460471, "tags": {"diet:kosher": "only", "name": "Andr\u00e9 Krief", "shop": "butcher"}}, {"type": "node", "id": 11090136342, "lat": 48.8741076, "lon": 2.3463463, "tags": {"name": "Continentour", "shop": "travel_agency"}}, {"type": "node", "id": 11114080048, "lat": 48.8766317, "lon": 2.3449, "tags": {"name": "Jal\u00fcn", "opening_hours": "Mo-Sa 11:00-20:00", "ref:FR:SIREN": "910681840", "ref:FR:SIRET": "91068184000013", "shop": "massage"}}, {"type": "node", "id": 11114080054, "lat": 48.8772035, "lon": 2.3444758, "tags": {"name": "Pressing Rochechouart", "shop": "laundry"}}, {"type": "node", "id": 11114080057, "lat": 48.8753489, "lon": 2.3432095, "tags": {"name:signed": "no", "official_name": "Veskar", "ref:FR:SIREN": "944974294", "ref:FR:SIRET": "94497429400018", "ref:vatin": "FR21944974294", "shop": "convenience"}}, {"type": "node", "id": 11114080060, "lat": 48.8751923, "lon": 2.3430887, "tags": {"alt_name": "Cadet Service", "delivery": "yes", "name": "Eureka Ma Maison - Cadet Service", "opening_hours": "Tu-Sa 09:00-19:30; Su 09:30-13:00", "payment:american_express": "yes", "payment:mastercard": "yes", "payment:visa": "yes", "ref:FR:SIREN": "397997784", "ref:FR:SIRET": "39799778400020", "shop": "hardware", "website": "https://www.eurekamamaison.fr/magasin/eureka-ma-maison-paris-2"}}, {"type": "node", "id": 11114080061, "lat": 48.8755361, "lon": 2.3436015, "tags": {"contact:instagram": "johanna_paris_cadet", "name": "Johanna", "opening_hours": "Mo 13:00-19:00, Tu-Sa 11:00-19:00", "ref:FR:SIREN": "929140291", "ref:FR:SIRET": "92914029100014", "shop": "clothes", "start_date": "2024-09-04"}}, {"type": "node", "id": 11114080062, "lat": 48.8767427, "lon": 2.344559, "tags": {"name": "Sakura", "shop": "florist"}}, {"type": "node", "id": 11114080065, "lat": 48.8770346, "lon": 2.3446473, "tags": {"contact:email": "studiophotoman@yahoo.fr", "contact:phone": "+33 1 44 53 90 77", "name": "Studio Photoman", "opening_hours": "Mo-Sa 09:00-19:00", "ref:FR:SIRET": "41771175100020", "shop": "photo"}}, {"type": "node", "id": 11114080066, "lat": 48.8754286, "lon": 2.3432771, "tags": {"contact:mobile": "+33 6 52 67 65 28", "contact:phone": "+33 1 48 24 45 22", "female": "yes", "male": "yes", "name": "Atelier 13", "opening_hours": "We,Fr 10:00-19:00, Th 12:00-21:00, Sa 10:00-18:00", "ref:FR:SIREN": "821581089", "ref:FR:SIRET": "82158108900017", "shop": "hairdresser"}}, {"type": "node", "id": 11114080068, "lat": 48.8756141, "lon": 2.3436635, "tags": {"lottery": "yes", "name": "Tabac Cadet", "opening_hours": "Mo-Fr 08:00-20:30, Sa 09:00-20:30", "shop": "tobacco"}}, {"type": "node", "id": 11199705963, "lat": 48.8724962, "lon": 2.3422517, "tags": {"addr:housenumber": "40", "addr:street": "Passage Jouffroy", "check_date": "2024-02-16", "name": "Br\u00e9silophile", "shop": "jewelry"}}, {"type": "node", "id": 11262824712, "lat": 48.8741288, "lon": 2.341892, "tags": {"addr:city": "Paris", "addr:housenumber": "2", "addr:postcode": "75009", "addr:street": "Rue de Provence", "description": "Salon de massage proposant des massages visages inspir\u00e9s du Kobido, combinant des techniques de Shiatsu du visage et l'utilisation de Gua-Sha.", "email": "melanie@massagevisageparis.fr", "name": "Massage Visage Paris (MVP)", "opening_hours": "Tu,Th 08:00-20:00", "payment:cards": "yes", "payment:cash": "yes", "payment:contactless": "yes", "payment:credit_cards": "yes", "phone": "+33 6 27 10 97 76", "ref:FR:SIRET": "98004808600014", "shop": "massage", "stroller": "limited", "website": "https://www.massagevisageparis.fr/", "wheelchair": "limited"}}, {"type": "node", "id": 11409713764, "lat": 48.8740852, "lon": 2.3466877, "tags": {"addr:city": "Paris", "addr:housenumber": "14", "addr:postcode": "75009", "addr:street": "Rue Richer", "name": "Quignon", "shop": "bakery"}}, {"type": "node", "id": 11465273154, "lat": 48.8731363, "lon": 2.3455965, "tags": {"name": "Les Hauts V\u00e9los", "service:bicycle:repair": "no", "service:bicycle:retail": "yes", "service:bicycle:second_hand": "no", "shop": "bicycle"}}, {"type": "node", "id": 11579725504, "lat": 48.8739681, "lon": 2.3436522, "tags": {"name": "Les vins vivants", "shop": "wine"}}, {"type": "node", "id": 11579740899, "lat": 48.8739772, "lon": 2.3438761, "tags": {"shop": "vacant"}}, {"type": "node", "id": 11579742001, "lat": 48.8739677, "lon": 2.3429764, "tags": {"shop": "vacant"}}, {"type": "node", "id": 11579742002, "lat": 48.8739812, "lon": 2.3439409, "tags": {"shop": "vacant"}}, {"type": "node", "id": 11579793977, "lat": 48.8739677, "lon": 2.3440657, "tags": {"female": "yes", "male": "yes", "name": "Yann Fontaine", "shop": "hairdresser"}}, {"type": "node", "id": 11579799468, "lat": 48.8770404, "lon": 2.3387773, "tags": {"check_date": "2025-11-04", "check_date:opening_hours": "2025-11-04", "name": "Chaussures Lalo", "opening_hours": "Tu-Sa 10:30-19:00", "shop": "shoes"}}, {"type": "node", "id": 11579799627, "lat": 48.8755802, "lon": 2.3406954, "tags": {"name": "Action Philat\u00e9lie", "opening_hours": "Mo-Fr 10:30-19:00", "shop": "collector"}}, {"type": "node", "id": 11579801149, "lat": 48.8771908, "lon": 2.3386383, "tags": {"beauty": "nails", "name": "Nail Studio", "opening_hours": "Mo-Su 10:00-20:00", "shop": "beauty"}}, {"type": "node", "id": 11579801150, "lat": 48.8739722, "lon": 2.3437396, "tags": {"shop": "vacant"}}, {"type": "node", "id": 11579802117, "lat": 48.8771042, "lon": 2.3389573, "tags": {"shop": "stationery"}}, {"type": "node", "id": 11579803026, "lat": 48.8771559, "lon": 2.3386698, "tags": {"check_date:opening_hours": "2025-11-04", "name": "Sens et beaut\u00e9", "opening_hours:signed": "no", "shop": "beauty"}}, {"type": "node", "id": 11579809775, "lat": 48.8755295, "lon": 2.3407351, "tags": {"female": "yes", "male": "yes", "name": "\u00c9glantine Fabre", "opening_hours": "Tu,Th-Sa 09:00-19:00; We 10:00-18:00", "shop": "hairdresser", "wheelchair": "yes"}}, {"type": "node", "id": 11579810202, "lat": 48.8771751, "lon": 2.3386528, "tags": {"female": "yes", "male": "yes", "name": "Maestro barber", "opening_hours": "Tu-Sa 10:00-13:30,14:30-20:00; Su 11:00-18:00", "shop": "hairdresser"}}, {"type": "node", "id": 11579810203, "lat": 48.8756619, "lon": 2.3406082, "tags": {"name": "Eden", "opening_hours": "Mo 12:30-19:00; Tu-Sa 10:30-19:00; Su 11:00-18:00", "shop": "jewelry", "wheelchair": "no"}}, {"type": "node", "id": 11586804492, "lat": 48.8719247, "lon": 2.344849, "tags": {"addr:city": "Paris", "addr:housenumber": "14", "addr:postcode": "75009", "addr:street": "Cit\u00e9 Berg\u00e8re", "name": "Cinabre", "opening_hours": "Mo-Sa 10:00-19:30", "phone": "+33 1 48 24 72 28", "shop": "fashion_accessories", "website": "https://www.cinabre-paris.com/fr/"}}, {"type": "node", "id": 11603411405, "lat": 48.8727968, "lon": 2.3480142, "tags": {"name": "Julh\u00e8s", "opening_hours": "Mo-Th 10:30-14:00,15:30-20:30; Fr,Sa 10:00-14:00,15:00-20:30; Su 10:00-14:00,15:00-20:00", "ref:FR:SIRET": "41062031400055", "shop": "wine"}}, {"type": "node", "id": 11630107364, "lat": 48.8726993, "lon": 2.3420769, "tags": {"addr:housenumber": "47", "addr:street": "Passage Jouffroy", "check_date": "2024-02-16", "name": "Paris est toujours Paris", "shop": "gift"}}, {"type": "node", "id": 11630107365, "lat": 48.8713638, "lon": 2.341727, "tags": {"addr:housenumber": "61", "addr:street": "Passage des Panoramas", "check_date": "2024-02-16", "name": "Phila 2000", "shop": "collector"}}, {"type": "node", "id": 11630107366, "lat": 48.8722325, "lon": 2.3421343, "tags": {"check_date": "2024-02-16", "name": "Gr\u00e9vin La Boutique", "shop": "gift"}}, {"type": "node", "id": 11630107367, "lat": 48.8723232, "lon": 2.3420427, "tags": {"check_date": "2024-02-16", "name": "Casino #toupr\u00e8s", "shop": "supermarket"}}, {"type": "node", "id": 11630107368, "lat": 48.8722782, "lon": 2.3421419, "tags": {"check_date": "2024-02-16", "name": "La maison du roy", "shop": "interior_decoration"}}, {"type": "node", "id": 11630136069, "lat": 48.8720227, "lon": 2.3419469, "tags": {"check_date": "2024-02-16", "name": "Osstina", "shop": "gift"}}, {"type": "node", "id": 11630136070, "lat": 48.8724029, "lon": 2.3420794, "tags": {"check_date": "2024-02-16", "name": "Pain d\u2018epice", "shop": "toys"}}, {"type": "node", "id": 11630136072, "lat": 48.87255, "lon": 2.3421293, "tags": {"check_date": "2024-02-16", "name": "Le petit roi", "shop": "books"}}, {"type": "node", "id": 11630136073, "lat": 48.8726043, "lon": 2.3420878, "tags": {"addr:housenumber": "43-41", "addr:street": "Passage Jouffroy", "check_date": "2024-02-16", "name": "La boite a joujoux", "shop": "collector"}}, {"type": "node", "id": 11630136074, "lat": 48.8712187, "lon": 2.341773, "tags": {"check_date": "2024-02-16", "name": "Marigny Philatelie", "shop": "collector"}}, {"type": "node", "id": 11630136076, "lat": 48.872816, "lon": 2.3421829, "tags": {"addr:housenumber": "54", "addr:street": "Passage Jouffroy", "check_date": "2024-02-16", "name": "Librairie du Passage", "shop": "books"}}, {"type": "node", "id": 11630136080, "lat": 48.8713327, "lon": 2.3417172, "tags": {"addr:housenumber": "60", "addr:street": "Passage des Panoramas", "check_date": "2024-02-16", "name": "Prins Philatelie", "shop": "collector"}}, {"type": "node", "id": 11789331386, "lat": 48.8762975, "lon": 2.3450226, "tags": {"name": "Madime", "opening_hours": "Tu-Th,Sa 10:30-19:00; Fr 10:30-18:00", "shop": "jewelry"}}, {"type": "node", "id": 11789419890, "lat": 48.876306, "lon": 2.3451054, "tags": {"female": "yes", "male": "yes", "name": "Big moustache", "shop": "hairdresser"}}, {"type": "node", "id": 11900983269, "lat": 48.8758176, "lon": 2.3430601, "tags": {"addr:housenumber": "57", "addr:postcode": "75009", "addr:street": "Rue La Fayette", "brand": "Cash Express", "brand:wikidata": "Q132065674", "name": "Cash Express", "opening_hours": "Mo-Sa 11:00-19:00", "phone": "+33 9 78 80 90 46", "ref:FR:SIREN": "952961449", "ref:FR:SIRET": "95296144900024", "ref:vatin": "FR61952961449", "shop": "second_hand", "website": "https://www.cashexpress.fr/magasin-paris-09,436.html"}}, {"type": "node", "id": 12002748148, "lat": 48.8756807, "lon": 2.3415856, "tags": {"addr:city": "Paris", "addr:housenumber": "5", "addr:postcode": "75009", "addr:street": "Rue de Ch\u00e2teaudun", "shop": "collector"}}, {"type": "node", "id": 12002748149, "lat": 48.8756776, "lon": 2.3416359, "tags": {"addr:city": "Paris", "addr:housenumber": "5", "addr:postcode": "75009", "addr:street": "Rue de Ch\u00e2teaudun", "name": "Yes Cut", "shop": "hairdresser"}}, {"type": "node", "id": 12012145169, "lat": 48.8714764, "lon": 2.3416264, "tags": {"brand": "Godot & Fils", "contact:city": "Paris 2eme Arrondissement", "contact:housenumber": "48", "contact:phone": "+33 1 42 33 20 20", "contact:postcode": "75002", "contact:street": "Rue Vivienne", "name": "Godot & Fils", "opening_hours": "Mo-Fr 09:30-18:00", "ref:FR:SIRET": "52358390400017", "shop": "gold_buyer", "website": "https://www.changevivienne.com/"}}, {"type": "node", "id": 12036720702, "lat": 48.8766535, "lon": 2.3407697, "tags": {"addr:housenumber": "46", "addr:street": "Rue Lamartine", "name": "Nation Photo | Lamartine", "opening_hours": "Mo-Sa 10:00-18:30", "operator": "Nation Photo", "payment:cash": "yes", "payment:contactless": "yes", "shop": "photo", "website": "https://www.nationphoto.com/"}}, {"type": "node", "id": 12055036769, "lat": 48.8716631, "lon": 2.3408949, "tags": {"addr:housenumber": "16", "addr:postcode": "75002", "addr:street": "Boulevard Montmartre", "name": "La Tabati\u00e8re", "opening_hours": "Mo-Th 07:30-20:30; Fr 07:30-21:00; Sa 10:00-21:00", "phone": "+33 1 42 96 55 94", "shop": "tobacco"}}, {"type": "node", "id": 12145858983, "lat": 48.8739051, "lon": 2.342644, "tags": {"addr:city": "Paris", "addr:housenumber": "32", "addr:postcode": "75009", "addr:street": "Rue du Faubourg Montmartre", "name": "Miro Asian Beauty Shop", "shop": "cosmetics", "website": "https://miroshoparis.com/"}}, {"type": "node", "id": 12145931286, "lat": 48.8725558, "lon": 2.3444911, "tags": {"addr:city": "Paris", "addr:housenumber": "28", "addr:postcode": "75009", "addr:street": "Rue Berg\u00e8re", "beauty": "nails", "name": "Linh Nails Beaut\u00e9", "phone": "+33 1 73 77 46 61", "shop": "beauty"}}, {"type": "node", "id": 12145938978, "lat": 48.8738029, "lon": 2.3424267, "tags": {"addr:city": "Paris", "addr:housenumber": "31 bis", "addr:postcode": "75009", "addr:street": "Rue du Faubourg Montmartre", "brand": "Pascal Coste", "brand:wikidata": "Q66555630", "female": "yes", "male": "yes", "name": "Pascal Coste", "shop": "hairdresser"}}, {"type": "node", "id": 12145961026, "lat": 48.8736606, "lon": 2.342922, "tags": {"addr:city": "Paris", "addr:housenumber": "28", "addr:postcode": "75009", "addr:street": "Rue du Faubourg Montmartre", "brand": "Picard", "brand:wikidata": "Q3382454", "name": "Picard", "shop": "frozen_food"}}, {"type": "node", "id": 12158458145, "lat": 48.8734878, "lon": 2.3448735, "tags": {"addr:city": "Paris", "addr:housenumber": "6", "addr:postcode": "75009", "addr:street": "Rue de la Boule Rouge", "name": "Music House", "shop": "music"}}, {"type": "node", "id": 12164215551, "lat": 48.8743252, "lon": 2.3421137, "tags": {"name": "Vairons", "shop": "optician"}}, {"type": "node", "id": 12164215553, "lat": 48.8743085, "lon": 2.3421384, "tags": {"name": "Thomaas & Nicolaas", "shoes": "men", "shop": "shoes"}}, {"type": "node", "id": 12169992718, "lat": 48.8757372, "lon": 2.3489509, "tags": {"contact:city": "Paris", "contact:email": "info@copydigit.com", "contact:housenumber": "56", "contact:phone": "+33 1 42 46 50 10", "contact:postcode": "75010", "contact:street": "Rue de Paradis", "contact:website": "http://www.copydigit.com/", "name": "Copy Digit", "ref:FR:SIRET": "44380986800013", "shop": "copyshop"}}, {"type": "node", "id": 12192881727, "lat": 48.8772519, "lon": 2.3459445, "tags": {"shop": "vacant"}}, {"type": "node", "id": 12194028383, "lat": 48.8749292, "lon": 2.3428833, "tags": {"name": "Les Vergers Cadet", "shop": "florist"}}, {"type": "node", "id": 12194041572, "lat": 48.8772341, "lon": 2.3458482, "tags": {"shop": "vacant"}}, {"type": "node", "id": 12194050179, "lat": 48.8750767, "lon": 2.343248, "tags": {"addr:housenumber": "18", "addr:street": "Rue Cadet", "name": "Alliances plus", "shop": "jewelry", "source": "cadastre-dgi-fr source : Direction G\u00e9n\u00e9rale des Imp\u00f4ts - Cadastre. Mise \u00e0 jour : 2011"}}, {"type": "node", "id": 12194052436, "lat": 48.8772519, "lon": 2.3459445, "tags": {"shop": "vacant"}}, {"type": "node", "id": 12273378967, "lat": 48.8718289, "lon": 2.3460923, "tags": {"addr:city": "Paris", "addr:housenumber": "10", "addr:postcode": "75009", "addr:street": "Rue Rougemont", "check_date": "2025-08-01", "female": "yes", "male": "yes", "name": "O... my Hair", "shop": "hairdresser"}}, {"type": "node", "id": 12273378968, "lat": 48.8719528, "lon": 2.3461294, "tags": {"addr:city": "Paris", "addr:housenumber": "12", "addr:postcode": "75009", "addr:street": "Rue Rougemont", "check_date": "2025-08-01", "check_date:opening_hours": "2025-02-12", "name": "Privil\u00e8ges Voyages", "opening_hours:signed": "no", "shop": "travel_agency"}}, {"type": "node", "id": 12273422962, "lat": 48.8717753, "lon": 2.3460737, "tags": {"addr:city": "Paris", "addr:housenumber": "8", "addr:postcode": "75009", "addr:street": "Rue Rougemont", "check_date": "2025-08-01", "name": "Cordonnier-Bottier", "shop": "shoe_repair"}}, {"type": "node", "id": 12273458702, "lat": 48.8719, "lon": 2.3458718, "tags": {"addr:city": "Paris", "addr:housenumber": "11", "addr:postcode": "75009", "addr:street": "Rue Rougemont", "name": "KeepVap", "shop": "e-cigarette"}}, {"type": "node", "id": 12279250650, "lat": 48.8713651, "lon": 2.3415425, "tags": {"name": "iNumis", "shop": "collector"}}, {"type": "node", "id": 12279255471, "lat": 48.8716327, "lon": 2.341059, "tags": {"shop": "vacant"}}, {"type": "node", "id": 12279266347, "lat": 48.8711628, "lon": 2.3414211, "tags": {"name": "Galerie de la Bourse", "shop": "collector"}}, {"type": "node", "id": 12279267385, "lat": 48.8712837, "lon": 2.3414915, "tags": {"name": "Club fran\u00e7ais du vin", "shop": "wine"}}, {"type": "node", "id": 12279268093, "lat": 48.8712142, "lon": 2.3414528, "tags": {"name": "Richelieu Numismatique", "shop": "collector"}}, {"type": "node", "id": 12285774575, "lat": 48.8757244, "lon": 2.3408586, "tags": {"name": "Diaminor", "shop": "doityourself"}}, {"type": "node", "id": 12285797032, "lat": 48.8765778, "lon": 2.3423819, "tags": {"female": "yes", "male": "yes", "name": "Home Hair", "opening_hours": "Tu-Fr 10:00-20:00; Sa 10:30-18:30", "shop": "hairdresser"}}, {"type": "node", "id": 12285817133, "lat": 48.8765896, "lon": 2.3423133, "tags": {"shop": "vacant"}}, {"type": "node", "id": 12285828602, "lat": 48.8764584, "lon": 2.342006, "tags": {"beauty": "nails", "name": "S. Nail studio", "shop": "beauty"}}, {"type": "node", "id": 12285841363, "lat": 48.8756893, "lon": 2.3414341, "tags": {"name": "Bernard Laurent Philat\u00e9lie", "opening_hours": "Mo-Fr 10:00-12:00,14:00-18:00", "shop": "collector"}}, {"type": "node", "id": 12285845846, "lat": 48.8756967, "lon": 2.3413367, "tags": {"check_date:opening_hours": "2024-10-24", "name": "Bureau philat\u00e9lique d'achats", "opening_hours:signed": "no", "shop": "collector"}}, {"type": "node", "id": 12309195586, "lat": 48.8742256, "lon": 2.3425309, "tags": {"addr:city": "Paris", "addr:housenumber": "2bis", "addr:postcode": "75009", "addr:street": "Rue Cadet", "name": "Les Vergers Cadet", "shop": "greengrocer"}}, {"type": "node", "id": 12309230300, "lat": 48.8744205, "lon": 2.3424949, "tags": {"addr:city": "Paris", "addr:housenumber": "3", "addr:postcode": "75009", "addr:street": "Rue Cadet", "shop": "vacant"}}, {"type": "node", "id": 12309246463, "lat": 48.8743755, "lon": 2.3426526, "tags": {"addr:city": "Paris", "addr:housenumber": "6", "addr:postcode": "75009", "addr:street": "Rue Cadet", "name": "Boucherie Cadet", "shop": "butcher"}}, {"type": "node", "id": 12310231348, "lat": 48.8738629, "lon": 2.3407947, "tags": {"check_date": "2025-11-05", "collector": "stamps", "name": "Beauvais", "shop": "collector"}}, {"type": "node", "id": 12598244653, "lat": 48.872517, "lon": 2.3437951, "tags": {"contact:housenumber": "33", "contact:instagram": "https://www.instagram.com/la.cleanique/", "contact:street": "Rue Berg\u00e8re", "contact:tiktok": "https://www.tiktok.com/@la.cleanique", "name": "La Cleanique", "opening_hours": "Tu-Fr 11:00-14:00,15:00-19:00; Sa 11:00-19:00; Su,Mo off", "opening_hours:url": "https://www.la-cleanique.fr/boutique", "phone": "+33 6 12 45 83 85", "ref:FR:SIRET": "92086573000021", "shop": "shoes", "website": "https://www.la-cleanique.fr/"}}, {"type": "node", "id": 12647751054, "lat": 48.875677, "lon": 2.3480838, "tags": {"name": "Edor", "shop": "general"}}, {"type": "node", "id": 12647786555, "lat": 48.8756674, "lon": 2.3485361, "tags": {"shop": "vacant"}}, {"type": "node", "id": 12647791265, "lat": 48.8772326, "lon": 2.3486251, "tags": {"shop": "florist"}}, {"type": "node", "id": 12647820960, "lat": 48.8756458, "lon": 2.3487067, "tags": {"self_service": "yes", "shop": "laundry"}}, {"type": "node", "id": 12647822642, "lat": 48.8762278, "lon": 2.3485548, "tags": {"contact:city": "Paris", "contact:email": "cyrhab@gmail.com", "contact:housenumber": "72", "contact:phone": "+33 1 47 70 34 10", "contact:postcode": "75010", "contact:street": "Rue du Faubourg Poissonni\u00e8re", "contact:website": "https://www.cyzaro-encadrements.fr/", "name": "Cyzaro", "opening_hours": "Mo off; Tu-Sa 10:00-13:00,14:00-19:00; Su off", "ref:FR:SIRET": "47759067300026", "shop": "craft"}}, {"type": "node", "id": 12710832924, "lat": 48.8735237, "lon": 2.3407218, "tags": {"name": "Tropicana Voyages", "shop": "travel_agency"}}, {"type": "node", "id": 12710850397, "lat": 48.8736146, "lon": 2.3407503, "tags": {"name": "BEHR", "shop": "collector"}}, {"type": "node", "id": 12710853921, "lat": 48.8729156, "lon": 2.3397749, "tags": {"shop": "vacant"}}, {"type": "node", "id": 12731365910, "lat": 48.8716027, "lon": 2.3480496, "tags": {"addr:housenumber": "12", "addr:street": "Rue du Faubourg Poissonni\u00e8re", "check_date": "2025-04-05", "name": "La Parisienne", "opening_hours": "Mo-Sa 07:00-20:00; Su off", "payment:cash": "yes", "payment:credit_cards": "yes", "payment:debit_cards": "yes", "phone": "+33 1 42 36 28 55", "ref:FR:SIRET": "84166072300013", "shop": "bakery", "website": "https://boulangerielaparisienne.com"}}, {"type": "node", "id": 12757412701, "lat": 48.8767236, "lon": 2.3403524, "tags": {"addr:housenumber": "1", "addr:postcode": "75009", "addr:street": "Rue Milton", "contact:instagram": "bonithes_teaspresso", "name": "Bon\u00efth\u00e9s", "opening_hours": "Mo-Fr 09:30-17:00; Sa 09:30-19:30", "phone": "+33 1 83 43 91 05", "shop": "tea"}}, {"type": "node", "id": 12802780734, "lat": 48.8758072, "lon": 2.3395687, "tags": {"shop": "locksmith"}}, {"type": "node", "id": 12802784252, "lat": 48.8771634, "lon": 2.3389117, "tags": {"shop": "antiques"}}, {"type": "node", "id": 12833257579, "lat": 48.8745607, "lon": 2.3427967, "tags": {"addr:city": "Paris", "addr:housenumber": "10", "addr:postcode": "75009", "addr:street": "Rue Cadet", "name": "Maroquinerie Cadet", "shop": "leather"}}, {"type": "node", "id": 12833261907, "lat": 48.8746522, "lon": 2.3428699, "tags": {"addr:city": "Paris", "addr:housenumber": "12", "addr:postcode": "75009", "addr:street": "Rue Cadet", "contact:instagram": "victoire.boulangerie", "name": "Boulangerie Victoire", "opening_hours": "Mo-Fr 07:30-20:00, Sa 08:30-19:00", "organic": "yes", "shop": "bakery"}}, {"type": "node", "id": 12841707440, "lat": 48.8774421, "lon": 2.3486361, "tags": {"shop": "repair"}}, {"type": "node", "id": 12909805494, "lat": 48.8704459, "lon": 2.3455551, "tags": {"addr:city": "Paris", "addr:housenumber": "15", "addr:postcode": "75002", "addr:street": "Rue Saint-Fiacre", "name": "Caf\u00e9 du cycliste", "shop": "sports", "website": "https://www.cafeducycliste.com/"}}, {"type": "node", "id": 12994514256, "lat": 48.8755189, "lon": 2.3421036, "tags": {"name": "Rubens", "opening_hours": "Mo-Sa 10:00-19:30", "shop": "clothes"}}, {"type": "node", "id": 12994514257, "lat": 48.8745564, "lon": 2.3418223, "tags": {"name": "Financier", "shop": "pastry"}}, {"type": "node", "id": 12994514260, "lat": 48.8758379, "lon": 2.3431323, "tags": {"name": "Maison Marois", "opening_hours": "Mo-Fr 08:00-19:00, Sa 10:00-16:00", "ref:FR:SIREN": "304555691", "ref:FR:SIRET": "30455569100019", "ref:vatin": "FR29304555691", "shop": "dry_cleaning"}}, {"type": "node", "id": 12994514261, "lat": 48.8753102, "lon": 2.3422218, "tags": {"contact:phone": "+33 1 42 46 90 74", "name": "Pharaon", "ref:FR:SIREN": "492228010", "ref:FR:SIRET": "49222801000020", "ref:vatin": "FR80492228010", "shop": "jewelry"}}, {"type": "node", "id": 12994514264, "lat": 48.8751626, "lon": 2.3417275, "tags": {"contact:phone": "+33 1 40 62 99 07", "name": "Les \u00celes de Guadeloupe", "shop": "travel_agency", "website": "https://www.lesilesdeguadeloupe.com/"}}, {"type": "node", "id": 12994514266, "lat": 48.8755453, "lon": 2.3421983, "tags": {"contact:phone": "+33 1 85 01 08 20", "name": "Ligne Diamant", "opening_hours": "\"on appointment\"", "shop": "jewelry"}}, {"type": "node", "id": 12994514268, "lat": 48.8754936, "lon": 2.3420068, "tags": {"contact:email": "arev.paris@gmail.com", "contact:phone": "+33 9 87 14 68 88", "name": "Arev", "opening_hours": "Mo-Fr 09:00-18:00", "shop": "craft", "website": "https://arev-paris.com"}}, {"type": "node", "id": 12994514269, "lat": 48.8758083, "lon": 2.3430055, "tags": {"brand": "Cavavin", "name": "Cavavin", "opening_hours": "Mo-Fr 16:30-20:30, Tu-Sa 10:30-14:30, Sa 15:30-20:30", "shop": "alcohol"}}, {"type": "node", "id": 13013201776, "lat": 48.8726032, "lon": 2.3441852, "tags": {"addr:city": "Paris", "addr:housenumber": "30", "addr:postcode": "75009", "addr:street": "Rue Berg\u00e8re", "name": "Alpine", "not:brand:wikidata": "Q26944", "shop": "yes"}}, {"type": "node", "id": 13041176310, "lat": 48.870782, "lon": 2.3460894, "tags": {"check_date": "2025-08-01", "name": "Vapor Light", "shop": "e-cigarette"}}, {"type": "node", "id": 13049552601, "lat": 48.872542, "lon": 2.3422786, "tags": {"contact:city": "Paris 9eme Arrondissement", "contact:housenumber": "42", "contact:phone": "+33 1 42 46 15 09", "contact:postcode": "75009", "contact:street": "Passage Jouffroy", "female": "yes", "male": "yes", "name": "Le Coiffeur Du Passage", "opening_hours": "Tu-Sa 10:00-19:00; Su 12:00-18:00", "ref:FR:SIRET": "92130078600016", "shop": "hairdresser"}}, {"type": "node", "id": 13098210615, "lat": 48.8711879, "lon": 2.3370952, "tags": {"addr:floor": "0", "addr:housenumber": "30", "addr:street": "Rue de Gramont", "check_date": "2025-08-26", "female": "yes", "level": "0", "male": "yes", "shop": "hairdresser", "wheelchair": "limited"}}, {"type": "node", "id": 13181504598, "lat": 48.8752472, "lon": 2.3397579, "tags": {"addr:city": "Paris", "addr:housenumber": "38", "addr:postcode": "75009", "addr:street": "Rue Le Peletier", "name": "PrimaPrix", "shop": "convenience"}}, {"type": "node", "id": 13185524900, "lat": 48.8769165, "lon": 2.3483483, "tags": {"shop": "motorcycle"}}, {"type": "node", "id": 13185596372, "lat": 48.8767502, "lon": 2.3477065, "tags": {"name": "S\u00e9quoia Pressing", "shop": "dry_cleaning"}}, {"type": "node", "id": 13185597539, "lat": 48.8769237, "lon": 2.3484006, "tags": {"shop": "hairdresser"}}, {"type": "node", "id": 13185597649, "lat": 48.8767709, "lon": 2.3477892, "tags": {"shop": "optician"}}, {"type": "node", "id": 13190391543, "lat": 48.8759225, "lon": 2.3449835, "tags": {"name": "L'Eden d'Audrey", "shop": "jewelry"}}, {"type": "node", "id": 13190862000, "lat": 48.8767732, "lon": 2.348612, "tags": {"shop": "vacant"}}, {"type": "node", "id": 13190881064, "lat": 48.8744441, "lon": 2.345485, "tags": {"name": "Ohr Moshe", "shop": "books"}}, {"type": "node", "id": 13190894397, "lat": 48.8769785, "lon": 2.3477071, "tags": {"name": "Mercure Voyages", "ref:FR:SIRET": "80861107300012", "shop": "travel_agency"}}, {"type": "node", "id": 13190896097, "lat": 48.8755122, "lon": 2.3456068, "tags": {"shop": "vacant"}}, {"type": "node", "id": 13190896165, "lat": 48.876866, "lon": 2.3486668, "tags": {"shop": "newsagent"}}, {"type": "node", "id": 13195290749, "lat": 48.8755358, "lon": 2.3483153, "tags": {"name": "Serrurerie Sacksick", "ref:FR:SIRET": "43891180200017", "shop": "locksmith"}}, {"type": "node", "id": 13195290750, "lat": 48.8749654, "lon": 2.3482255, "tags": {"shop": "vacant"}}, {"type": "node", "id": 13195320042, "lat": 48.8748785, "lon": 2.3482075, "tags": {"shop": "vacant"}}, {"type": "node", "id": 13195338153, "lat": 48.8721891, "lon": 2.3480356, "tags": {"name": "Little Fuxia", "shop": "pastry"}}, {"type": "node", "id": 13195346591, "lat": 48.8756158, "lon": 2.3483202, "tags": {"name": "Droguerie Moderne", "shop": "country_store"}}, {"type": "node", "id": 13195347010, "lat": 48.8755604, "lon": 2.3483229, "tags": {"shop": "vacant"}}, {"type": "node", "id": 13195351325, "lat": 48.8715505, "lon": 2.3480557, "tags": {"shop": "vacant"}}, {"type": "node", "id": 13195356370, "lat": 48.8718368, "lon": 2.3480484, "tags": {"name": "HB Informatique", "ref:FR:SIRET": "97959948700019", "shop": "mobile_phone"}}, {"type": "node", "id": 13195356371, "lat": 48.8710855, "lon": 2.3480328, "tags": {"beauty": "cosmetics", "brand": "Body Minute", "brand:wikidata": "Q104972220", "contact:city": "Paris", "contact:housenumber": "4", "contact:postcode": "75010", "contact:street": "Rue du Faubourg Poissonni\u00e8re", "contact:website": "https://bodyminute.com/instituts/paris-7-3401/", "name": "Body Minute", "ref:FR:SIRET": "79972665800021", "shop": "beauty"}}, {"type": "node", "id": 13195359291, "lat": 48.8714028, "lon": 2.3480437, "tags": {"name": "\u00c9den des Sens", "ref:FR:SIRET": "88383643900025", "shop": "beauty"}}, {"type": "node", "id": 13195359529, "lat": 48.8736786, "lon": 2.3480574, "tags": {"contact:city": "Paris", "contact:housenumber": "40 bis", "contact:phone": "+33 9 81 67 62 83", "contact:postcode": "75010", "contact:street": "Rue du Faubourg Poissonni\u00e8re", "contact:website": "https://naturale-paris.fr/", "level": "0", "name": "Naturale", "opening_hours": "Mo-Sa 11:30-22:30", "ref:FR:SIRET": "88089288000019", "shop": "deli"}}, {"type": "node", "id": 13195360915, "lat": 48.8717366, "lon": 2.3480491, "tags": {"contact:city": "Paris", "contact:housenumber": "14", "contact:phone": "+33 1 47 70 24 59", "contact:postcode": "75010", "contact:street": "Rue du Faubourg Poissonni\u00e8re", "name": "Vue du Faubourg", "ref:FR:SIRET": "81739037000010", "shop": "optician"}}, {"type": "node", "id": 13240974474, "lat": 48.8765162, "lon": 2.3490238, "tags": {"contact:city": "Paris", "contact:housenumber": "22", "contact:postcode": "75010", "contact:street": "Rue des Messageries", "male": "yes", "name": "Coiffeur Paris 10", "ref:FR:SIRET": "99280576200018", "shop": "hairdresser"}}, {"type": "node", "id": 13283836896, "lat": 48.8738644, "lon": 2.3381, "tags": {"check_date": "2025-11-05", "check_date:opening_hours": "2025-11-05", "name": "Louis Fouquet", "opening_hours": "Mo-Fr 11:00-18:30; Sa-Su,PH off", "ref:FR:SIRET": "30704735700016", "shop": "chocolate", "website": "https://louisfouquet.fr/pages/nos-boutiques"}}, {"type": "node", "id": 13445096205, "lat": 48.8741129, "lon": 2.341862, "tags": {"addr:city": "Paris", "addr:housenumber": "2", "addr:postcode": "75009", "addr:street": "Rue de Provence", "beauty": "nails;massage;beaut\u00e9_du_regard;esth\u00e9tique", "name": "OuiBeauty - Coworking Beaut\u00e9", "shop": "beauty"}}, {"type": "way", "id": 48920136, "nodes": [620845622, 620845623, 620845624, 620845625, 620845637, 620845638, 620845639, 620845640, 620845641, 620845642, 620845626, 620845627, 620845622], "tags": {"building": "yes", "check_date": "2024-08-20", "noname": "yes", "shop": "kiosk", "source": "cadastre-dgi-fr source : Direction G\u00e9n\u00e9rale des Imp\u00f4ts - Cadastre ; mise \u00e0 jour : 2010"}}, {"type": "way", "id": 54572741, "nodes": [687096945, 687096927, 687096929, 687096931, 687096932, 687096934, 687096936, 687096938, 687096940, 687096942, 687096943, 687096946, 687096945], "tags": {"building": "yes", "building:levels": "1", "shop": "kiosk", "source": "cadastre-dgi-fr source : Direction G\u00e9n\u00e9rale des Imp\u00f4ts - Cadastre. Mise \u00e0 jour : 2010"}}, {"type": "way", "id": 54645608, "nodes": [687892377, 687893016, 687892757, 687892833, 687892527, 687892835, 687892531, 687892718, 687892386, 687892480, 687892972, 687893112, 687892377], "tags": {"building": "kiosk", "building:levels": "1", "check_date:opening_hours": "2024-10-22", "noname": "yes", "opening_hours:signed": "no", "shop": "newsagent", "source": "cadastre-dgi-fr source : Direction G\u00e9n\u00e9rale des Imp\u00f4ts - Cadastre. Mise \u00e0 jour : 2010"}}, {"type": "way", "id": 54901184, "nodes": [690982383, 690981979, 690982062, 690982169, 690982332, 690982017, 690982383], "tags": {"building": "yes", "check_date": "2025-08-06", "height": "3", "noname": "yes", "shop": "newsagent", "source": "cadastre-dgi-fr source : Direction G\u00e9n\u00e9rale des Imp\u00f4ts - Cadastre. Mise \u00e0 jour : 2010"}}, {"type": "way", "id": 69220168, "nodes": [829894284, 829899422, 1242504175, 829899139, 829896463, 829894143, 829896384, 829900157, 829894284], "tags": {"addr:housenumber": "16", "addr:postcode": "75009", "addr:street": "Rue du Faubourg Montmartre", "brand": "Monop'", "brand:wikidata": "Q89913683", "building": "retail", "building:levels": "5", "name": "Monop'", "opening_hours": "Mo-Sa 08:00-23:50; Su 08:00-13:00", "operator": "Groupe Casino", "phone": "+33 1 44 79 35 10", "shop": "convenience", "source": "Cadastre. Mise \u00e0 jour : 2010;survey", "supermarket": "yes", "supermarket:FR": "supermarch\u00e9", "website": "https://www.monoprix.fr/monop-faubourg-montmartre-paris-09-75009-s"}}, {"type": "way", "id": 69220546, "nodes": [829896185, 829901813, 829901961, 829894286, 829897626, 829896043, 829896185], "tags": {"building": "yes", "check_date": "2024-09-06", "noname": "yes", "shop": "newsagent", "source": "cadastre-dgi-fr source : Direction G\u00e9n\u00e9rale des Imp\u00f4ts - Cadastre. Mise \u00e0 jour : 2010"}}, {"type": "way", "id": 69220752, "nodes": [829902132, 829894999, 829901743, 829893736, 829891548, 829900564, 829899430, 829900226, 829894359, 829891857, 829898126, 829900605, 829902132], "tags": {"building": "yes", "check_date": "2025-08-01", "height": "3", "name": "kiosque de paris", "shop": "newsagent", "source": "cadastre-dgi-fr source : Direction G\u00e9n\u00e9rale des Imp\u00f4ts - Cadastre. Mise \u00e0 jour : 2010"}}, {"type": "way", "id": 69417178, "nodes": [831432982, 831438007, 831435964, 831441111, 831432982], "tags": {"building": "shed", "check_date": "2024-09-06", "name": "Le Kiosque de Paris", "opening_hours": "Mo-Sa 07:00-20:00; Su 09:00-14:00", "shop": "kiosk", "source": "survey"}}, {"type": "way", "id": 83441807, "nodes": [971476102, 971476134, 971476119, 1979474797, 971476177, 971476002, 971476102], "tags": {"building": "yes", "check_date": "2024-01-06", "name": "Le Kiosque de Paris", "opening_hours": "Mo-Sa 06:30-19:15", "shop": "newsagent", "source": "survey; bing"}}, {"type": "way", "id": 206287504, "nodes": [2162859971, 2162859970, 831437398, 831431223, 2162859971], "tags": {"check_date": "2024-09-23", "name": "RAP \u00e9picerie italienne", "shop": "deli", "source": "survey"}}, {"type": "way", "id": 244100893, "nodes": [2514493580, 2514493579, 831443021, 1242438632, 2514493580], "tags": {"check_date": "2024-09-23", "name": "Bazar", "shop": "variety_store"}}, {"type": "way", "id": 275266164, "nodes": [2799010413, 2799010410, 2799010408, 2799010409, 2799010411, 2799010412, 2799010413], "tags": {"building": "kiosk", "name": "Kiosque", "shop": "newsagent", "source": "survey"}}]}