{"version": 0.6, "generator": "Overpass API 0.7.62.8 e802775f", "osm3s": {"timestamp_osm_base": "2026-01-13T19:32:00Z", "copyright": "The data included in this document is from www.openstreetmap.org. The data is made available under ODbL."}, "elements": [{"type": "node", "id": 251056295, "lat": 48.8577196, "lon": 2.3565683, "tags": {"addr:postcode": "75004", "amenity": "cafe", "name": "Mariage Fr\u00e8res", "name:en": "Mariage Fr\u00e8res", "name:fr": "Mariage Fr\u00e8res", "shop": "tea", "wheelchair": "no"}}, {"type": "node", "id": 251126327, "lat": 48.8577212, "lon": 2.3576336, "tags": {"brand": "Dinh Van", "brand:wikidata": "Q105324937", "check_date": "2025-07-29", "name": "Dinh Van", "shop": "jewelry"}}, {"type": "node", "id": 320799693, "lat": 48.8573608, "lon": 2.3525818}, {"type": "node", "id": 320799695, "lat": 48.8574976, "lon": 2.3540622}, {"type": "node", "id": 320799696, "lat": 48.8570636, "lon": 2.3537783}, {"type": "node", "id": 320799890, "lat": 48.8574538, "lon": 2.3523721, "tags": {"brand": "Foot Locker", "brand:wikidata": "Q63335", "brand:wikipedia": "en:Foot Locker", "check_date": "2025-11-01", "check_date:opening_hours": "2025-11-01", "level": "0", "name": "Foot Locker", "opening_hours": "Mo-Sa 10:30-19:00; Su 11:00-19:00", "shop": "shoes", "source": "survey", "wheelchair": "yes"}}, {"type": "node", "id": 322681096, "lat": 48.8544379, "lon": 2.3558365, "tags": {"addr:city": "Paris", "addr:housenumber": "52", "addr:postcode": "75004", "addr:street": "Rue de l'H\u00f4tel de Ville", "amenity": "cafe", "cuisine": "coffee_shop", "description": "No computers during the weekend", "level": "0", "name": "Caf\u00e9oth\u00e8que de Paris", "name:fr": "Caf\u00e9oth\u00e8que de Paris", "opening_hours": "Mo-Su 09:30-19:00", "outdoor_seating": "yes", "phone": "+33 1 53 01 83 84", "ref:FR:SIRET": "47970109600014", "shop": "coffee", "smoking": "outside", "toilets": "yes", "toilets:access": "customers", "toilets:disposal": "flush", "toilets:position": "seated", "toilets:wheelchair": "no", "website": "https://www.lacafeotheque.com/", "wheelchair": "no"}}, {"type": "node", "id": 599513255, "lat": 48.8584619, "lon": 2.355033, "tags": {"brand": "Birkenstock", "brand:website": "https://www.birkenstock.com/", "brand:wikidata": "Q648458", "contact:city": "Paris", "contact:housenumber": "17", "contact:instagram": "birkenstock", "contact:postcode": "75004", "contact:street": "Rue des Archives", "name": "Birkenstock", "opening_hours": "Mo-Sa 10:30-19:30", "shop": "shoes"}}, {"type": "node", "id": 599514189, "lat": 48.8576516, "lon": 2.3575598, "tags": {"brand": "Thomas Sabo", "brand:wikidata": "Q13415716", "brand:wikipedia": "en:Thomas Sabo", "check_date": "2025-07-29", "name": "Thomas Sabo", "shop": "jewelry"}}, {"type": "node", "id": 647811682, "lat": 48.8578784, "lon": 2.3534515, "tags": {"bicycle:type": "electric", "name": "Mobicity", "opening_hours": "Mo-Sa 10:00-20:00; Su 11:00-19:00", "service:bicycle:pump": "yes", "service:bicycle:retail": "yes", "shop": "bicycle", "survey:date": "2025-03-25", "wheelchair": "yes"}}, {"type": "node", "id": 658959185, "lat": 48.8575059, "lon": 2.3526422, "tags": {"amenity": "atm", "brand": "SG", "brand:wikidata": "Q270363", "brand:wikipedia": "en:Soci\u00e9t\u00e9 G\u00e9n\u00e9rale", "cash_in": "no", "check_date": "2024-10-30", "indoor": "no", "name": "SG", "operator": "SG", "operator:wikidata": "Q270363", "operator:wikipedia": "en:Soci\u00e9t\u00e9 G\u00e9n\u00e9rale"}}, {"type": "node", "id": 687023931, "lat": 48.8523022, "lon": 2.3568136, "tags": {"addr:city": "Paris", "addr:housenumber": "35", "addr:postcode": "75004", "addr:street": "Rue des Deux Ponts", "disused:shop": "bakery", "level": "0", "old_name": "Boulangerie des Deux-Ponts", "shop": "vacant"}}, {"type": "node", "id": 693542162, "lat": 48.8573273, "lon": 2.3527095}, {"type": "node", "id": 693542164, "lat": 48.8573332, "lon": 2.3527051}, {"type": "node", "id": 693542165, "lat": 48.8573301, "lon": 2.3526682}, {"type": "node", "id": 693542167, "lat": 48.8573784, "lon": 2.3525681, "tags": {"access": "yes", "entrance": "shop"}}, {"type": "node", "id": 693542168, "lat": 48.857396, "lon": 2.3525621}, {"type": "node", "id": 693542170, "lat": 48.8573404, "lon": 2.3526161}, {"type": "node", "id": 693542172, "lat": 48.8573218, "lon": 2.3527088}, {"type": "node", "id": 693542173, "lat": 48.8574523, "lon": 2.3525904}, {"type": "node", "id": 693542174, "lat": 48.8574745, "lon": 2.3526301}, {"type": "node", "id": 693542176, "lat": 48.8574198, "lon": 2.352564}, {"type": "node", "id": 693542177, "lat": 48.857466, "lon": 2.3526191}, {"type": "node", "id": 693542178, "lat": 48.8574836, "lon": 2.3526216}, {"type": "node", "id": 693542180, "lat": 48.8574799, "lon": 2.3526279}, {"type": "node", "id": 693542181, "lat": 48.8574771, "lon": 2.352624}, {"type": "node", "id": 693542182, "lat": 48.8574409, "lon": 2.3525766}, {"type": "node", "id": 693542184, "lat": 48.8578347, "lon": 2.3529439}, {"type": "node", "id": 693542187, "lat": 48.8578462, "lon": 2.3529624}, {"type": "node", "id": 693542188, "lat": 48.8578333, "lon": 2.3529494}, {"type": "node", "id": 693542189, "lat": 48.857857, "lon": 2.3529784}, {"type": "node", "id": 693542192, "lat": 48.8578707, "lon": 2.3530175}, {"type": "node", "id": 693542193, "lat": 48.8578731, "lon": 2.3530474}, {"type": "node", "id": 693542195, "lat": 48.8578724, "lon": 2.3530659}, {"type": "node", "id": 693542197, "lat": 48.8578646, "lon": 2.3531009}, {"type": "node", "id": 693542199, "lat": 48.8570937, "lon": 2.3538754}, {"type": "node", "id": 693542200, "lat": 48.8574464, "lon": 2.3540721}, {"type": "node", "id": 693542201, "lat": 48.8574478, "lon": 2.3540668}, {"type": "node", "id": 693542204, "lat": 48.8574726, "lon": 2.3540707}, {"type": "node", "id": 693542206, "lat": 48.8575389, "lon": 2.3540023}, {"type": "node", "id": 693542208, "lat": 48.8575351, "lon": 2.3540001}, {"type": "node", "id": 693542209, "lat": 48.8575284, "lon": 2.3540239}, {"type": "node", "id": 693542211, "lat": 48.8575083, "lon": 2.3540541}, {"type": "node", "id": 697036759, "lat": 48.8528423, "lon": 2.3539392, "tags": {"email": "galeriekara@hotmail.com", "name": "Galerie Kara", "phone": "+33 1 46 34 20 80", "shop": "art", "website": "https://www.galerie-kara.com", "wheelchair": "no"}}, {"type": "node", "id": 697179489, "lat": 48.8576618, "lon": 2.3525656, "tags": {"check_date": "2025-10-20", "indoor_seating": "no", "name": "The French Bastards", "opening_hours": "Mo-Fr 07:30-20:00; Sa 08:30-20:00; Su 08:30-18:00", "outdoor_seating": "no", "shop": "bakery", "source": "survey", "takeaway": "only", "wheelchair": "limited"}}, {"type": "node", "id": 699045915, "lat": 48.8557094, "lon": 2.3567969, "tags": {"addr:housenumber": "36", "addr:postcode": "75004", "addr:street": "Rue Fran\u00e7ois Miron", "entrance": "yes", "name": "Ikat", "shop": "fashion_accessories", "source": "survey", "website": "https://www.ikat.fr/"}}, {"type": "node", "id": 699193918, "lat": 48.8560141, "lon": 2.3571788, "tags": {"check_date": "2025-12-08", "name": "Voltaire", "opening_hours": "Tu 10:00-18:00; We-Sa 10:00-19:00", "shop": "bicycle", "survey:date": "2025-11-03", "website": "https://voltaire.bike/", "wheelchair": "yes"}}, {"type": "node", "id": 699225086, "lat": 48.8574817, "lon": 2.3563863, "tags": {"brand": "Franprix", "brand:wikidata": "Q2420096", "brand:wikipedia": "fr:Franprix", "name": "Franprix", "opening_hours": "Mo-Su 09:00-22:00", "operator": "Groupe Casino", "shop": "convenience", "source": "cadastre-dgi-fr source : Direction G\u00e9n\u00e9rale des Imp\u00f4ts - Cadastre. Mise \u00e0 jour : 2010", "website": "https://www.franprix.fr/magasins/5524", "wheelchair": "yes"}}, {"type": "node", "id": 699897156, "lat": 48.8583173, "lon": 2.3517204, "tags": {"shop": "vacant", "source": "survey"}}, {"type": "node", "id": 700449268, "lat": 48.8578342, "lon": 2.3531851, "tags": {"addr:housenumber": "55", "entrance": "service", "source": "survey", "survey:date": "2025-10-30"}}, {"type": "node", "id": 700449351, "lat": 48.8572003, "lon": 2.3539349, "tags": {"entrance": "shop", "note": "pas de plaque mais entr\u00e9e de Terraza mikuna qui a pour adresse \"1\"", "source": "survey"}}, {"type": "node", "id": 701538312, "lat": 48.8589539, "lon": 2.3541027, "tags": {"addr:housenumber": "52", "addr:street": "Rue Sainte-Croix de la Bretonnerie", "check_date": "2025-12-19", "name": "Fleux", "opening_hours": "Mo 10:15-20:45; Tu 09:45-21:30; We 09:30-21:30; Th 09:15-21:30; Fr-Sa 09:15-21:45; Su 09:15-21:00", "shop": "interior_decoration", "website": "https://www.fleux.com/", "wheelchair": "limited"}}, {"type": "node", "id": 702269200, "lat": 48.8578072, "lon": 2.3543327}, {"type": "node", "id": 702269499, "lat": 48.857791, "lon": 2.3543174}, {"type": "node", "id": 702269576, "lat": 48.8577764, "lon": 2.3544029}, {"type": "node", "id": 702793843, "lat": 48.8568405, "lon": 2.3570784, "tags": {"branch": "Spa", "brand": "Lush", "brand:wikidata": "Q1585448", "name": "Lush", "shop": "cosmetics", "wheelchair": "limited"}}, {"type": "node", "id": 702915150, "lat": 48.8565503, "lon": 2.3573564, "tags": {"addr:housenumber": "48", "addr:street": "Rue du roi de Sicile", "check_date": "2024-04-06", "description": "Magasin de pantalons", "name": "LePantalon Marais", "opening_hours": "Mo-We 11:30-15:00, 15:30-20:00; Th, Fr 11:30-20:00; Sa 10:30-20:00; Su 11:00-13:00, 13:30-19:00", "phone": "+33 9 81 33 83 59", "shop": "clothes", "source": "cadastre-dgi-fr source : Direction G\u00e9n\u00e9rale des Imp\u00f4ts - Cadastre. Mise \u00e0 jour : 2010", "website": "https://lepantalon.fr"}}, {"type": "node", "id": 702976974, "lat": 48.8572474, "lon": 2.3590633, "tags": {"contact:city": "Paris", "contact:housenumber": "24", "contact:postcode": "75004", "contact:street": "Rue des \u00c9couffes", "name": "Florence Kahn", "shop": "bakery", "source": "cadastre-dgi-fr source : Direction G\u00e9n\u00e9rale des Imp\u00f4ts - Cadastre. Mise \u00e0 jour : 2010", "survey:date": "2025-04-14"}}, {"type": "node", "id": 702976977, "lat": 48.857583, "lon": 2.3596215}, {"type": "node", "id": 702977029, "lat": 48.8576591, "lon": 2.3599366}, {"type": "node", "id": 702977200, "lat": 48.8579024, "lon": 2.3601054, "tags": {"addr:housenumber": "39", "source": "cadastre-dgi-fr source : Direction G\u00e9n\u00e9rale des Imp\u00f4ts - Cadastre. Mise \u00e0 jour : 2010"}}, {"type": "node", "id": 702977263, "lat": 48.857485, "lon": 2.3597411}, {"type": "node", "id": 702977264, "lat": 48.8579353, "lon": 2.3600424}, {"type": "node", "id": 702977314, "lat": 48.857869, "lon": 2.3601704}, {"type": "node", "id": 703406873, "lat": 48.856241, "lon": 2.359371, "tags": {"check_date": "2024-08-04", "contact:city": "Paris", "contact:housenumber": "10", "contact:postcode": "75004", "contact:street": "Rue Ferdinand Duval", "name": "The Different Company \u9999\u6c34", "shop": "cosmetics", "source": "cadastre-dgi-fr source : Direction G\u00e9n\u00e9rale des Imp\u00f4ts - Cadastre. Mise \u00e0 jour : 2010"}}, {"type": "node", "id": 703407155, "lat": 48.8566522, "lon": 2.3595513, "tags": {"addr:housenumber": "15", "addr:postcode": "75004", "addr:street": "Rue Ferdinand Duval", "email": "contact@jhinparis.com", "name": "Jhin tissus japonais", "phone": "+33 1 83 06 42 53", "shop": "fashion_accessories", "source": "cadastre-dgi-fr source : Direction G\u00e9n\u00e9rale des Imp\u00f4ts - Cadastre. Mise \u00e0 jour : 2010", "website": "https://www.jhinparis.com/"}}, {"type": "node", "id": 703504402, "lat": 48.8552409, "lon": 2.3597624, "tags": {"brand": "Franprix", "brand:wikidata": "Q2420096", "brand:wikipedia": "fr:Franprix", "check_date": "2025-11-10", "check_date:opening_hours": "2025-11-10", "contact:city": "Paris", "contact:housenumber": "135", "contact:postcode": "75004", "contact:street": "Rue Saint-Antoine", "name": "Franprix", "opening_hours": "Mo-Sa 07:30-23:00; Su 08:30-21:00", "operator": "Groupe Casino", "ref:FR:SIRET": "31955685800029", "shop": "convenience", "source": "survey", "website": "https://www.franprix.fr/magasins/8047", "wheelchair": "yes"}}, {"type": "node", "id": 704820444, "lat": 48.8553844, "lon": 2.3587402, "tags": {"addr:city": "Paris", "addr:housenumber": "72", "addr:postcode": "75004", "addr:street": "rue Fran\u00e7ois Miron", "description": "Fleurs et plantes artificielles haut de gamme en tissu", "name": "Flora Magnifica", "shop": "florist", "source": "cadastre-dgi-fr source : Direction G\u00e9n\u00e9rale des Imp\u00f4ts - Cadastre. Mise \u00e0 jour : 2010", "website": "https://floramagnifica.com/"}}, {"type": "node", "id": 716014965, "lat": 48.8583528, "lon": 2.3594732, "tags": {"addr:city": "Paris", "addr:housenumber": "38", "addr:street": "Rue des Francs Bourgeois", "brand": "Bimba y Lola", "brand:wikidata": "Q54869493", "brand:wikipedia": "es:Bimba y Lola", "check_date": "2025-06-12", "clothes": "women", "name": "Bimba y Lola", "shop": "clothes", "source": "cadastre-dgi-fr source : Direction G\u00e9n\u00e9rale des Imp\u00f4ts - Cadastre. Mise \u00e0 jour : 2010", "wheelchair": "limited"}}, {"type": "node", "id": 729805498, "lat": 48.8583951, "lon": 2.3558144, "tags": {"brand": "La F\u00e9e Marabout\u00e9e", "brand:wikidata": "Q105429377", "clothes": "women", "name": "La F\u00e9e Marabout\u00e9e", "shop": "clothes", "website": "https://lafeemaraboutee.fr/pages/store/paris-04", "wheelchair": "no"}}, {"type": "node", "id": 974634167, "lat": 48.8526008, "lon": 2.3546059, "tags": {"name": "Boulangerie Saint-Louis", "opening_hours": "07:30-19:30", "shop": "bakery"}}, {"type": "node", "id": 1014690224, "lat": 48.8582211, "lon": 2.3516426, "tags": {"shop": "vacant", "source": "survey"}}, {"type": "node", "id": 1166729235, "lat": 48.8596781, "lon": 2.3562764, "tags": {"check_date": "2025-07-07", "name": "Maison Fleurus", "shop": "florist", "wheelchair": "limited"}}, {"type": "node", "id": 1252379719, "lat": 48.858174, "lon": 2.3526655, "tags": {"contact:city": "Paris", "contact:housenumber": "50", "contact:postcode": "75004", "contact:street": "Rue de la Verrerie", "name": "Le petit Souk", "opening_hours": "Mo 11:00-19:30, Tu-Sa 10:30-19:30, Su 14:00-19:30", "shop": "baby_goods", "website": "https://www.lepetitsouk.fr/stores/le-petit-souk-paris-4e"}}, {"type": "node", "id": 1369678524, "lat": 48.8560732, "lon": 2.3569112, "tags": {"brand": "Yuba;Urban arrow;Tern;Moustache;Cannondale;Peugeot;Gitane;Giant;Winora;Haibike", "check_date": "2025-12-08", "name": "Ecox", "opening_hours": "Tu-Sa 09:30-14:00,15:00-19:00", "service:bicycle:ebike": "yes", "service:bicycle:rental": "yes", "service:bicycle:repair": "yes", "service:bicycle:retail": "yes", "shop": "bicycle", "website": "https://www.ecox.fr/nos-magasins/rivoli"}}, {"type": "node", "id": 1430900305, "lat": 48.8578215, "lon": 2.3585267, "tags": {"description": "Librairie ind\u00e9pendante", "name": "Librairie du Temple", "shop": "books"}}, {"type": "node", "id": 1430900311, "lat": 48.8577488, "lon": 2.3574229, "tags": {"brand": "Dr. Martens", "brand:wikidata": "Q1126126", "brand:wikipedia": "en:Dr. Martens", "check_date": "2024-08-17", "level": "0", "name": "Dr. Martens", "organic": "no", "second_hand": "no", "shop": "shoes", "toilets": "no", "wheelchair": "designated"}}, {"type": "node", "id": 1587241451, "lat": 48.85045, "lon": 2.3595808, "tags": {"addr:city": "Paris", "addr:housenumber": "5", "addr:postcode": "75004", "addr:street": "Boulevard Henri IV", "name": "Garage de l\u2019\u00cele Saint-Louis", "opening_hours": "Mo-Su 08:30-12:30,14:00-18:00", "shop": "car_repair"}}, {"type": "node", "id": 1805290620, "lat": 48.8569967, "lon": 2.3557059, "tags": {"alt_name": "Boulangerie Heurtier", "check_date": "2025-12-08", "delivery": "no", "email": "boulangerie.river@gmail.com", "facebook": "https://www.facebook.com/laboulangeriedumarais/", "indoor_seating": "yes", "name": "La Boulangerie du Marais", "outdoor_seating": "sidewalk", "phone": "+33 1 40 27 91 97", "ref:FR:SIRET": "43803758200030", "shop": "bakery", "source": "survey", "takeaway": "yes", "wheelchair": "yes"}}, {"type": "node", "id": 2003145867, "lat": 48.8592164, "lon": 2.3534263, "tags": {"addr:housenumber": "10", "addr:postcode": "75004", "addr:street": "Rue Saint-Merri", "level": "0", "shop": "vacant"}}, {"type": "node", "id": 2144935687, "lat": 48.8577198, "lon": 2.3543453}, {"type": "node", "id": 2144935688, "lat": 48.8577524, "lon": 2.3542788}, {"type": "node", "id": 2211556506, "lat": 48.8576638, "lon": 2.3504734, "tags": {"check_date:opening_hours": "2022-10-01", "contact:email": "info@maison-astronomie.com", "contact:phone": "+331 42 77 99 55", "contact:website": "https://www.maison-astronomie.com/", "name": "Le Monde de l'observation", "opening_hours": "Tu-Sa 10:15-18:30", "shop": "astronomy", "wheelchair": "limited"}}, {"type": "node", "id": 2211556511, "lat": 48.8568684, "lon": 2.353493, "tags": {"noname": "yes", "shop": "kiosk", "wheelchair": "yes"}}, {"type": "node", "id": 2386622176, "lat": 48.8564455, "lon": 2.3565331, "tags": {"check_date": "2025-12-08", "name": "Vivaldi", "shop": "shoes", "source": "survey 2013", "wheelchair": "limited"}}, {"type": "node", "id": 2389309642, "lat": 48.8579302, "lon": 2.3599733, "tags": {"check_date": "2025-06-28", "check_date:opening_hours": "2025-06-28", "name": "G\u00e9rard Darel", "opening_hours": "Mo-Fr 10:30-19:30; Sa 10:00-19:30; Su 11:00-19:00", "shop": "clothes", "source": "survey 2013", "wheelchair": "yes"}}, {"type": "node", "id": 2389311356, "lat": 48.8581991, "lon": 2.3598364, "tags": {"brand": "Claudie Pierlot", "brand:wikidata": "Q113516684", "brand:wikipedia": "fr:Claudie Pierlot", "check_date": "2025-06-12", "check_date:opening_hours": "2024-12-01", "clothes": "women", "name": "Claudie Pierlot", "opening_hours": "Mo-Sa 11:00-20:00; Su 11:00-19:00", "shop": "clothes", "source": "survey 2013", "wheelchair": "no"}}, {"type": "node", "id": 2389313449, "lat": 48.8581817, "lon": 2.3594954, "tags": {"check_date": "2025-06-28", "check_date:opening_hours": "2025-06-28", "name": "Sess\u00f9n", "opening_hours": "Mo-Sa 10:30-19:30; Su 11:00-19:00", "shop": "clothes", "source": "survey 2019", "wheelchair": "no"}}, {"type": "node", "id": 2389313450, "lat": 48.8582122, "lon": 2.3594424, "tags": {"check_date": "2025-06-28", "check_date:opening_hours": "2025-06-28", "name": "Zapa", "opening_hours": "Su,Mo 11:00-19:00; Tu-Sa 10:00-19:30", "payment:cash": "yes", "payment:credit_cards": "yes", "payment:debit_cards": "yes", "payment:visa": "yes", "shop": "clothes", "source": "survey 2019", "wheelchair": "no"}}, {"type": "node", "id": 2389313451, "lat": 48.8582676, "lon": 2.3597708, "tags": {"check_date": "2025-06-12", "name": "Esteban", "shop": "perfumery", "source": "survey 2013", "wheelchair": "no"}}, {"type": "node", "id": 2389313730, "lat": 48.8582221, "lon": 2.3589918, "tags": {"name": "Muji", "opening_hours": "Mo-Fr 10:00-19:30; Sa 10:00-20:00; Su 12:00-19:00", "phone": "+331 49 96 41 41", "shop": "houseware", "source": "survey 2013", "website": "https://www.muji.eu/", "wheelchair": "no"}}, {"type": "node", "id": 2389314287, "lat": 48.8585167, "lon": 2.3587936, "tags": {"brand": "Sandro", "brand:wikidata": "Q3472022", "check_date": "2025-06-12", "name": "Sandro", "shop": "clothes", "survey:date": "2025-04-14"}}, {"type": "node", "id": 2389315295, "lat": 48.8586947, "lon": 2.3589293, "tags": {"brand": "Zadig & Voltaire", "brand:wikidata": "Q3574548", "brand:wikipedia": "fr:Zadig & Voltaire", "check_date": "2025-06-12", "name": "Zadig & Voltaire", "shop": "clothes", "source": "survey 2013", "wheelchair": "yes"}}, {"type": "node", "id": 2389315296, "lat": 48.858829, "lon": 2.35882, "tags": {"alt_name": "Salomon Sports", "brand": "Salomon", "brand:wikidata": "Q2120822", "clothes": "outdoor;sports", "name": "Salomon", "shop": "clothes", "source": "survey 2013"}}, {"type": "node", "id": 2389317628, "lat": 48.8587371, "lon": 2.3584631, "tags": {"brand:wikidata": "Q2407783", "brand:wikipedia": "fr:Parfumerie Fragonard", "check_date": "2025-06-12", "name": "Fragonard", "name:zh": "\u82b1\u5bab\u5a1c", "shop": "perfumery", "source": "survey 2013", "survey:date": "2025-04-14", "wheelchair": "no"}}, {"type": "node", "id": 2389318674, "lat": 48.8588427, "lon": 2.3583233, "tags": {"check_date": "2025-06-12", "name": "maison lurex", "opening_hours": "Mo-Sa 11:00-19:00; Su 12:00-19:00", "shop": "clothes", "source": "survey 2013"}}, {"type": "node", "id": 2389318675, "lat": 48.8588902, "lon": 2.3582411, "tags": {"shop": "vacant", "survey:date": "2025-04-14"}}, {"type": "node", "id": 2389318676, "lat": 48.8588028, "lon": 2.3583848, "tags": {"check_date": "2025-06-12", "name": "Antoine&Lili", "shop": "clothes", "source": "survey 2013", "survey:date": "2025-04-14", "wheelchair": "no"}}, {"type": "node", "id": 2465870492, "lat": 48.8556271, "lon": 2.3576313, "tags": {"facebook": "https://www.facebook.com/aupetitversaillesdumarais/", "name": "Au petit Versailles du Marais", "opening_hours": "Mo-Sa 08:00-20:00", "shop": "bakery"}}, {"type": "node", "id": 2535031371, "lat": 48.859876, "lon": 2.3564763, "tags": {"name": "Grungemania store", "shop": "clothes"}}, {"type": "node", "id": 2535031372, "lat": 48.8598349, "lon": 2.3564306, "tags": {"check_date": "2024-06-23", "name": "jadisetgourmande", "opening_hours": "Mo-Sa 10:00-20:00, Su 10:30-19:30", "shop": "confectionery", "source": "survey", "wheelchair": "yes"}}, {"type": "node", "id": 2535031374, "lat": 48.8599693, "lon": 2.3565742, "tags": {"check_date": "2024-06-23", "name": "Les Opticiens du Marais", "opening_hours": "Su,Mo 14:00-19:00, Fr,Sa 10:00-19:30, Tu-Th 10:00-13:00,14:00-19:30", "shop": "optician", "source": "survey", "wheelchair": "no"}}, {"type": "node", "id": 2536521850, "lat": 48.8500976, "lon": 2.3507864, "tags": {"name": "\u00c0 l'\u00c9pi d'Or", "shop": "bathrooms", "source": "survey", "website": "https://alepidor.com/"}}, {"type": "node", "id": 2595414642, "lat": 48.8576788, "lon": 2.3536151, "tags": {"entrance": "yes"}}, {"type": "node", "id": 2650522657, "lat": 48.8592435, "lon": 2.355152, "tags": {"name": "I-Run", "opening_hours": "Mo-Sa 11:00-19:30, Su 13:30-18:30", "shop": "sports", "sport": "running", "website": "https://www.i-run.fr"}}, {"type": "node", "id": 2685586034, "lat": 48.8585959, "lon": 2.3511475, "tags": {"brand": "Naturalia", "brand:wikidata": "Q3337081", "brand:wikipedia": "fr:Naturalia", "check_date:opening_hours": "2025-10-14", "contact:city": "Paris", "contact:housenumber": "87", "contact:phone": "+33 1 40 27 86 99", "contact:postcode": "75004", "contact:street": "Rue de la Verrerie", "contact:website": "https://magasins.naturalia.fr/naturalia/fr/store/france/ile-de-france/paris/paris/verrerie/3922", "name": "Naturalia", "opening_hours": "Mo-Sa 09:00-20:45; Su 09:00-19:00", "operator": "Groupe Casino", "organic": "only", "shop": "supermarket", "wheelchair": "yes"}}, {"type": "node", "id": 2685586359, "lat": 48.8585136, "lon": 2.351317, "tags": {"branch": "La Verrerie", "brand": "Franprix", "brand:wikidata": "Q2420096", "brand:wikipedia": "fr:Franprix", "changing_table": "no", "check_date": "2024-10-26", "contact:city": "Paris", "contact:housenumber": "81", "contact:postcode": "75004", "contact:street": "Rue de la Verrerie", "level": "0", "name": "Franprix", "opening_hours": "Mo-Sa 07:30-22:00; Su 09:00-22:00", "operator": "Groupe Casino", "organic": "yes", "shop": "convenience", "toilets": "no", "website": "https://www.franprix.fr/magasins/6866", "wheelchair": "yes"}}, {"type": "node", "id": 2708872305, "lat": 48.8550835, "lon": 2.3594569, "tags": {"check_date": "2024-08-25", "description": "Bijoux et objets artisanaux d'Asie centrale et d'Inde", "name": "Koutchi", "opening_hours": "Mo-Sa 10:30-19:00, Tu-Fr 10:00-19:00", "phone": "+33 1 40 27 95 75", "shop": "jewelry", "wheelchair": "no"}}, {"type": "node", "id": 2708872307, "lat": 48.8548916, "lon": 2.3592892, "tags": {"check_date": "2024-08-25", "name": "Galerie Pamyr", "opening_hours": "Mo-Tu,Th 10:30-19:00, We,Fr 10:30-13:00,14:00-19:00, Sa 11:00-19:00", "phone": "+33 1 42 72 07 92", "shop": "art", "wheelchair": "no"}}, {"type": "node", "id": 2708917275, "lat": 48.8542417, "lon": 2.3597726, "tags": {"name": "Galerie bin\u00f4me", "shop": "art", "wheelchair": "yes"}}, {"type": "node", "id": 2774574304, "lat": 48.8553679, "lon": 2.357291, "tags": {"name": "Croix-Rouge", "official_name": "Croix-Rouge fran\u00e7aise", "opening_hours": "We-Fr 14:00-19:00; Sa 11:00-19:00", "operator": "Croix-Rouge fran\u00e7aise", "shop": "charity"}}, {"type": "node", "id": 2821707601, "lat": 48.8574307, "lon": 2.3500869, "tags": {"female": "yes", "male": "yes", "name": "Y salon", "shop": "hairdresser", "source": "survey", "website": "https://y-coiffure.com/", "wheelchair": "yes"}}, {"type": "node", "id": 2849884001, "lat": 48.8583565, "lon": 2.3549499, "tags": {"check_date": "2024-08-10", "name": "Archives Mini-Market", "shop": "convenience", "source": "survey"}}, {"type": "node", "id": 2849884002, "lat": 48.8586529, "lon": 2.3552257, "tags": {"brand": "The Kooples", "brand:website": "https://www.thekooples.com", "brand:wikidata": "Q3521493", "brand:wikipedia": "fr:The Kooples", "check_date": "2023-08-16", "name": "The Kooples", "opening_hours": "Mo-Su 11:00-19:00", "shop": "clothes", "source": "survey", "wheelchair": "limited"}}, {"type": "node", "id": 2849885928, "lat": 48.8592751, "lon": 2.3537685, "tags": {"addr:housenumber": "31", "addr:street": "Rue du Temple", "brand": "Carrefour", "brand:wikidata": "Q217599", "check_date": "2025-06-13", "level": "0", "name": "Carrefour", "operator": "Carrefour", "shop": "convenience", "source": "survey", "toilets": "no", "website": "https://www.carrefour.fr/magasin/bon-app-paris-rue-du-temple", "wheelchair": "no"}}, {"type": "node", "id": 2865863301, "lat": 48.8596095, "lon": 2.3542933, "tags": {"name": "Fanli", "shop": "books", "survey:date": "2025-04-14", "wheelchair": "no"}}, {"type": "node", "id": 2868878181, "lat": 48.8549724, "lon": 2.3556627, "tags": {"check_date": "2025-11-10", "level": "0", "name": "M\u00e9lodies Graphiques", "phone": "+33 1 42 74 57 68", "shop": "stationery"}}, {"type": "node", "id": 2927812406, "lat": 48.854898, "lon": 2.3503506, "tags": {"brand": "L'Occitane", "brand:wikidata": "Q1880676", "brand:wikipedia": "en:L'Occitane en Provence", "check_date": "2025-05-13", "name": "L'Occitane", "opening_hours": "10:30-19:30; Su-We 14:00-15:00 closed", "shop": "cosmetics", "wheelchair": "no"}}, {"type": "node", "id": 2935088575, "lat": 48.8538362, "lon": 2.350882, "tags": {"addr:city": "Paris", "addr:housenumber": "16", "addr:postcode": "75004", "addr:street": "Rue Chanoinesse", "check_date": "2024-07-28", "name": "AT Supermarch\u00e9", "opening_hours": "08:00-24:00", "shop": "convenience"}}, {"type": "node", "id": 2980014524, "lat": 48.8587893, "lon": 2.3553778, "tags": {"branch": "Archives", "brand": "Nicolas", "brand:website": "https://www.nicolas.com/", "brand:wikidata": "Q3340012", "brand:wikipedia": "fr:Nicolas (entreprise vinicole)", "check_date": "2023-08-16", "check_date:opening_hours": "2023-08-16", "contact:city": "Paris", "contact:housenumber": "21", "contact:postcode": "75004", "contact:street": "Rue des Archives", "name": "Nicolas", "opening_hours": "Mo-Sa 11:00-21:00, Sa 16:00-20:00", "operator": "\u00c9tablissements Nicolas", "operator:ref:FR:SIREN": "542066238", "ref:FR:NAF": "47.25Z", "ref:FR:SIRET": "54206623806575", "ref:vatin": "FR31542066238", "shop": "alcohol", "source": "survey", "wheelchair": "no"}}, {"type": "node", "id": 2980014526, "lat": 48.8590773, "lon": 2.3556322, "tags": {"name": "La Piscine", "shop": "clothes", "wheelchair": "yes"}}, {"type": "node", "id": 2980014527, "lat": 48.8583859, "lon": 2.3549717, "tags": {"check_date": "2024-08-20", "name": "Panozzi", "shop": "pastry", "source": "survey"}}, {"type": "node", "id": 2980014528, "lat": 48.8589009, "lon": 2.3554839, "tags": {"check_date": "2025-07-07", "name": "Roganel", "opening_hours": "Tu-Sa 10:30-19:30, Mo 13:00-19:00", "shop": "clothes", "source": "survey", "wheelchair": "no"}}, {"type": "node", "id": 2980014529, "lat": 48.8576945, "lon": 2.3542586, "tags": {"check_date": "2025-12-08", "name": "Jean-Marc Joubert", "opening_hours": "Mo-Sa 10:00-20:00", "shop": "hairdresser", "source": "survey", "wheelchair": "limited"}}, {"type": "node", "id": 2980014530, "lat": 48.8591585, "lon": 2.3557638, "tags": {"addr:city": "Paris", "addr:housenumber": "27", "addr:postcode": "75004", "addr:street": "Rue des Archives", "brand": "Carrefour Express", "brand:wikidata": "Q2940190", "brand:wikipedia": "fr:Carrefour Express", "check_date": "2024-08-10", "name": "Carrefour Express", "opening_hours": "Mo-Sa 08:00-23:00, Su 09:00+", "payment:cash": "yes", "payment:credit_cards": "yes", "phone": "+33 9 88 30 60 92", "shop": "convenience", "source": "survey", "website": "https://www.carrefour.fr/magasin/express-paris-archives", "wheelchair": "yes"}}, {"type": "node", "id": 2981458874, "lat": 48.8575321, "lon": 2.3524357, "tags": {"check_date": "2024-10-28", "name": "KN'L", "shop": "clothes", "source": "survey", "wheelchair": "limited"}}, {"type": "node", "id": 2981458875, "lat": 48.8578204, "lon": 2.3527286, "tags": {"addr:floor": "0", "check_date": "2025-10-20", "level": "0", "name": "\u00c0 La Poup\u00e9e Merveilleuse", "opening_hours": "Tu-Sa 11:00-19:00", "phone": "+33 1 42 72 63 46", "shop": "party", "source": "survey", "website": "http://www.alapoupeemerveilleuse.com/", "wheelchair": "limited"}}, {"type": "node", "id": 2981458877, "lat": 48.8577322, "lon": 2.3526298, "tags": {"check_date": "2025-10-20", "name": "Texaffaires", "opening_hours": "Mo-Su 10:00-19:00", "shop": "interior_decoration", "source": "survey", "wheelchair": "yes"}}, {"type": "node", "id": 2981481777, "lat": 48.8580107, "lon": 2.3526699, "tags": {"addr:housenumber": "61", "addr:street": "Rue de la Verrerie", "check_date": "2025-12-08", "name": "Free'P'Star", "opening_hours": "Mo-Sa 10:00-19:30; Su 12:00-19:30", "shop": "clothes", "source": "survey", "website": "https://freepstar.fr", "wheelchair": "no"}}, {"type": "node", "id": 2981481781, "lat": 48.8580656, "lon": 2.3525281, "tags": {"check_date": "2025-07-02", "name": "Luxury Outlet", "opening_hours": "Mo-Sa 11:00-19:30; Su,PH 11:00-19:00", "shop": "clothes", "source": "survey", "wheelchair": "limited"}}, {"type": "node", "id": 3032588533, "lat": 48.8575079, "lon": 2.3556708, "tags": {"addr:city": "Paris", "addr:housenumber": "8", "addr:postcode": "75004", "addr:street": "Rue de Moussy", "air_conditioning": "yes", "alt_name": "Inderwear", "check_date:opening_hours": "2025-01-15", "clothes": "underwear", "lgbtq": "primary", "name": "Les Dessous d'Apollon", "opening_hours": "Mo-Sa 11:00-20:00; Su 14:00-20:00", "phone": "+33 1 42 74 06 06", "shop": "clothes", "website": "https://www.inderwear.com/content/32-megastore-paris-marais"}}, {"type": "node", "id": 3032596733, "lat": 48.857088, "lon": 2.3558248, "tags": {"brand:website": "https://www.flibustierparis.com/", "check_date": "2023-04-15", "email": "contact@flibustierparis.com", "name": "Flibustier", "opening_hours": "Mo-Fr 11:00-19:00; Sa 11:00-20:00; Su 14:00-19:00; PH closed", "phone": "+33 1 42 71 87 37", "shop": "jewelry"}}, {"type": "node", "id": 3124182608, "lat": 48.8563516, "lon": 2.3581329, "tags": {"addr:city": "Paris", "addr:housenumber": "32", "addr:postcode": "75004", "addr:street": "Rue du Roi de Sicile", "check_date": "2025-06-07", "name": "Portobello", "opening_hours": "Tu-Sa 11:00-19:00, Su 14:30-19:00", "shop": "furniture", "website": "https://www.portobello-decoration.fr/"}}, {"type": "node", "id": 3180995462, "lat": 48.8593531, "lon": 2.3540793, "tags": {"brand": "Optic 2000", "brand:wikidata": "Q3354445", "brand:wikipedia": "fr:Optic 2000", "check_date": "2025-06-13", "name": "Optic 2000", "shop": "optician"}}, {"type": "node", "id": 3181027462, "lat": 48.8547373, "lon": 2.3554447, "tags": {"check_date": "2025-11-10", "level": "0", "name": "Puyricard", "shop": "chocolate"}}, {"type": "node", "id": 3181039561, "lat": 48.8550318, "lon": 2.3537423, "tags": {"check_date": "2023-10-06", "contact:website": "https://www.librairie-compagnons.com", "name": "Librairie du Compagnonage", "opening_hours": "Mo-Sa 11:00-19:00", "shop": "books"}}, {"type": "node", "id": 3181086561, "lat": 48.855234, "lon": 2.3556406, "tags": {"check_date:opening_hours": "2022-06-05", "contact:website": "http://kimonoya.fr/", "level": "0", "name": "Kimonoya", "opening_hours": "Mo 14:00-19:00; Tu-Sa 11:00-19:00", "origin": "japanese", "shop": "interior_decoration"}}, {"type": "node", "id": 3181108261, "lat": 48.8552629, "lon": 2.3577442, "tags": {"check_date:opening_hours": "2025-12-11", "contact:facebook": "https://www.facebook.com/pages/Librairie-Mich%C3%A8le-Ignazi/128143737277654", "contact:housenumber": "17", "contact:street": "Rue de Jouy", "name": "Librairie Mich\u00e8le Ignazi", "opening_hours": "Mo-Sa 10:30-19:30; Su 14:30-19:30", "phone": "+33 1 42 71 17 00", "ref:FR:SIRET": "38490033800011", "ref:vatin": "FR28384900338", "shop": "books"}}, {"type": "node", "id": 3241019632, "lat": 48.8529103, "lon": 2.3516333, "tags": {"name": "Paris Forever", "shop": "gift", "wheelchair": "yes"}}, {"type": "node", "id": 3259521785, "lat": 48.851513, "lon": 2.3576062, "tags": {"addr:city": "Paris", "addr:housenumber": "26", "addr:postcode": "75004", "addr:street": "Rue Saint-Louis en l'\u00cele", "check_date": "2024-04-06", "name": "Librairie Ulysse", "opening_hours": "Tu-Fr 14:00-20:00", "shop": "books", "website": "http://www.ulysse.fr", "wheelchair": "limited"}}, {"type": "node", "id": 3263787820, "lat": 48.8514489, "lon": 2.3578021, "tags": {"addr:city": "Paris", "addr:housenumber": "24", "addr:postcode": "75004", "addr:street": "Rue Saint-Louis en l'\u00cele", "check_date": "2024-10-08", "shop": "vacant"}}, {"type": "node", "id": 3306560720, "lat": 48.8569885, "lon": 2.3542349, "tags": {"check_date": "2025-12-08", "name": "Rosy", "old_name": "Velair", "shop": "clothes", "was:shop": "bicycle", "wheelchair": "no"}}, {"type": "node", "id": 3306561357, "lat": 48.856891, "lon": 2.3546332, "tags": {"brand": "Bo&Mie", "check_date": "2025-12-08", "indoor_seating": "yes", "name": "Bo&Mie Hotel de Ville", "opening_hours": "Mo-Su 07:30-20:00", "outdoor_seating": "sidewalk", "payment:cash": "yes", "payment:contactless": "yes", "payment:credit_cards": "yes", "payment:debit_cards": "yes", "phone": "+33 1 42 50 91 12", "shop": "bakery", "toilets": "yes", "toilets:wheelchair": "yes", "wheelchair": "yes"}}, {"type": "node", "id": 3306561675, "lat": 48.8569509, "lon": 2.3543747, "tags": {"check_date": "2025-12-08", "contact:city": "Paris", "contact:email": "sav@lecoindesbarons.com", "contact:facebook": "LecoindesBarons", "contact:housenumber": "48 Bis", "contact:instagram": "lecoindesbaronstcg", "contact:phone": "+33979419969", "contact:postcode": "75004", "contact:street": "Rue de Rivoli", "contact:website": "https://lecoindesbarons.com", "name": "Le Coin des Barons", "ref:FR:NAF": "47.65Z", "ref:FR:SIRET": "83314004900051", "shop": "games", "wheelchair": "yes"}}, {"type": "node", "id": 3306562263, "lat": 48.857473, "lon": 2.3545035, "tags": {"check_date": "2025-12-08", "name": "Coton Doux", "shop": "clothes", "survey:date": "2025-03-25", "wheelchair": "no"}}, {"type": "node", "id": 3307940661, "lat": 48.8571899, "lon": 2.3541922, "tags": {"addr:floor": "0", "check_date": "2025-12-08", "level": "0", "name": "Optique Caroline Joo", "payment:cash": "yes", "payment:credit_cards": "yes", "payment:debit_cards": "yes", "payment:visa": "yes", "shop": "optician", "wheelchair": "yes"}}, {"type": "node", "id": 3307940961, "lat": 48.8582334, "lon": 2.3551734, "tags": {"check_date": "2024-08-10", "name": "Mademoiselle Bio", "opening_hours": "Mo-Su 10:00-19:30", "shop": "cosmetics", "website": "https://www.mademoiselle-bio.com/fr/boutique-institut/archives"}}, {"type": "node", "id": 3307941061, "lat": 48.8586529, "lon": 2.35561, "tags": {"check_date": "2025-07-29", "name": "Moustaches", "opening_hours": "Mo-Sa 10:30-19:30, Su 12:00-19:00", "shop": "pet", "wheelchair": "yes"}}, {"type": "node", "id": 3307941062, "lat": 48.8599178, "lon": 2.356837, "tags": {"check_date": "2024-06-23", "name": "Claire Naa", "shop": "jewelry"}}, {"type": "node", "id": 3307941161, "lat": 48.8587507, "lon": 2.355698, "tags": {"check_date": "2025-07-29", "name": "Bossetti", "shop": "alcohol", "wheelchair": "yes"}}, {"type": "node", "id": 3307941162, "lat": 48.859375, "lon": 2.3563533, "tags": {"brand": "J.M. Weston", "brand:wikidata": "Q2399832", "brand:wikipedia": "fr:J.M. Weston", "check_date": "2024-08-10", "name": "J.M. Weston", "shop": "shoes", "wheelchair": "yes"}}, {"type": "node", "id": 3307941163, "lat": 48.8598844, "lon": 2.3567917, "tags": {"check_date": "2024-06-23", "contact:website": "http://www.bionat.fr/fr/", "level": "0", "name": "Dunes Blanches", "shop": "pastry", "wheelchair": "no"}}, {"type": "node", "id": 3307941261, "lat": 48.8595031, "lon": 2.356541, "tags": {"check_date": "2024-08-10", "name": "La Compagnie des Hommes", "shop": "clothes", "wheelchair": "limited"}}, {"type": "node", "id": 3307941262, "lat": 48.8596604, "lon": 2.3566565, "tags": {"shop": "jewelry"}}, {"type": "node", "id": 3307941263, "lat": 48.859788, "lon": 2.3567787, "tags": {"check_date": "2024-06-23", "name": "Pierre Caron", "shop": "jewelry", "wheelchair": "no"}}, {"type": "node", "id": 3314496861, "lat": 48.8561475, "lon": 2.3588354, "tags": {"check_date": "2025-06-07", "contact:phone": "+33 1 40270921", "contact:website": "http://www.dollhouse.fr/", "name": "Dollhouse", "opening_hours": "Mo-Sa 13:00-20:00;Su 14:00-20:00", "shop": "erotic"}}, {"type": "node", "id": 3321665745, "lat": 48.85873, "lon": 2.3510816, "tags": {"contact:city": "Paris", "contact:housenumber": "74", "contact:postcode": "75004", "contact:street": "Rue de la Verrerie", "name": "La Petite \u00c9picerie", "shop": "craft", "wheelchair": "limited"}}, {"type": "node", "id": 3342900967, "lat": 48.8573959, "lon": 2.3511801, "tags": {"name": "basket4ballers", "shop": "sports", "website": "https://www.basket4ballers.com/"}}, {"type": "node", "id": 3342900968, "lat": 48.8575974, "lon": 2.3517147, "tags": {"addr:city": "Paris", "brand": "Geox", "brand:wikidata": "Q588001", "brand:wikipedia": "en:Geox", "check_date": "2024-10-26", "name": "Geox", "shop": "shoes", "wheelchair": "yes"}}, {"type": "node", "id": 3342900970, "lat": 48.8575144, "lon": 2.3520816, "tags": {"clothes": "underwear", "name": "DIM", "shop": "clothes"}}, {"type": "node", "id": 3405082963, "lat": 48.8589244, "lon": 2.3537723, "tags": {"check_date": "2025-06-13", "name": "Venchi", "shop": "chocolate", "survey:date": "2025-04-14", "was:name": "Huygens", "wheelchair": "yes"}}, {"type": "node", "id": 3405082964, "lat": 48.8582055, "lon": 2.3558098, "tags": {"name": "C.P. company", "shop": "clothes", "wheelchair": "no"}}, {"type": "node", "id": 3405085317, "lat": 48.857974, "lon": 2.350377, "tags": {"brand": "Mango", "brand:wikidata": "Q136503", "brand:wikipedia": "en:Mango (retailer)", "check_date": "2023-10-06", "name": "Mango", "shop": "clothes", "wheelchair": "yes"}}, {"type": "node", "id": 3405085318, "lat": 48.857894, "lon": 2.3505476, "tags": {"brand": "Intimissimi", "brand:wikidata": "Q305404", "brand:wikipedia": "en:Intimissimi", "check_date": "2023-10-06", "clothes": "underwear", "name": "Intimissimi", "shop": "clothes", "wheelchair": "yes"}}, {"type": "node", "id": 3405085319, "lat": 48.8578649, "lon": 2.3506745, "tags": {"brand": "Brioche Dor\u00e9e", "brand:website": "https://www.briochedoree.fr", "brand:wikidata": "Q2925606", "brand:wikipedia": "fr:Brioche dor\u00e9e", "contact:phone": "+33 1 40 27 97 43", "indoor_seating": "yes", "name": "Brioche Dor\u00e9e", "opening_hours": "Mo-Sa 07:30-20:00", "operator": "Groupe Le Duff", "outdoor_seating": "no", "ref:FR:SIRET": "31890659101536", "shop": "bakery", "smoking": "no", "website": "https://www.briochedoree.fr/restaurants/61-paris-1er-80-rue-de-rivoli", "wheelchair": "no"}}, {"type": "node", "id": 3405085320, "lat": 48.8578345, "lon": 2.3507896, "tags": {"brand": "Etam", "brand:wikidata": "Q3059202", "brand:wikipedia": "en:Etam D\u00e9veloppement", "clothes": "underwear", "name": "Etam", "opening_hours": "Mo-Fr 09:00-18:00; Sa 09:00-18:00; Su 10:00-18:00", "shop": "clothes", "wheelchair": "yes"}}, {"type": "node", "id": 3405085787, "lat": 48.8577196, "lon": 2.3513477, "tags": {"addr:city": "Paris", "brand": "Oysho", "brand:wikidata": "Q3327046", "brand:wikipedia": "en:Oysho", "check_date": "2024-10-26", "name": "Oysho", "shop": "clothes", "wheelchair": "yes"}}, {"type": "node", "id": 3405085790, "lat": 48.8578087, "lon": 2.3572623, "tags": {"brand": "Sebago", "brand:wikidata": "Q3476844", "name": "Sebago", "shop": "shoes", "website": "https://www.sebago.fr/content/56-nos-boutiques"}}, {"type": "node", "id": 3405085792, "lat": 48.8578223, "lon": 2.3578995, "tags": {"addr:city": "Paris", "addr:country": "FR", "addr:street": "Rue des Rosiers", "check_date": "2025-07-29", "name": "Kilian", "shop": "perfumery"}}, {"type": "node", "id": 3405086595, "lat": 48.8587827, "lon": 2.3536792, "tags": {"check_date": "2025-07-02", "name": "MBM", "shop": "clothes", "survey:date": "2025-03-25", "wheelchair": "no"}}, {"type": "node", "id": 3405086793, "lat": 48.8580291, "lon": 2.3580956, "tags": {"brand": "\u00c9ric Bompard", "brand:wikidata": "Q3590998", "brand:wikipedia": "en:\u00c9ric Bompard", "check_date": "2024-08-04", "name": "\u00c9ric Bompard", "shop": "clothes"}}, {"type": "node", "id": 3405086794, "lat": 48.8583046, "lon": 2.3581733, "tags": {"brand": "Maje", "brand:wikidata": "Q3280458", "brand:wikipedia": "fr:Maje", "check_date": "2024-08-04", "clothes": "women", "name": "Maje", "shop": "clothes"}}, {"type": "node", "id": 3452161794, "lat": 48.8597376, "lon": 2.3528661, "tags": {"check_date": "2024-10-31", "contact:facebook": "https://www.facebook.com/p/Aux-D%C3%A9lices-de-Beaubourg-100057346934849/", "indoor_seating": "yes", "level": "0", "name": "Aux D\u00e9lices de Beaubourg", "opening_hours": "Mo-Fr 07:30-19:30", "outdoor_seating": "no", "shop": "bakery", "smoking": "no", "wheelchair": "yes"}}, {"type": "node", "id": 3462951709, "lat": 48.8583135, "lon": 2.3591378, "tags": {"addr:housenumber": "47", "addr:street": "Rue des Francs Bourgeois", "brand": "Muji", "brand:en": "Muji", "brand:ja": "\u7121\u5370\u826f\u54c1", "brand:wikidata": "Q708789", "check_date": "2025-07-06", "level": "0", "name": "Muji", "name:en": "Muji", "name:ja": "\u7121\u5370\u826f\u54c1", "opening_hours": "Mo-Fr 10:00-19:30; Sa 10:00-20:00; Su 12:00-19:00", "phone": "+33 149964141", "shop": "department_store", "toilets": "no", "website": "https://france.muji.eu/pages/store-locator/muji-francs-bourgeois.html", "wheelchair": "no"}}, {"type": "node", "id": 3462951710, "lat": 48.8581212, "lon": 2.3595721, "tags": {"addr:housenumber": "43", "addr:street": "Rue des Francs Bourgeois", "brand": "Sud Express", "brand:wikidata": "Q104826254", "check_date": "2025-06-28", "check_date:opening_hours": "2025-06-28", "clothes": "women", "name": "Sud Express", "opening_hours": "Mo-Su 11:00-19:30", "shop": "clothes", "wheelchair": "no"}}, {"type": "node", "id": 3463145693, "lat": 48.8573189, "lon": 2.357278, "tags": {"check_date": "2025-07-29", "name": "Noriem", "shop": "clothes", "wheelchair": "limited"}}, {"type": "node", "id": 3463145793, "lat": 48.8573654, "lon": 2.3573228, "tags": {"check_date": "2025-07-29", "name": "Carr\u00e9 d'Artistes", "shop": "art", "wheelchair": "no"}}, {"type": "node", "id": 3544765052, "lat": 48.8517019, "lon": 2.357069, "tags": {"check_date": "2024-04-06", "indoor_seating": "no", "name": "Aux Petits Cakes", "opening_hours": "Tu-Sa 07:30-20:00; Su 07:30-13:30", "outdoor_seating": "no", "shop": "bakery", "takeaway": "only", "wheelchair": "yes"}}, {"type": "node", "id": 3544879887, "lat": 48.8517484, "lon": 2.3569324, "tags": {"addr:city": "Paris", "addr:housenumber": "44", "addr:postcode": "75004", "addr:street": "Rue Saint-Louis en l'\u00cele", "name": "La Boucherie Gardil", "opening_hours": "Tu-Fr 09:00-12:45,16:00-19:30; Sa 09:00-18:30", "shop": "butcher", "wheelchair": "limited"}}, {"type": "node", "id": 3544884561, "lat": 48.8524121, "lon": 2.3569207, "tags": {"addr:city": "Paris", "addr:housenumber": "1", "addr:postcode": "75004", "addr:street": "Quai de Bourbon", "shop": "vacant"}}, {"type": "node", "id": 3621881995, "lat": 48.8559576, "lon": 2.3595639, "tags": {"brand": "Franprix", "brand:wikidata": "Q2420096", "brand:wikipedia": "fr:Franprix", "check_date": "2025-06-07", "name": "Supermarch\u00e9 du Marais", "opening_hours": "Mo-Sa 07:30-22:00; Su 09:00-12:00", "operator": "Groupe Casino", "organic": "yes", "shop": "convenience", "toilets": "no", "wheelchair": "yes"}}, {"type": "node", "id": 3621890995, "lat": 48.8587783, "lon": 2.3587098, "tags": {"shop": "kiosk", "survey:date": "2025-04-14", "wheelchair": "yes"}}, {"type": "node", "id": 3621895996, "lat": 48.8562383, "lon": 2.3584511, "tags": {"check_date": "2025-06-07", "contact:city": "Paris", "contact:housenumber": "28", "contact:postcode": "75004", "contact:street": "Rue du Roi de Sicile", "name": "LOL by Louisiane", "shop": "clothes"}}, {"type": "node", "id": 3621911594, "lat": 48.8562189, "lon": 2.3585291, "tags": {"check_date": "2025-06-07", "name": "De Bouche \u00e0 Oreille Maison", "shop": "interior_decoration"}}, {"type": "node", "id": 3621911597, "lat": 48.8565859, "lon": 2.3566638, "tags": {"name": "Maxime Simoens", "shop": "clothes"}}, {"type": "node", "id": 3621911599, "lat": 48.8589468, "lon": 2.3586316, "tags": {"brand": "Picard", "brand:wikidata": "Q3382454", "brand:wikipedia": "en:Picard Surgel\u00e9s", "check_date": "2025-06-12", "name": "Picard", "opening_hours": "Mo-Sa 09:00-20:30; Su 09:00-12:45", "phone": "+33 1 42 72 17 83", "ref:FR:SIRET": "78493968800312", "shop": "frozen_food", "website": "https://magasins.picard.fr/348-picard-francs-bourgeois"}}, {"type": "node", "id": 3621911695, "lat": 48.8574349, "lon": 2.3573777, "tags": {"brand": "Lacoste", "brand:wikidata": "Q309031", "brand:wikipedia": "en:Lacoste", "name": "Lacoste", "shop": "clothes", "wheelchair": "yes"}}, {"type": "node", "id": 3621915594, "lat": 48.8568912, "lon": 2.3569187, "tags": {"name": "EdwarT", "opening_hours": "11:00 - 20:00", "operator": "EdwarT", "phone": "+33 1 42 78 48 92", "shop": "chocolate", "website": "https://edwart.fr/", "wheelchair": "no"}}, {"type": "node", "id": 3621915596, "lat": 48.8592072, "lon": 2.3582642, "tags": {"check_date": "2025-06-12", "name": "B\u00e9r\u00e9nice", "shop": "clothes", "survey:date": "2025-04-14"}}, {"type": "node", "id": 3646113627, "lat": 48.8503016, "lon": 2.3591065, "tags": {"addr:city": "Paris", "addr:housenumber": "1", "addr:postcode": "75004", "addr:street": "Boulevard Henri IV", "check_date": "2024-07-08", "name": "Mandarin Voyages", "shop": "travel_agency"}}, {"type": "node", "id": 3653361133, "lat": 48.8586994, "lon": 2.3548822, "tags": {"name": "Naked", "shop": "clothes"}}, {"type": "node", "id": 3653361136, "lat": 48.8582031, "lon": 2.3564282, "tags": {"level": "0", "name": "Pierre Herm\u00e9", "opening_hours": "Mo-Su 12:00-20:00", "shop": "pastry", "wheelchair": "limited"}}, {"type": "node", "id": 3653361138, "lat": 48.8580679, "lon": 2.3567808, "tags": {"level": "0", "lgbtq": "primary", "lgbtq:gay": "primary", "lgbtq:men": "primary", "name": "IEM", "opening_hours": "Mo-Th 12:00-20:00; Fr,Sa 12:00-21:00; Su,PH 14:00-20:00", "phone": "+33 1 40 18 51 51", "shop": "erotic", "website": "https://www.iem.fr/fr/content/6-iem-shopping-gay-boutique-de-paris-le-marais", "wheelchair": "no"}}, {"type": "node", "id": 3653361139, "lat": 48.8583004, "lon": 2.355636, "tags": {"branch": "Lovestore rue Sainte-Croix", "check_date": "2024-08-20", "level": "0", "name": "passage du d\u00e9sir", "opening_hours": "Mo-Fr 12:00-21:00; Sa 11:00-21:00; Su 13:00-20:00", "shop": "erotic", "website": "https://www.passagedudesir.fr/cms/15-le-marais-lovestore-rue-ste-croix", "wheelchair": "no"}}, {"type": "node", "id": 3661307320, "lat": 48.8588309, "lon": 2.3537084, "tags": {"addr:housenumber": "22", "addr:street": "Rue du Temple", "check_date": "2025-06-13", "name": "La Perlerie 22", "shop": "jewelry", "survey:date": "2025-03-25", "wheelchair": "no"}}, {"type": "node", "id": 3703077203, "lat": 48.8524637, "lon": 2.3549433, "tags": {"check_date": "2025-10-28", "name": "Bamyan", "shop": "clothes", "wheelchair": "no"}}, {"type": "node", "id": 3703077367, "lat": 48.8519459, "lon": 2.3545163, "tags": {"name": "Maison Papin", "ref:FR:SIREN": "529319972", "ref:FR:SIRET": "52931997200038", "ref:vatin": "FR88529319972", "shop": "deli", "website": "https://www.maisonpapin.com"}}, {"type": "node", "id": 3738028655, "lat": 48.8573222, "lon": 2.3592027, "tags": {"contact:city": "Paris", "contact:housenumber": "32", "contact:postcode": "75004", "contact:street": "Rue des Rosiers", "name": "Vintage D\u00e9sir", "shop": "clothes", "survey:date": "2025-04-14", "wheelchair": "no"}}, {"type": "node", "id": 3738028656, "lat": 48.8573026, "lon": 2.3592362, "tags": {"addr:city": "Paris", "addr:country": "FR", "addr:street": "Rue des Rosiers", "brand": "Sabon", "brand:wikidata": "Q105064185", "name": "Sabon", "name:en": "Sabon", "name:he": "\u05e1\u05d1\u05d5\u05df", "shop": "cosmetics", "survey:date": "2025-04-14", "wheelchair": "no"}}, {"type": "node", "id": 3738028658, "lat": 48.8572421, "lon": 2.3594345, "tags": {"contact:city": "Paris", "contact:housenumber": "26", "contact:postcode": "75004", "contact:street": "Rue des Rosiers", "name": "Fred Perry", "shop": "clothes", "wheelchair": "yes"}}, {"type": "node", "id": 3738028659, "lat": 48.8571812, "lon": 2.3595458, "tags": {"shop": "vacant"}}, {"type": "node", "id": 3738028662, "lat": 48.8571057, "lon": 2.3596309, "tags": {"addr:city": "Paris", "addr:country": "FR", "addr:street": "Rue des Rosiers", "name": "Suncoo", "shop": "clothes", "survey:date": "2025-04-14"}}, {"type": "node", "id": 3738028663, "lat": 48.8570835, "lon": 2.3596812, "tags": {"addr:city": "Paris", "addr:housenumber": "20", "addr:postcode": "75004", "addr:street": "Rue des Rosiers", "alt_name": "Smith&Son Marais", "alt_name_1": "Smith and Son Marais", "branch": "Marais", "contact:city": "Paris", "contact:housenumber": "20", "contact:postcode": "75004", "contact:street": "Rue des Rosiers", "name": "Smith&Son", "opening_hours": "Mo-Su 11:00-19:00", "phone": "+33 1 40 33 61 01", "shop": "books", "survey:date": "2025-04-14"}}, {"type": "node", "id": 3738028665, "lat": 48.856999, "lon": 2.3598958, "tags": {"check_date": "2024-08-04", "contact:city": "Paris", "contact:housenumber": "16", "contact:phone": "+33 1 48 87 48 88", "contact:postcode": "75004", "contact:street": "Rue des Rosiers", "contact:website": "http://www.boulangerie-murciano.com/", "indoor_seating": "yes", "name": "Murciano", "outdoor_seating": "no", "shop": "bakery"}}, {"type": "node", "id": 3738028666, "lat": 48.8569672, "lon": 2.3599582, "tags": {"addr:city": "Paris", "addr:country": "FR", "addr:street": "Rue des Rosiers", "check_date": "2024-08-04", "name": "Cecile Jeanne", "shop": "jewelry"}}, {"type": "node", "id": 3738155791, "lat": 48.8574507, "lon": 2.3590086, "tags": {"name": "copains", "shop": "bakery", "survey:date": "2025-04-14"}}, {"type": "node", "id": 3738155793, "lat": 48.8575169, "lon": 2.3588893, "tags": {"addr:city": "Paris", "addr:country": "FR", "addr:street": "Rue des Rosiers", "name": "Lev is Shoes", "not:brand:wikidata": "Q127962", "shop": "shoes", "survey:date": "2025-04-14"}}, {"type": "node", "id": 3738155794, "lat": 48.8575383, "lon": 2.3588413, "tags": {"contact:city": "Paris", "contact:housenumber": "42", "contact:postcode": "75004", "contact:street": "Rue des Rosiers", "name": "Marcel et Marcel", "shop": "clothes", "survey:date": "2025-04-14", "wheelchair": "no"}}, {"type": "node", "id": 3738155795, "lat": 48.8575522, "lon": 2.3588015, "tags": {"contact:city": "Paris", "contact:housenumber": "42", "contact:postcode": "75004", "contact:street": "Rue des Rosiers", "name": "Sweet Pants", "shop": "clothes", "survey:date": "2025-04-14", "wheelchair": "no"}}, {"type": "node", "id": 3738155797, "lat": 48.8576387, "lon": 2.3585963, "tags": {"addr:city": "Paris", "addr:country": "FR", "addr:street": "Rue des Rosiers", "name": "Damyel", "shop": "chocolate", "survey:date": "2025-04-14"}}, {"type": "node", "id": 3738161823, "lat": 48.8568224, "lon": 2.3598742, "tags": {"name": "From Future", "shop": "clothes"}}, {"type": "node", "id": 3738161824, "lat": 48.8567817, "lon": 2.359978, "tags": {"brand": "El Ganso", "brand:wikidata": "Q51955203", "brand:wikipedia": "es:El Ganso (cadena de tiendas)", "check_date": "2024-08-04", "name": "El Ganso", "opening_hours": "Mo-Su 11:00-19:00", "shop": "clothes"}}, {"type": "node", "id": 3738163225, "lat": 48.8569923, "lon": 2.3596799, "tags": {"addr:city": "Paris", "addr:country": "FR", "addr:street": "Rue des Rosiers", "check_date": "2024-12-26", "name": "MC2 Saint barth", "shop": "clothes"}}, {"type": "node", "id": 3738163227, "lat": 48.8570459, "lon": 2.3595345, "tags": {"addr:city": "Paris", "addr:country": "FR", "addr:street": "Rue des Rosiers", "name": "La Boutique Ephemere du Marais", "shop": "clothes"}}, {"type": "node", "id": 3738163228, "lat": 48.8571101, "lon": 2.3593941, "tags": {"contact:city": "Paris", "contact:housenumber": "15", "contact:postcode": "75004", "contact:street": "Rue des Rosiers", "name": "Durance", "shop": "beauty", "survey:date": "2025-04-14", "wheelchair": "yes"}}, {"type": "node", "id": 3738163229, "lat": 48.8570812, "lon": 2.3594623, "tags": {"addr:city": "Paris", "addr:country": "FR", "addr:postcode": "75004", "addr:street": "Rue des Rosiers", "name": "Shana", "shop": "clothes", "survey:date": "2025-04-14", "wheelchair": "no"}}, {"type": "node", "id": 3738163231, "lat": 48.8572165, "lon": 2.3591843, "tags": {"contact:city": "Paris", "contact:housenumber": "19", "contact:postcode": "75004", "contact:street": "Rue des Rosiers", "name": "Planisphere", "shop": "clothes", "survey:date": "2025-04-14", "wheelchair": "no"}}, {"type": "node", "id": 3738163232, "lat": 48.8571931, "lon": 2.3592212, "tags": {"contact:city": "Paris", "contact:housenumber": "19", "contact:postcode": "75004", "contact:street": "Rue des Rosiers", "name": "Bouchepie", "shop": "butcher", "wheelchair": "no"}}, {"type": "node", "id": 3738163233, "lat": 48.8571681, "lon": 2.3592621, "tags": {"addr:city": "Paris", "addr:country": "FR", "addr:postcode": "75004", "addr:street": "Rue des Rosiers", "name": "Jonathan", "shop": "sunglasses", "survey:date": "2025-04-14"}}, {"type": "node", "id": 3738163234, "lat": 48.8572491, "lon": 2.3591307, "tags": {"contact:city": "Paris", "contact:housenumber": "19", "contact:postcode": "75004", "contact:street": "Rue des Rosiers", "name": "Le Nom", "shop": "bag", "survey:date": "2025-04-14"}}, {"type": "node", "id": 3738168383, "lat": 48.857421, "lon": 2.3588259, "tags": {"addr:city": "Paris", "addr:country": "FR", "addr:street": "Rue des Rosiers", "brand": "AllSaints", "brand:wikidata": "Q4728473", "brand:wikipedia": "en:AllSaints", "level": "0", "name": "AllSaints", "shop": "clothes", "survey:date": "2025-04-14", "wheelchair": "yes"}}, {"type": "node", "id": 3738168384, "lat": 48.8575319, "lon": 2.3586157, "tags": {"addr:city": "Paris", "addr:country": "FR", "addr:street": "Rue des Rosiers", "name": "Art 25", "shop": "jewelry", "survey:date": "2025-04-14", "wheelchair": "no"}}, {"type": "node", "id": 3738168385, "lat": 48.8575638, "lon": 2.3585214, "tags": {"addr:city": "Paris", "addr:postcode": "75004", "name": "Rendel", "shop": "optician", "survey:date": "2025-04-14"}}, {"type": "node", "id": 3738168386, "lat": 48.8576096, "lon": 2.3584602, "tags": {"check_date": "2025-10-04", "contact:city": "Paris", "contact:housenumber": "27", "contact:postcode": "75004", "contact:street": "Rue des Rosiers", "name": "Sacha Finkelsztajn", "shop": "bakery", "survey:date": "2025-04-14", "wheelchair": "no"}}, {"type": "node", "id": 3738168388, "lat": 48.8576958, "lon": 2.3581913, "tags": {"addr:city": "Paris", "addr:country": "FR", "addr:street": "Rue des Rosiers", "name": "Korcarz", "shop": "deli", "survey:date": "2025-04-14", "wheelchair": "limited"}}, {"type": "node", "id": 3738168389, "lat": 48.8577414, "lon": 2.3581081, "tags": {"name": "ElevenParis", "shop": "clothes", "survey:date": "2025-04-14", "wheelchair": "no"}}, {"type": "node", "id": 3738168391, "lat": 48.8579095, "lon": 2.3579733, "tags": {"addr:city": "Paris", "addr:country": "FR", "addr:street": "Rue des Rosiers", "brand": "Intimissimi", "brand:wikidata": "Q305404", "check_date": "2024-08-04", "clothes": "underwear", "name": "Intimissimi", "shop": "clothes"}}, {"type": "node", "id": 3738168393, "lat": 48.8578447, "lon": 2.3580913, "tags": {"addr:city": "Paris", "addr:country": "FR", "addr:street": "Rue des Rosiers", "brand": "Kusmi Tea", "brand:wikidata": "Q944186", "name": "Kusmi Tea", "shop": "tea", "survey:date": "2025-04-14", "wheelchair": "no"}}, {"type": "node", "id": 3738168394, "lat": 48.8578151, "lon": 2.3581631, "tags": {"addr:city": "Paris", "addr:country": "FR", "addr:street": "Rue des Rosiers", "name": "Leo&Ugo", "shop": "clothes", "survey:date": "2025-04-14", "wheelchair": "no"}}, {"type": "node", "id": 3738168395, "lat": 48.8577428, "lon": 2.3583381, "tags": {"addr:city": "Paris", "addr:country": "FR", "addr:street": "Rue des Rosiers", "check_date": "2024-06-12", "name": "Chir Hadach", "shop": "art", "wheelchair": "yes"}}, {"type": "node", "id": 3770246357, "lat": 48.8599271, "lon": 2.3542849, "tags": {"check_date": "2025-06-13", "name": "Fran\u00e7ois Pinton", "shop": "optician", "wheelchair": "no"}}, {"type": "node", "id": 3801769733, "lat": 48.8566309, "lon": 2.35652, "tags": {"name": "mam'zelle swing", "opening_hours": "Mo-Sa 14:00-19:00; Su 15:00-19:00", "shop": "clothes", "wheelchair": "limited"}}, {"type": "node", "id": 3980067617, "lat": 48.8555433, "lon": 2.3591476, "tags": {"brand": "Optic 2000", "brand:wikidata": "Q3354445", "brand:wikipedia": "fr:Optic 2000", "check_date": "2025-12-08", "check_date:opening_hours": "2025-11-10", "name": "Optic 2000", "opening_hours": "Mo-Sa 10:00-19:30", "shop": "optician", "wheelchair": "no"}}, {"type": "node", "id": 3980067622, "lat": 48.8556853, "lon": 2.3585785, "tags": {"check_date": "2025-12-08", "level": "0", "name": "Royal Extension", "shop": "hairdresser_supply"}}, {"type": "node", "id": 3980067623, "lat": 48.8556377, "lon": 2.358757, "tags": {"check_date": "2025-12-08", "name": "Centre Pfaff", "shop": "sewing", "wheelchair": "limited"}}, {"type": "node", "id": 3980067625, "lat": 48.8556643, "lon": 2.3586554, "tags": {"check_date": "2025-12-08", "name": "Personnalise Paris", "shop": "clothes"}}, {"type": "node", "id": 3980067626, "lat": 48.8557167, "lon": 2.3584198, "tags": {"brand": "SFR", "brand:wikidata": "Q218765", "check_date": "2025-12-08", "name": "SFR", "opening_hours": "Mo-Sa 10:00-19:00", "shop": "mobile_phone", "wheelchair": "limited"}}, {"type": "node", "id": 3980067627, "lat": 48.8557574, "lon": 2.3582625, "tags": {"check_date": "2025-12-08", "clothes": "men", "contact:phone": "+33 1 42 74 73 30", "name": "Evolutif", "shop": "clothes", "wheelchair": "limited"}}, {"type": "node", "id": 3980067632, "lat": 48.8559464, "lon": 2.3574582, "tags": {"check_date": "2025-12-08", "name": "Ronde en Couleurs", "shop": "clothes"}}, {"type": "node", "id": 3980067633, "lat": 48.8559228, "lon": 2.3575626, "tags": {"addr:city": "Paris", "addr:housenumber": "17", "addr:postcode": "75004", "addr:street": "Rue de Rivoli", "check_date": "2025-12-08", "email": "contact@maisonouzbek.com", "name": "La Maison de l'Ouzb\u00e9kistan", "opening_hours": "10:00-13:00,14:00-19:00", "phone": "+33 1 48 04 08 86", "shop": "gift", "website": "https://www.maisonouzbek.com/"}}, {"type": "node", "id": 3980384391, "lat": 48.8580198, "lon": 2.3501534, "tags": {"brand": "L'Occitane", "brand:wikidata": "Q1880676", "brand:wikipedia": "en:L'Occitane en Provence", "check_date": "2023-10-06", "name": "L'Occitane", "shop": "cosmetics", "wheelchair": "limited"}}, {"type": "node", "id": 3980384393, "lat": 48.8580639, "lon": 2.3500512, "tags": {"addr:city": "Paris", "brand": "Parfois", "brand:wikidata": "Q7136948", "name": "Parfois", "shop": "fashion_accessories", "wheelchair": "no"}}, {"type": "node", "id": 3980384396, "lat": 48.8577232, "lon": 2.351174, "tags": {"name": "Normal", "shop": "supermarket", "wheelchair": "yes"}}, {"type": "node", "id": 3980442975, "lat": 48.856579, "lon": 2.3559319, "tags": {"check_date": "2025-12-08", "name": "Unishop", "shop": "clothes", "wheelchair": "yes"}}, {"type": "node", "id": 3980442977, "lat": 48.8565459, "lon": 2.3560759, "tags": {"check_date": "2025-12-08", "name": "Jim Eyes", "shop": "optician", "wheelchair": "yes"}}, {"type": "node", "id": 3980442978, "lat": 48.8565632, "lon": 2.3560026, "tags": {"brand": "Antonelle", "brand:wikidata": "Q105082567", "check_date": "2025-12-08", "clothes": "women", "name": "Antonelle", "shop": "clothes", "wheelchair": "yes"}}, {"type": "node", "id": 3980442980, "lat": 48.856524, "lon": 2.3561651, "tags": {"check_date": "2025-12-08", "name": "5\u00e8me saison", "shop": "clothes", "wheelchair": "limited"}}, {"type": "node", "id": 3980442981, "lat": 48.8564701, "lon": 2.3563881, "tags": {"check_date": "2025-12-08", "name": "Coton Doux", "shop": "clothes", "wheelchair": "limited"}}, {"type": "node", "id": 3980442982, "lat": 48.8564835, "lon": 2.3563293, "tags": {"check_date": "2025-12-08", "name": "See U Soon", "shop": "clothes", "wheelchair": "limited"}}, {"type": "node", "id": 3980442983, "lat": 48.8565045, "lon": 2.3562539, "tags": {"check_date": "2025-12-08", "name": "Come On Eileen", "shop": "clothes", "wheelchair": "limited"}}, {"type": "node", "id": 3980442984, "lat": 48.8563543, "lon": 2.3568915, "tags": {"check_date": "2025-12-08", "name": "Top Time", "opening_hours": "Mo-Fr 08:30-20:00; Sa 08:30-20:00", "shop": "watches", "wheelchair": "yes"}}, {"type": "node", "id": 3980442986, "lat": 48.8563136, "lon": 2.3570423, "tags": {"addr:housenumber": "34", "addr:street": "Rue de Rivoli", "brand": "Carrefour City", "brand:wikidata": "Q2940187", "check_date": "2025-11-12", "check_date:opening_hours": "2025-11-12", "level": "0", "name": "Carrefour City", "opening_hours": "Mo-Sa 07:00-23:00, Su 09:00-13:00", "ref:FR:SIRET": "92910993200012", "shop": "convenience", "toilets": "no", "website": "https://www.carrefour.fr/magasin/city-paris-rivoli-34", "wheelchair": "yes"}}, {"type": "node", "id": 3980442988, "lat": 48.856242, "lon": 2.3573228, "tags": {"check_date": "2025-12-08", "name": "La Scarpa", "shop": "shoes", "wheelchair": "limited"}}, {"type": "node", "id": 3980442989, "lat": 48.8561639, "lon": 2.3576837, "tags": {"addr:housenumber": "30", "addr:street": "Rue de Rivoli", "check_date": "2025-12-08", "name": "Garrice", "shop": "clothes", "wheelchair": "limited"}}, {"type": "node", "id": 3980442990, "lat": 48.856191, "lon": 2.3575586, "tags": {"addr:floor": "0", "addr:housenumber": "30", "addr:street": "Rue de Rivoli", "check_date": "2025-12-08", "level": "0", "name": "Paraboot", "opening_hours": "Mo 11:00-14:00,15:00-19:00; Tu-Sa 10:00-19:00", "shop": "clothes", "wheelchair": "yes"}}, {"type": "node", "id": 3980442991, "lat": 48.8561799, "lon": 2.3579502, "tags": {"branch": "Le Store", "brand": "Orange", "brand:wikidata": "Q1431486", "check_date": "2025-11-12", "check_date:opening_hours": "2025-11-12", "name": "Orange", "note": "ouverture 10 juin 2025 \u00e0 10h", "opening_hours": "Mo-Sa 10:00-19:00", "second_hand": "yes", "shop": "mobile_phone"}}, {"type": "node", "id": 3980442992, "lat": 48.8561379, "lon": 2.3577922, "tags": {"check_date": "2025-12-08", "level": "0", "name": "Bhumi", "opening_hours": "Mo-Su 10:00-20:00", "shop": "clothes"}}, {"type": "node", "id": 3980442993, "lat": 48.8560484, "lon": 2.3581662, "tags": {"addr:city": "Paris", "addr:housenumber": "26", "addr:postcode": "75004", "addr:street": "Rue de Rivoli", "check_date": "2025-12-08", "contact:facebook": "jesuisaveloblog", "email": "bonjour@jesuisavelo.com", "name": "Je suis \u00e0 V\u00e9lo", "opening_hours": "Mo-Sa 11:00-19:30; Su 11:00-19:00", "shop": "clothes", "website": "https://jesuisavelo.com"}}, {"type": "node", "id": 3980442995, "lat": 48.855928, "lon": 2.3586658, "tags": {"name": "Rayon", "opening_hours": "Mo-Su 09:30-20:00", "shop": "convenience", "wheelchair": "no"}}, {"type": "node", "id": 3980442996, "lat": 48.8559516, "lon": 2.3585706, "tags": {"check_date": "2025-12-08", "name": "Free'P'Star", "second_hand": "only", "shop": "clothes"}}, {"type": "node", "id": 3980442997, "lat": 48.8558672, "lon": 2.3589206, "tags": {"check_date": "2025-12-08", "name": "Alain Affelou", "shop": "optician", "survey:date": "2025-04-14", "wheelchair": "yes"}}, {"type": "node", "id": 3980442998, "lat": 48.8558883, "lon": 2.3588248, "tags": {"addr:floor": "0", "check_date": "2025-12-08", "level": "0", "name": "Fleurs Paris le Marais", "shop": "florist", "wheelchair": "no"}}, {"type": "node", "id": 3980443002, "lat": 48.8557346, "lon": 2.3595417, "tags": {"check_date": "2025-12-08", "name": "Passion Luxe", "shop": "clothes", "wheelchair": "yes"}}, {"type": "node", "id": 3980461751, "lat": 48.8556806, "lon": 2.3597033, "tags": {"check_date": "2025-12-08", "contact:city": "Paris", "contact:housenumber": "14", "contact:postcode": "75004", "contact:street": "Rue de Rivoli", "name": "Maison Georges Larnicol", "opening_hours": "Mo-Fr 10:00-20:30; Sa,Su 10:30-20:30", "shop": "chocolate", "wheelchair": "yes"}}, {"type": "node", "id": 3980461753, "lat": 48.855631, "lon": 2.3599128, "tags": {"check_date": "2025-12-08", "name": "Saint-Paul Optique", "shop": "optician", "wheelchair": "no"}}, {"type": "node", "id": 4126621096, "lat": 48.8526827, "lon": 2.3543785, "tags": {"check_date": "2024-08-24", "name": "Ciel ma chemise", "shop": "clothes", "wheelchair": "no"}}, {"type": "node", "id": 4128998489, "lat": 48.8556007, "lon": 2.3579337, "tags": {"name": "aesth\u00e9", "opening_hours": "Mo-Fr 09:00-20:00; Sa 09:00-19:00", "shop": "beauty", "website": "https://aesthe.com"}}, {"type": "node", "id": 4177304289, "lat": 48.8582923, "lon": 2.3562308, "tags": {"brand": "Nature & D\u00e9couvertes", "brand:wikidata": "Q3337111", "brand:wikipedia": "fr:Nature et D\u00e9couvertes", "check_date": "2024-09-25", "check_date:opening_hours": "2024-09-25", "fax": "+33 1 42 96 36 92", "name": "Nature & D\u00e9couvertes", "opening_hours": "Mo-Su 11:00-20:00", "phone": "+33 1 42 96 36 91", "shop": "outdoor", "website": "https://www.natureetdecouvertes.com/magasins/paris/marais", "wheelchair": "yes"}}, {"type": "node", "id": 4193551099, "lat": 48.8581027, "lon": 2.3546504, "tags": {"brand": "New Balance", "brand:wikidata": "Q742988", "name": "New Balance", "shop": "shoes"}}, {"type": "node", "id": 4292633192, "lat": 48.857956, "lon": 2.3570619, "tags": {"name": "Lancaster", "shop": "bag"}}, {"type": "node", "id": 4317108014, "lat": 48.8591262, "lon": 2.3566285, "tags": {"addr:housenumber": "23", "addr:street": "Rue des Blancs-Manteaux", "name": "Plus que Parfait", "phone": "+33 1 42 71 09 05", "shop": "clothes", "website": "https://www.facebook.com/Plus-que-parfaitd%C3%A9pot-vente-homme-151672118224649/"}}, {"type": "node", "id": 4416938893, "lat": 48.858127, "lon": 2.3562635, "tags": {"level": "0", "name": "Charlie", "shop": "watches", "website": "https://charlie-paris.com/blogs/magazine/boutique-marais", "wheelchair": "no"}}, {"type": "node", "id": 4416976889, "lat": 48.8554946, "lon": 2.3593569, "tags": {"addr:city": "Paris", "addr:housenumber": "1", "addr:postcode": "75004", "addr:street": "Rue de Rivoli", "brand": "HEMA", "brand:website": "https://www.hema.fr/", "brand:wikidata": "Q903805", "brand:wikipedia": "fr:HEMA", "check_date": "2025-12-08", "name": "HEMA", "opening_hours": "Mo-Su 10:00-20:00", "shop": "department_store", "wheelchair": "limited"}}, {"type": "node", "id": 4476868096, "lat": 48.8585573, "lon": 2.3577023, "tags": {"addr:housenumber": "9 bis", "addr:postcode": "75004", "addr:street": "Rue des Blancs-Manteaux", "brand": "Fusalp", "brand:wikidata": "Q3091095", "brand:wikipedia": "fr:Fusalp", "check_date": "2024-08-04", "name": "Fusalp", "name:fr": "Fusalp", "opening_hours": "Mo,Tu 10:30-12:30,13:30-17:30; We-Su 10:30-17:30", "phone": "+33 1 42 72 36 86", "shop": "clothes", "website": "https://www.fusalp.com/fr/"}}, {"type": "node", "id": 4476877295, "lat": 48.8592394, "lon": 2.3582063, "tags": {"contact:city": "Paris", "contact:housenumber": "52", "contact:postcode": "75004", "contact:street": "Rue des Francs Bourgeois", "name": "Zen Ethic", "name:fr": "Zen Ethic", "shop": "clothes", "survey:date": "2025-04-14"}}, {"type": "node", "id": 4523531240, "lat": 48.8596507, "lon": 2.3543278, "tags": {"check_date": "2025-06-13", "name": "Le Temple du Fruit", "shop": "greengrocer", "survey:date": "2025-04-14", "wheelchair": "yes"}}, {"type": "node", "id": 4523602715, "lat": 48.8547163, "lon": 2.3545445, "tags": {"level": "0", "name": "Au pont Louis-Philippe", "shop": "antiques"}}, {"type": "node", "id": 4559144972, "lat": 48.859025, "lon": 2.359411, "tags": {"addr:city": "Paris", "addr:housenumber": "64", "addr:postcode": "75003", "addr:street": "Rue Vieille du Temple", "brand": "Palais des Th\u00e9s", "brand:website": "https://www.palaisdesthes.com", "brand:wikidata": "Q3225161", "brand:wikipedia": "en:Le Palais des Th\u00e9s", "check_date": "2025-07-26", "level": "0", "name": "Palais des Th\u00e9s", "opening_hours": "10:00-20:00", "organic": "yes", "ref:FR:SIRET": "33975263600094", "shop": "tea", "source": "local knowledge", "wheelchair": "no"}}, {"type": "node", "id": 4631920490, "lat": 48.8518963, "lon": 2.3562015, "tags": {"check_date": "2025-05-10", "description": "Portraits 3D, Puzzles d'art en bois, bo\u00eetes \u00e0 musique", "email": "contact@effigys.fr", "internet_access": "wlan", "name": "Effigys", "opening_hours": "Fr-We 11:00-19:00", "phone": "+33 1 43 26 74 27", "shop": "toys", "wheelchair": "yes"}}, {"type": "node", "id": 4676996795, "lat": 48.8528672, "lon": 2.353864, "tags": {"name": "Carion Min\u00e9raux", "name:fr": "Carion Min\u00e9raux", "opening_hours": "Tu-Sa 10:30-13:00,14:00-19:30", "shop": "gift", "website": "https://www.carionmineraux.com", "wheelchair": "no"}}, {"type": "node", "id": 4680947598, "lat": 48.8588975, "lon": 2.3593133, "tags": {"addr:housenumber": "60", "addr:street": "Rue Vieille du Temple", "name": "Oliviers&Co.", "shop": "olive_oil"}}, {"type": "node", "id": 4685038393, "lat": 48.8585908, "lon": 2.3514619, "tags": {"addr:housenumber": "66", "addr:street": "Rue de la Verrerie", "check_date": "2025-10-14", "check_date:opening_hours": "2025-10-14", "email": "info@lucky-records.com", "mobile": "+33 6 52 84 16 40", "name": "Lucky Records", "opening_hours": "Mo-Su 12:00-19:00", "shop": "music", "website": "https://www.lucky-records.com/", "wheelchair": "limited"}}, {"type": "node", "id": 4760691715, "lat": 48.85605, "lon": 2.35035, "tags": {"addr:street": "Voie Georges Pompidou", "contact:facebook": "https://www.facebook.com/SoliCycle/?ref=bookmarks", "email": "berges@solicycle.org", "name": "SoliCycle Rives de Seine", "opening_hours": "We,Fr,Sa 10:30-13:00,14:00-18:30", "operator": "Etudes et Chantiers \u00cele-de-France", "phone": "+33666527655", "ref:FR:SIRET": "44066204700032", "second_hand": "only", "service:bicycle:diy": "yes", "service:bicycle:pump": "yes", "service:bicycle:repair": "yes", "service:bicycle:retail": "no", "service:bicycle:second_hand": "no", "shop": "bicycle", "source": "CRESS \u00cele-de-France", "survey:date": "2024-01-03", "website": "https://solicycle.org/", "wheelchair": "yes"}}, {"type": "node", "id": 4784221022, "lat": 48.8563253, "lon": 2.3576294, "tags": {"name": "pigment gallery", "shop": "art", "survey:date": "2022-05-27"}}, {"type": "node", "id": 4865985720, "lat": 48.8587424, "lon": 2.3541741, "tags": {"addr:housenumber": "39", "addr:street": "Rue Sainte-Croix de la Bretonnerie", "check_date": "2025-12-19", "name": "Fleux", "name:en": "Fleux", "name:fr": "Fleux", "opening_hours": "Mo 10:15-20:45; Tu 09:45-21:30; We 09:30-21:30; Th 09:15-21:30; Fr-Sa 09:15-21:45; Su 09:15-21:00", "shop": "interior_decoration", "website": "https://www.fleux.com/"}}, {"type": "node", "id": 4874567122, "lat": 48.8589128, "lon": 2.3542592, "tags": {"check_date": "2024-08-20", "name": "Sha\u00ef Optic", "opening_hours": "Mo-Sa 11:00-20:00, Su 14:00-20:00", "shop": "optician", "wheelchair": "limited"}}, {"type": "node", "id": 4874584621, "lat": 48.8588476, "lon": 2.3544111, "tags": {"name": "toutendirect.fr", "name:fr": "toutendirect.fr", "shop": "furniture"}}, {"type": "node", "id": 4878605025, "lat": 48.8578447, "lon": 2.3544099, "tags": {"addr:city": "Paris", "name": "Samsoe", "shop": "clothes"}}, {"type": "node", "id": 4878606424, "lat": 48.8579982, "lon": 2.3545531, "tags": {"name": "Arket", "shop": "clothes"}}, {"type": "node", "id": 4907804309, "lat": 48.8597451, "lon": 2.3563449, "tags": {"addr:housenumber": "37", "addr:street": "Rue des Archives", "amenity": "cafe", "description": "Caf\u00e9 et coiffeur", "name": "Mousse", "phone": "+33145311233", "shop": "hairdresser", "survey:date": "2017-07-05", "website": "https://www.mousse.paris/", "wheelchair": "limited"}}, {"type": "node", "id": 4907808865, "lat": 48.859932, "lon": 2.3565402, "tags": {"check_date": "2024-08-10", "name": "Fluo", "shop": "clothes", "wheelchair": "limited"}}, {"type": "node", "id": 4979119721, "lat": 48.8530069, "lon": 2.3519913, "tags": {"lottery": "yes", "name": "Tabac du Pont", "shop": "tobacco"}}, {"type": "node", "id": 5040868209, "lat": 48.8575608, "lon": 2.3564288, "tags": {"brand": "Zadig & Voltaire", "brand:wikidata": "Q3574548", "brand:wikipedia": "fr:Zadig & Voltaire", "name": "Zadig & Voltaire", "opening_hours": "Mo-Su 11:00-19:00; PH closed", "shop": "clothes", "website": "https://www.zadig-et-voltaire.com/eu/en/", "wheelchair": "no"}}, {"type": "node", "id": 5059824698, "lat": 48.8550659, "lon": 2.3552665, "tags": {"level": "0", "name": "Lambert", "shop": "antiques"}}, {"type": "node", "id": 5059824699, "lat": 48.8551857, "lon": 2.3553476, "tags": {"denomination": "catholic", "level": "0", "name": "Sources Vives", "opening_hours": "Tu-Fr 09:30-19:00; Sa 10:00-19:30; Su 12:00-13:00", "operator": "Fraternit\u00e9s Monastiques de J\u00e9rusalem", "religion": "christian", "shop": "gift"}}, {"type": "node", "id": 5059824701, "lat": 48.8551456, "lon": 2.3555502, "tags": {"level": "0", "name": "Papier+", "shop": "vacant"}}, {"type": "node", "id": 5059824702, "lat": 48.8550464, "lon": 2.3554631, "tags": {"contact:facebook": "https://www.facebook.com/benediktaichelejoaillier/", "contact:phone": "+33144540303", "contact:website": "https://www.benediktaichele.com/", "description": "Cr\u00e9ateur en joaillerie contemporaine, mod\u00e8les tels que la Bague d'Union et la Bague Cube.", "level": "0", "name": "B\u00e9n\u00e9dikt A\u00efchel\u00e9 Joaillier", "opening_hours": "We-Sa 11:30-19:00", "shop": "jewelry"}}, {"type": "node", "id": 5059824706, "lat": 48.8548624, "lon": 2.3552702, "tags": {"level": "0", "name": "Fouta Tunisie", "shop": "fabric", "website": "https://www.foutatunisia.com"}}, {"type": "node", "id": 5059824711, "lat": 48.8547989, "lon": 2.3552049, "tags": {"level": "0", "name": "Candora", "shop": "perfumery"}}, {"type": "node", "id": 5059824712, "lat": 48.8550886, "lon": 2.3558042, "tags": {"check_date": "2025-11-10", "level": "0", "name": "M\u00e9morial de la Shoah", "opening_hours": "Su-Fr 10:00-18:00", "shop": "books"}}, {"type": "node", "id": 5059824714, "lat": 48.8549026, "lon": 2.3556022, "tags": {"check_date": "2025-11-10", "level": "0", "name": "Yoroppa Galerie", "shop": "bag"}}, {"type": "node", "id": 5059824715, "lat": 48.854848, "lon": 2.3555492, "tags": {"check_date": "2025-11-10", "level": "0", "name": "L'Art d'Encadrer", "shop": "frame"}}, {"type": "node", "id": 5059824716, "lat": 48.8548006, "lon": 2.355509, "tags": {"check_date": "2025-11-10", "level": "0", "name": "Calligrane", "shop": "stationery"}}, {"type": "node", "id": 5059824718, "lat": 48.8546218, "lon": 2.3553439, "tags": {"level": "0", "name": "Studio Ana'e", "shop": "hairdresser", "website": "https://www.studioanae.com"}}, {"type": "node", "id": 5141497990, "lat": 48.8581445, "lon": 2.3572527, "tags": {"shop": "vacant"}}, {"type": "node", "id": 5165521088, "lat": 48.8581694, "lon": 2.3521738, "tags": {"addr:housenumber": "67", "addr:street": "Rue de la Verrerie", "alt_name": "Kilo-Shop Paris Le Marais", "check_date": "2025-07-02", "name": "Kilo-Shop", "official_name": "K.Two", "opening_hours": "Mo-Sa 11:00-19:30, Su 14:00-19:30", "ref:FR:SIRET": "53246522600027", "second_hand": "only", "shop": "clothes", "website": "https://fmws.fr", "wheelchair": "limited"}}, {"type": "node", "id": 5171456921, "lat": 48.8595442, "lon": 2.353939, "tags": {"addr:housenumber": "41", "addr:street": "Rue du Temple", "check_date": "2025-06-13", "name": "Hippy Market", "shop": "clothes", "wheelchair": "no"}}, {"type": "node", "id": 5198851496, "lat": 48.8598944, "lon": 2.3529672, "tags": {"disused:shop": "confectionery", "shop": "vacant"}}, {"type": "node", "id": 5198851500, "lat": 48.8596056, "lon": 2.3539792, "tags": {"addr:housenumber": "41", "addr:street": "Rue du Temple", "check_date": "2025-06-13", "name": "Home Core", "shop": "clothes", "source": "https://www.openstreetmap.org/note/3287722", "wheelchair": "no"}}, {"type": "node", "id": 5222745901, "lat": 48.8547756, "lon": 2.3502395, "tags": {"addr:city": "Paris", "addr:housenumber": "1", "addr:postcode": "75004", "addr:street": "Rue d'Arcole", "name": "Boulangerie Notre Dame", "opening_hours": "Mo-Fr 06:30-20:00; Sa 07:00-20:00", "panoramax": "fe83c2a0-9433-4117-a3a1-82222a625a5c", "shop": "bakery", "survey:date": "2025-04-04", "wheelchair": "yes"}}, {"type": "node", "id": 5222776522, "lat": 48.851679, "lon": 2.3571369, "tags": {"addr:city": "Paris", "addr:housenumber": "38", "addr:postcode": "75004", "addr:street": "Rue Saint-Louis en l'\u00cele", "name": "38 Saint Louis", "opening_hours": "Tu-Sa 09:00-21:30; Su-Mo 09:00-19:00", "shop": "cheese"}}, {"type": "node", "id": 5222776524, "lat": 48.8518573, "lon": 2.3563083, "tags": {"check_date": "2025-05-10", "name": "Clair de R\u00eave", "opening_hours": "Mo-Sa 11:00-13:00,13:30-19:15", "shop": "toys", "website": "https://shop.clairdereve.com"}}, {"type": "node", "id": 5353492569, "lat": 48.8598411, "lon": 2.350856, "tags": {"addr:city": "Paris", "addr:housenumber": "92", "addr:postcode": "75004", "addr:street": "Rue Saint-Martin", "name": "Fripe Avenue", "shop": "clothes", "survey:date": "2025-04-14", "wheelchair": "limited"}}, {"type": "node", "id": 5358376958, "lat": 48.8586967, "lon": 2.3511588, "tags": {"name": "Vintage Store", "shop": "clothes"}}, {"type": "node", "id": 5359736850, "lat": 48.8592615, "lon": 2.3558662, "tags": {"name": "Audika", "shop": "hearing_aids", "wheelchair": "no"}}, {"type": "node", "id": 5359736851, "lat": 48.8592164, "lon": 2.3558228, "tags": {"brand": "Jonak", "brand:wikidata": "Q105372529", "check_date": "2025-07-07", "name": "Jonak", "shop": "shoes", "wheelchair": "yes"}}, {"type": "node", "id": 5359736852, "lat": 48.8594628, "lon": 2.3564393, "tags": {"check_date": "2024-08-10", "name": "Mademoiselle Jeanne", "shop": "clothes", "wheelchair": "yes"}}, {"type": "node", "id": 5480815423, "lat": 48.8513905, "lon": 2.3560258, "tags": {"name": "Epiphania", "opening_hours": "Tu-Sa 11:30-19:30; Su 12:30-18:30", "shop": "gift", "website": "https://epiphania-paris.com"}}, {"type": "node", "id": 5487291995, "lat": 48.8557203, "lon": 2.3564018, "tags": {"alt_name": "Aux Merveilleux De Fred", "check_date": "2025-11-10", "name": "Aux Merveilleux", "opening_hours": "Mo-Su 07:30-20:00", "phone": "+33 1 57 40 98 43", "shop": "pastry", "website": "https://www.auxmerveilleux.com/"}}, {"type": "node", "id": 5503918347, "lat": 48.8598493, "lon": 2.3541958, "tags": {"addr:housenumber": "45", "addr:street": "Rue du Temple", "check_date": "2025-06-13", "name": "Macha", "shop": "bag", "website": "https://ida2000.surinternet.com/"}}, {"type": "node", "id": 5655629100, "lat": 48.8573032, "lon": 2.3549187, "tags": {"name": "Michalak", "shop": "pastry", "website": "https://www.christophemichalak.com/magasins", "wheelchair": "no"}}, {"type": "node", "id": 5655657866, "lat": 48.8564482, "lon": 2.3577743, "tags": {"check_date": "2024-04-06", "level": "0", "name": "Lav Speed", "opening_hours": "Mo-Su 07:00-22:00", "self_service": "yes", "shop": "laundry", "wheelchair": "no"}}, {"type": "node", "id": 5655657868, "lat": 48.8564822, "lon": 2.3576034, "tags": {"check_date": "2024-04-06", "name": "Mode en Demeure", "opening_hours": "Tu-Sa 14:00-19:00", "shop": "clothes"}}, {"type": "node", "id": 5660252324, "lat": 48.8577741, "lon": 2.3538477, "tags": {"addr:floor": "0", "check_date": "2025-12-08", "contact:city": "Paris", "contact:housenumber": "36", "contact:postcode": "75004", "contact:street": "Rue de la Verrerie", "contact:website": "https://www.bhv.fr/magasins/bhv-homme/", "level": "0", "name": "BHV Homme", "opening_hours": "10:00-20:00; Su 11:00-19:00", "shop": "clothes", "wheelchair": "yes"}}, {"type": "node", "id": 5734353430, "lat": 48.855718, "lon": 2.3565143, "tags": {"name": "Izra\u00ebl", "opening_hours": "Tu-Sa 10:00-13:00, 14:30-18:30", "shop": "deli"}}, {"type": "node", "id": 5794128477, "lat": 48.8533966, "lon": 2.3537647, "tags": {"name": "L'Annexe", "opening_hours": "Mo-Sa 11:00-19:00", "phone": "+33 1 42 01 30 93", "shop": "optician"}}, {"type": "node", "id": 5801777083, "lat": 48.8594994, "lon": 2.3523266, "tags": {"addr:city": "Paris", "check_date": "2025-01-16", "old:name": "PMU", "shop": "vacant", "wheelchair": "yes"}}, {"type": "node", "id": 5801777084, "lat": 48.8595595, "lon": 2.3522324, "tags": {"addr:city": "Paris", "check_date": "2025-04-11", "shop": "vacant"}}, {"type": "node", "id": 5850964987, "lat": 48.8578476, "lon": 2.3514352, "tags": {"addr:city": "Paris", "brand": "Lush", "brand:wikidata": "Q1585448", "brand:wikipedia": "en:Lush (company)", "check_date": "2024-02-09", "name": "Lush", "shop": "cosmetics", "wheelchair": "yes"}}, {"type": "node", "id": 5867330585, "lat": 48.8577844, "lon": 2.3509418, "tags": {"addr:city": "Paris", "brand": "Jeff de Bruges", "brand:wikidata": "Q3176626", "brand:wikipedia": "fr:Jeff de Bruges", "check_date": "2025-01-01", "contact:website": "https://www.jeff-de-bruges.com/jeff-de-bruges-paris-rivoli", "name": "Jeff de Bruges", "phone": "+33 1 42 78 57 29", "shop": "chocolate", "wheelchair": "yes"}}, {"type": "node", "id": 5867330586, "lat": 48.8577657, "lon": 2.35104, "tags": {"name": "N\u014ds by Mirene", "shop": "clothes", "wheelchair": "yes"}}, {"type": "node", "id": 5871570770, "lat": 48.8597857, "lon": 2.3541375, "tags": {"check_date": "2025-06-13", "name": "Footpatrol", "shop": "shoes", "wheelchair": "no"}}, {"type": "node", "id": 5871571012, "lat": 48.8583811, "lon": 2.3547199, "tags": {"shop": "vacant", "wheelchair": "yes"}}, {"type": "node", "id": 5871571015, "lat": 48.8591086, "lon": 2.3536647, "tags": {"brand": "Jimmy Fairly", "brand:wikidata": "Q104825419", "check_date": "2025-06-13", "name": "Jimmy Fairly", "shop": "optician"}}, {"type": "node", "id": 5871571016, "lat": 48.8591612, "lon": 2.3537077, "tags": {"addr:housenumber": "25", "addr:street": "Rue du Temple", "check_date": "2025-06-13", "name": "Milquartz", "shop": "watches"}}, {"type": "node", "id": 5871571018, "lat": 48.8592219, "lon": 2.3537465, "tags": {"addr:housenumber": "29", "addr:street": "Rue du Temple", "check_date": "2025-06-13", "name": "Addicted", "shop": "clothes"}}, {"type": "node", "id": 5871571019, "lat": 48.8591547, "lon": 2.3539277, "tags": {"check_date": "2025-07-02", "name": "Hero Seven", "shop": "clothes", "survey:date": "2025-04-14", "wheelchair": "no"}}, {"type": "node", "id": 5871571020, "lat": 48.8592026, "lon": 2.3539572, "tags": {"check_date": "2025-07-02", "name": "\u00c9mile Lafaurie", "shop": "clothes", "survey:date": "2025-04-14", "wheelchair": "no"}}, {"type": "node", "id": 5871571021, "lat": 48.8592483, "lon": 2.3539857, "tags": {"check_date": "2025-07-02", "clothes": "hats", "name": "Chapeaux du Marais", "shop": "clothes", "survey:date": "2025-04-14", "wheelchair": "no"}}, {"type": "node", "id": 5871571022, "lat": 48.859308, "lon": 2.3540338, "tags": {"addr:housenumber": "30", "addr:street": "Rue du Temple", "check_date": "2025-07-02", "name": "France Canap\u00e9", "shop": "furniture", "wheelchair": "no"}}, {"type": "node", "id": 5871571024, "lat": 48.8594673, "lon": 2.3538855, "tags": {"addr:housenumber": "39", "addr:street": "Rue du Temple", "check_date": "2025-06-13", "name": "Bellerose", "shop": "clothes"}}, {"type": "node", "id": 5871571026, "lat": 48.8595433, "lon": 2.3542617, "tags": {"addr:housenumber": "34", "addr:street": "Rue du Temple", "check_date": "2025-06-13", "name": "Pyrenex", "shop": "clothes", "survey:date": "2025-04-14", "wheelchair": "no"}}, {"type": "node", "id": 5871571027, "lat": 48.8593808, "lon": 2.3542602, "tags": {"contact:email": "smconcept.paris@gmail.com", "contact:mobile": "+33 6 31 07 80 30;+33 6 87 01 33 50", "name": "SMC Gallery", "opening_hours": "Tu-Su 13:00-19:00; Th 13:00-21:00", "shop": "art", "website": "https://www.smc-gallery.fr/"}}, {"type": "node", "id": 5871571030, "lat": 48.8597074, "lon": 2.3543724, "tags": {"addr:housenumber": "38", "addr:street": "Rue du Temple", "check_date": "2025-07-02", "name": "Hacoline", "shop": "trade", "survey:date": "2025-04-14", "wheelchair": "no"}}, {"type": "node", "id": 5871571031, "lat": 48.859768, "lon": 2.3544201, "tags": {"name": "Lee", "shop": "clothes", "survey:date": "2025-04-14", "wheelchair": "no"}}, {"type": "node", "id": 5871571032, "lat": 48.859828, "lon": 2.3544696, "tags": {"name": "Bellerose", "shop": "clothes"}}, {"type": "node", "id": 5871571336, "lat": 48.8593252, "lon": 2.3538016, "tags": {"addr:housenumber": "33", "addr:street": "Rue du Temple", "check_date": "2025-06-13", "name": "AboudabiBazar", "shop": "clothes", "wheelchair": "no"}}, {"type": "node", "id": 5871572049, "lat": 48.8599606, "lon": 2.3543144, "tags": {"addr:housenumber": "49", "addr:street": "Rue du Temple", "check_date": "2025-06-13", "name": "Florence Elle", "shop": "trade", "wheelchair": "no"}}, {"type": "node", "id": 5871572050, "lat": 48.8599638, "lon": 2.3545752, "tags": {"check_date": "2025-06-13", "name": "Marie Sixtine", "shop": "clothes", "wheelchair": "no"}}, {"type": "node", "id": 5922654982, "lat": 48.8593713, "lon": 2.3558278, "tags": {"addr:housenumber": "29", "addr:street": "Rue des Blancs Manteaux", "check_date": "2025-07-29", "description": "Gluten free backery, organic bread", "name": "Copains", "phone": "+33 6 13 54 63 62", "ref:FR:SIRET": "89950755200045", "shop": "bakery", "website": "https://www.copains-paris.com"}}, {"type": "node", "id": 5922654984, "lat": 48.8595003, "lon": 2.3559188, "tags": {"check_date": "2025-07-29", "name": "Octobre", "shop": "clothes", "wheelchair": "no"}}, {"type": "node", "id": 5922655687, "lat": 48.8595627, "lon": 2.3557264, "tags": {"check_date": "2025-07-29", "name": "Harold", "shop": "clothes", "wheelchair": "no"}}, {"type": "node", "id": 5943857034, "lat": 48.8544761, "lon": 2.3500122, "tags": {"name": "Au c\u0153ur de Paris", "shop": "gift", "wheelchair": "yes"}}, {"type": "node", "id": 5943866898, "lat": 48.8545693, "lon": 2.3500837, "tags": {"brand": "Solaris", "brand:wikidata": "Q3489229", "brand:wikipedia": "fr:Solaris (magasin)", "disused:shop": "optician", "shop": "vacant", "survey:date": "2025-04-04", "was:name": "Solaris", "wheelchair": "yes"}}, {"type": "node", "id": 5944110687, "lat": 48.8546737, "lon": 2.3501642, "tags": {"name": "Souvenirs d'Arcole", "panoramax": "135c9d89-f12a-4255-82f0-f5652a91b89c", "shop": "gift", "survey:date": "2025-04-04", "wheelchair": "yes"}}, {"type": "node", "id": 6024439189, "lat": 48.857397, "lon": 2.3560631, "tags": {"alt_name": "Le Parfum Mythique", "contact:website": "https://www.leaudecassis-shop.com/", "name": "L'Eau de Cassis", "opening_hours": "Mo-Fr 11:00-13:00, 14:30-19:30; Sa 11:00-19:30; Su 13:00-19:00; PH closed", "ref:FR:SIRET": "82387623000017", "shop": "perfumery", "wheelchair": "no"}}, {"type": "node", "id": 6404828087, "lat": 48.8522316, "lon": 2.3552495, "tags": {"check_date": "2025-10-28", "name": "Fleuryan", "opening_hours": "Tu-Sa 09:00-21:00; Mo,Su 09:00-20:00", "shop": "convenience"}}, {"type": "node", "id": 6419464388, "lat": 48.8585575, "lon": 2.354468, "tags": {"addr:city": "Paris", "addr:housenumber": "37", "addr:postcode": "75004", "addr:street": "Rue Sainte-Croix de la Bretonnerie", "branch": "Paris Marais", "brand": "Eataly", "brand:wikidata": "Q3046645", "brand:wikipedia": "it:Eataly", "email": "infobox@eataly.fr", "name": "Eataly", "opening_hours": "Mo-Sa 10:00-21:00; Su 10:00-20:00", "phone": "+33 1 83 65 81 00", "shop": "supermarket", "website": "https://eataly.fr/", "wheelchair": "yes"}}, {"type": "node", "id": 6469235159, "lat": 48.8579972, "lon": 2.3578392, "tags": {"shop": "vacant", "survey:date": "2025-05-01", "was:name": "Clarins", "was:shop": "cosmetics"}}, {"type": "node", "id": 6469235166, "lat": 48.8583101, "lon": 2.359564, "tags": {"addr:housenumber": "34", "addr:street": "Rue des Francs Bourgeois", "check_date": "2025-06-12", "level": "0", "name": "Penhaligon's", "ref:FR:SIRET": "80537265300222", "shop": "perfumery", "wheelchair": "limited"}}, {"type": "node", "id": 6469235170, "lat": 48.8580803, "lon": 2.3581327, "tags": {"name": "Izipizi", "shop": "optician", "survey:date": "2025-04-14"}}, {"type": "node", "id": 6469235174, "lat": 48.8579993, "lon": 2.3598396, "tags": {"brand": "De Fursac", "brand:wikidata": "Q22248311", "check_date": "2025-06-28", "check_date:opening_hours": "2025-06-28", "clothes": "men", "name": "De Fursac", "opening_hours:signed": "no", "shop": "clothes", "wheelchair": "no"}}, {"type": "node", "id": 6469235176, "lat": 48.8576478, "lon": 2.3573067, "tags": {"name": "Coton Doux", "shop": "clothes"}}, {"type": "node", "id": 6469235177, "lat": 48.8564763, "lon": 2.3583885, "tags": {"name": "Boucherie David", "ref:FR:SIRET": "57212722300012", "shop": "butcher", "wheelchair": "no"}}, {"type": "node", "id": 6469235178, "lat": 48.8577967, "lon": 2.357681, "tags": {"check_date": "2025-07-29", "name": "Yay", "ref:FR:SIRET": "79754895500088", "shop": "jewelry", "wheelchair": "no"}}, {"type": "node", "id": 6469235181, "lat": 48.8584118, "lon": 2.3593378, "tags": {"check_date": "2025-06-12", "name": "Uno de 50", "shop": "jewelry"}}, {"type": "node", "id": 6469235183, "lat": 48.8575915, "lon": 2.3574212, "tags": {"name": "Silver", "shop": "clothes", "wheelchair": "no"}}, {"type": "node", "id": 6469235289, "lat": 48.857665, "lon": 2.3572269, "tags": {"check_date": "2024-08-17", "name": "G-shock", "opening_hours": "Mo-Sa 11:00-20:00, Su 12:00-19:30", "shop": "watches", "wheelchair": "yes"}}, {"type": "node", "id": 6476128411, "lat": 48.8567442, "lon": 2.3552193, "tags": {"check_date": "2025-12-08", "name": "Tabac de Rivoli", "ref:FR:SIRET": "83904059900012", "shop": "tobacco", "wheelchair": "no"}}, {"type": "node", "id": 6570051731, "lat": 48.8585093, "lon": 2.3591946, "tags": {"addr:housenumber": "40", "addr:street": "Rue des Francs Bourgeois", "brand": "Chanel", "brand:wikidata": "Q218115", "brand:wikipedia": "en:Chanel", "check_date": "2025-06-12", "contact:city": "Paris", "contact:housenumber": "40", "contact:postcode": "75003", "contact:street": "Rue des Francs Bourgeois", "name": "Chanel", "shop": "clothes"}}, {"type": "node", "id": 6631623608, "lat": 48.8592636, "lon": 2.3599805, "tags": {"addr:city": "Paris", "addr:district": "8\u00e8me arrondissement", "addr:housenumber": "20", "addr:postcode": "75008", "clothes": "women;men", "name": "Supreme", "opening_hours": "Mo-Sa 11:00-19:00; Su 12:00-18:00", "payment:cash": "yes", "payment:mastercard": "yes", "payment:visa": "yes", "shop": "clothes"}}, {"type": "node", "id": 6760325958, "lat": 48.859253, "lon": 2.353026, "tags": {"addr:housenumber": "9", "addr:street": "Rue Saint-Merri", "email": "abraxas@abraxas.fr", "level": "0", "name": "Abraxas", "official_name": "Abraxas Beaubourg", "opening_hours": "Mo-Th 11:00-21:00; Fr-Sa 11:00-22:00; Su 13:00-21:00", "phone": "+33 1 48 04 33 55", "shop": "tattoo", "website": "https://abraxas.fr/", "wheelchair": "yes"}}, {"type": "node", "id": 6760368494, "lat": 48.8591911, "lon": 2.3531761, "tags": {"female": "yes", "name": "Oxyde", "shop": "clothes", "survey:date": "2025-04-14"}}, {"type": "node", "id": 6761588488, "lat": 48.8580469, "lon": 2.3519574, "tags": {"addr:housenumber": "4", "addr:postcode": "75001", "addr:street": "Rue du Renard", "name": "Guillaume Dellesse", "ref:FR:SIRET": "89338120200017", "shop": "florist"}}, {"type": "node", "id": 6831177885, "lat": 48.8585391, "lon": 2.3549229, "tags": {"shop": "vacant"}}, {"type": "node", "id": 6918246686, "lat": 48.8553509, "lon": 2.3578709, "tags": {"check_date:opening_hours": "2024-09-14", "name": "Bada Bunta", "opening_hours": "Tu-Sa 10:30-19:30", "shop": "clothes"}}, {"type": "node", "id": 6929661987, "lat": 48.8512053, "lon": 2.358138, "tags": {"addr:city": "Paris", "addr:housenumber": "19", "addr:postcode": "75004", "addr:street": "Rue Saint-Louis en l'\u00cele", "disused:shop": "wine", "old_name": "Maison Tempus", "shop": "vacant"}}, {"type": "node", "id": 6929661988, "lat": 48.8513862, "lon": 2.3579568, "tags": {"addr:city": "Paris", "addr:housenumber": "22", "addr:postcode": "75004", "addr:street": "Rue Saint-Louis en l'\u00cele", "name": "Gallery Ayn", "shop": "interior_decoration", "source": "survey"}}, {"type": "node", "id": 6929668485, "lat": 48.8516266, "lon": 2.3572795, "tags": {"addr:city": "Paris", "addr:housenumber": "34", "addr:postcode": "75004", "addr:street": "Rue Saint-Louis en l'\u00cele", "name": "Saint Louis Beaut\u00e9", "shop": "beauty"}}, {"type": "node", "id": 6929668486, "lat": 48.8517216, "lon": 2.3570045, "tags": {"addr:city": "Paris", "addr:housenumber": "42", "addr:postcode": "75004", "addr:street": "Rue Saint-Louis en l'\u00cele", "check_date": "2023-05-21", "shop": "vacant"}}, {"type": "node", "id": 6944525696, "lat": 48.854543, "lon": 2.3555025, "tags": {"level": "0", "name": "Le pi\u00e9ton de Paris", "ref:FR:SIRET": "83246400200019", "second_hand": "yes", "shop": "books", "wheelchair": "limited"}}, {"type": "node", "id": 6944525729, "lat": 48.8544767, "lon": 2.3556753, "tags": {"name": "A lot of wine", "opening_hours": "Tu-Sa 18:00-23:30, Su 12:00-21:00", "ref:FR:SIRET": "84982779500022", "shop": "wine", "wheelchair": "no"}}, {"type": "node", "id": 7069198187, "lat": 48.8591496, "lon": 2.3535729, "tags": {"level": "0", "name": "With Marlow", "opening_hours": "Mo 13:00-19:30, Tu-Sa 11:00-19:30, Su 14:00-19:00", "ref:FR:SIRET": "82306820000018", "shop": "optician", "wheelchair": "limited"}}, {"type": "node", "id": 7078311701, "lat": 48.8579909, "lon": 2.3583447, "tags": {"name": "Blue Garage", "shop": "clothes"}}, {"type": "node", "id": 7078311726, "lat": 48.8585795, "lon": 2.3591178, "tags": {"addr:housenumber": "42", "addr:street": "Rue des Francs Bourgeois", "check_date": "2025-06-12", "level": "0", "name": "Arc'teryx", "shop": "clothes"}}, {"type": "node", "id": 7098651321, "lat": 48.8552715, "lon": 2.3579101, "tags": {"check_date": "2025-11-10", "name": "Retoucherie du Marais", "opening_hours": "Tu-Fr 09:00-13:00,14:30-19:00; Sa 09:30-13:00,14:30-18:00", "shop": "tailor"}}, {"type": "node", "id": 7098651325, "lat": 48.8550124, "lon": 2.3589407, "tags": {"level": "0", "name": "Billetterie de la Maison Europ\u00e9enne de la Photographie", "shop": "ticket", "wheelchair": "yes"}}, {"type": "node", "id": 7098651329, "lat": 48.8552598, "lon": 2.3592146, "tags": {"check_date": "2025-11-10", "level": "0", "name": "Libraire de la Maison Europ\u00e9enne de la Photographie", "opening_hours": "11:00-19:00", "second_hand": "no", "shop": "books"}}, {"type": "node", "id": 7123925986, "lat": 48.8575275, "lon": 2.3562137, "tags": {"addr:housenumber": "27", "addr:postcode": "75004", "addr:street": "Rue du Bourg Tibourg", "name": "L'Appartement Fran\u00e7ais", "opening_hours": "Mo 13:00-19:00; Tu-Sa 11:00-19:30; Su 12:30-18:30; PH closed", "ref:FR:SIRET": "83131223600027", "shop": "clothes", "website": "https://www.lappartementfrancais.fr/content/10-boutique-made-in-France-paris", "wheelchair": "no"}}, {"type": "node", "id": 7128138685, "lat": 48.8569567, "lon": 2.3571826, "tags": {"addr:housenumber": "22", "addr:street": "Rue Vieille du Temple", "name": "Rifai", "shop": "convenience", "wheelchair": "no"}}, {"type": "node", "id": 7129271990, "lat": 48.8558299, "lon": 2.3568103, "tags": {"contact:phone": "+33 1 44 93 46 45", "name": "Vinosfera", "shop": "alcohol", "website": "https://www.vinosferaparis.fr/"}}, {"type": "node", "id": 7185437599, "lat": 48.8549281, "lon": 2.3582941, "tags": {"noname": "yes", "opening_hours": "Mo-Su 09:30-19:00", "self_service": "yes", "shop": "laundry"}}, {"type": "node", "id": 7272333061, "lat": 48.8579298, "lon": 2.3533464, "tags": {"shop": "vacant"}}, {"type": "node", "id": 7475692168, "lat": 48.8568331, "lon": 2.3568658, "tags": {"name": "HOFF", "shop": "shoes", "wheelchair": "no"}}, {"type": "node", "id": 7600099622, "lat": 48.8585639, "lon": 2.3515167, "tags": {"addr:city": "Paris", "name": "Glam optique", "opening_hours": "Mo-Th 10:00-19:30; Fr 10:00-16:00; Su 12:00-19:00", "shop": "optician", "wheelchair": "limited"}}, {"type": "node", "id": 7600103669, "lat": 48.8584394, "lon": 2.3515304, "tags": {"name": "Luka Luna", "opening_hours": "Mo-Fr 12:00-20:00; Sa 11:00-20:00; Su 13:00-19:30", "shop": "antiques", "wheelchair": "no"}}, {"type": "node", "id": 7600112237, "lat": 48.8585494, "lon": 2.3515852, "tags": {"check_date": "2024-02-09", "name": "Vintage by Ramin", "opening_hours": "Su 09:00-19:00; Tu-Fr 10:00-21:00", "shop": "clothes", "wheelchair": "yes"}}, {"type": "node", "id": 7600136395, "lat": 48.8584112, "lon": 2.3515979, "tags": {"check_date": "2024-02-09", "name": "Fer \u00e0 cheval", "shop": "cosmetics", "wheelchair": "yes"}}, {"type": "node", "id": 7616366385, "lat": 48.8569231, "lon": 2.3560377, "tags": {"name": "You & Eye", "shop": "art"}}, {"type": "node", "id": 7616366485, "lat": 48.856901, "lon": 2.3561437, "tags": {"name": "Le Lautrec", "opening_hours": "11:00-19:30", "ref:FR:SIRET": "87819486900011", "shop": "confectionery", "wheelchair": "no"}}, {"type": "node", "id": 7650390231, "lat": 48.8572595, "lon": 2.3588956, "tags": {"name": "Cookidiction", "shop": "pastry"}}, {"type": "node", "id": 7650390233, "lat": 48.8572465, "lon": 2.3593202, "tags": {"brand": "Le Temps des Cerises", "brand:wikidata": "Q3228558", "brand:wikipedia": "fr:Le Temps des cerises (marque)", "contact:city": "Paris", "contact:housenumber": "30", "contact:postcode": "75004", "contact:street": "Rue des Rosiers", "name": "Le Temps des Cerises", "shop": "clothes", "survey:date": "2025-04-14"}}, {"type": "node", "id": 7650390235, "lat": 48.8574876, "lon": 2.3587192, "tags": {"contact:city": "Paris", "contact:housenumber": "23 bis", "contact:postcode": "75004", "contact:street": "Rue des Rosiers", "name": "Yann Couvreur P\u00e2tisserie", "opening_hours": "Mo-Su 10:00-20:00", "shop": "pastry", "survey:date": "2025-04-14"}}, {"type": "node", "id": 7704944858, "lat": 48.8577878, "lon": 2.3500038, "tags": {"shop": "vacant"}}, {"type": "node", "id": 7717421028, "lat": 48.8589322, "lon": 2.3590209, "tags": {"name": "Love Stories", "opening_hours": "Mo-Su 12:00-18:45", "shop": "clothes"}}, {"type": "node", "id": 7717421029, "lat": 48.8588574, "lon": 2.3592294, "tags": {"name": "Hartford", "shop": "clothes"}}, {"type": "node", "id": 7717421039, "lat": 48.8576894, "lon": 2.3574901, "tags": {"check_date": "2024-08-17", "name": "Anne&Valentin", "ref:FR:SIRET": "81011894300028", "shop": "optician"}}, {"type": "node", "id": 7717421042, "lat": 48.8578161, "lon": 2.3569229, "tags": {"brand": "Princesse tam.tam", "brand:website": "https://www.princessetamtam.com", "brand:wikidata": "Q3403500", "brand:wikipedia": "fr:Princesse tam.tam", "check_date": "2024-08-17", "name": "Princesse tam.tam", "opening_hours": "Mo-Sa 10:30-19:30; Su 11:00-19:00", "shop": "clothes"}}, {"type": "node", "id": 7717421043, "lat": 48.8577301, "lon": 2.3570824, "tags": {"name": "Pierre Marcolini", "opening_hours": "Mo-Sa 10:30-19:30; Su 11:30-19:00", "ref:FR:SIRET": "45061777400226", "shop": "chocolate"}}, {"type": "node", "id": 7717421044, "lat": 48.8588019, "lon": 2.3590976, "tags": {"branch": "Junior", "brand": "Ikks", "brand:wikidata": "Q3146711", "clothes": "children", "level": "0", "name": "Ikks", "shop": "clothes", "toilets": "no", "wheelchair": "no"}}, {"type": "node", "id": 7717421046, "lat": 48.8576574, "lon": 2.3577465, "tags": {"check_date": "2025-07-29", "level": "0", "name": "Iris galerie", "shop": "art", "website": "https://calendly.com/iris_marais/"}}, {"type": "node", "id": 7717421049, "lat": 48.8588287, "lon": 2.3591532, "tags": {"changing_table": "no", "clothes": "men", "level": "0", "name": "\u00c9mile Lafaurie", "organic": "no", "second_hand": "no", "shop": "clothes", "toilets": "no", "wheelchair": "no"}}, {"type": "node", "id": 7717421050, "lat": 48.8587801, "lon": 2.359039, "tags": {"branch": "Women", "brand": "Ikks", "brand:wikidata": "Q3146711", "clothes": "women", "level": "0", "name": "Ikks", "second_hand": "no", "shop": "clothes", "wheelchair": "no"}}, {"type": "node", "id": 7717421056, "lat": 48.857777, "lon": 2.3573287, "tags": {"check_date": "2024-08-17", "name": "Paul Ward", "shop": "clothes"}}, {"type": "node", "id": 7778236542, "lat": 48.8559818, "lon": 2.3589096, "tags": {"check_date": "2025-11-10", "check_date:opening_hours": "2025-11-10", "name": "Lobby", "opening_hours": "Tu-Su 13:00-19:00", "shop": "clothes"}}, {"type": "node", "id": 7778236553, "lat": 48.8573275, "lon": 2.3560096, "tags": {"clothes": "women", "name": "Deeya Paris", "opening_hours": "Mo-Sa 11:00-19:00; Su 14:00-19:00", "shop": "clothes", "website": "https://deeyaparis.com/", "wheelchair": "yes"}}, {"type": "node", "id": 7778236569, "lat": 48.8571466, "lon": 2.3558563, "tags": {"addr:city": "Paris", "addr:housenumber": "17", "addr:postcode": "75004", "addr:street": "Rue du Bourg Tibourg", "check_date": "2024-06-01", "email": "tibetforever1959@gmail.com", "facebook": "https://www.facebook.com/p/Tibet-Forever-100063573714406", "name": "Tibet Forever", "opening_hours": "Mo-Sa 11:00-19:00, Su 14:00-19:00", "phone": "+33 1 44 78 93 83", "shop": "gift"}}, {"type": "node", "id": 7778236579, "lat": 48.8572545, "lon": 2.3546398, "tags": {"changing_table": "no", "description": "Retrait des commandes", "opening_hours": "Mo-Sa 11:00-20:00, Su 1:00", "operator": "BHV", "shop": "department_store", "toilets": "no", "wheelchair": "yes"}}, {"type": "node", "id": 7778255887, "lat": 48.8595651, "lon": 2.3561737, "tags": {"name": "Lewistone", "shop": "jewelry", "wheelchair": "limited"}}, {"type": "node", "id": 7778255892, "lat": 48.8574233, "lon": 2.3561416, "tags": {"name": "The Vintage Society", "opening_hours": "Mo-Su 12:00-19:30, PH closed", "shop": "clothes", "website": "https://shopvintagesociety.com", "wheelchair": "no"}}, {"type": "node", "id": 7778255898, "lat": 48.8577837, "lon": 2.3566125, "tags": {"name": "Essential Parfums", "shop": "perfumery", "wheelchair": "no"}}, {"type": "node", "id": 7778255916, "lat": 48.8558359, "lon": 2.359998, "tags": {"check_date": "2025-06-07", "description": "Librairie italienne", "name": "La Tour de Babel", "payment:mastercard": "yes", "payment:visa": "yes", "ref:FR:SIRET": "33110176600011", "shop": "books"}}, {"type": "node", "id": 7778255929, "lat": 48.8560013, "lon": 2.3588293, "tags": {"check_date": "2025-11-10", "check_date:opening_hours": "2025-11-10", "name": "Sens unique", "opening_hours": "Mo-Su 12:00-20:00", "ref:FR:SIRET": "53169741500010", "shop": "perfumery"}}, {"type": "node", "id": 7778255933, "lat": 48.8580294, "lon": 2.3565334, "tags": {"check_date": "2023-07-29", "name": "Trudon", "shop": "gift", "wheelchair": "no"}}, {"type": "node", "id": 7894921065, "lat": 48.8584656, "lon": 2.3531952, "tags": {"addr:housenumber": "15", "addr:street": "Rue du Temple", "check_date": "2025-06-13", "name": "Pierre Talamon", "opening_hours": "Mo-Sa 11:00-19:30; Su off", "shop": "clothes", "survey:date": "2025-03-25", "wheelchair": "no"}}, {"type": "node", "id": 7923610486, "lat": 48.8581524, "lon": 2.3565731, "tags": {"level": "0", "name": "Marc Le Bihan", "ref:FR:SIRET": "49889763600029", "shop": "optician", "wheelchair": "yes"}}, {"type": "node", "id": 7923610590, "lat": 48.8565246, "lon": 2.3566258, "tags": {"changing_table": "no", "check_date": "2023-09-15", "level": "0", "name": "Labonal", "ref:FR:SIRET": "42331542300065", "second_hand": "no", "shop": "clothes", "toilets": "no", "wheelchair": "no"}}, {"type": "node", "id": 7972556756, "lat": 48.8517542, "lon": 2.3563514, "tags": {"addr:city": "Paris", "addr:housenumber": "19 bis", "addr:postcode": "75004", "addr:street": "Rue des Deux Ponts", "disused:shop": "convenience", "name": "\u00c9picerie fine", "shop": "vacant"}}, {"type": "node", "id": 7972587906, "lat": 48.8517093, "lon": 2.3563187, "tags": {"addr:city": "Paris", "addr:housenumber": "19 bis", "addr:postcode": "75004", "addr:street": "Rue des Deux Ponts", "check_date:opening_hours": "2025-07-31", "name": "Upper Concept Store", "opening_hours": "Tu-Sa 11:00-19:00", "shop": "gift"}}, {"type": "node", "id": 7972587915, "lat": 48.8520928, "lon": 2.3566266, "tags": {"addr:city": "Paris", "addr:housenumber": "29", "addr:postcode": "75004", "addr:street": "Rue des Deux Ponts", "check_date": "2025-07-31", "check_date:opening_hours": "2025-07-31", "name": "Le Cachemire", "opening_hours": "Mo-Su 11:00-19:00", "shop": "clothes"}}, {"type": "node", "id": 7972587925, "lat": 48.8554419, "lon": 2.3558484, "tags": {"name": "Shopping for Happiness", "shop": "gift"}}, {"type": "node", "id": 7972587926, "lat": 48.8519871, "lon": 2.3565378, "tags": {"addr:city": "Paris", "addr:housenumber": "25", "addr:postcode": "75004", "addr:street": "Rue des Deux Ponts", "check_date": "2022-09-30", "name": "Les Vergers de l'\u00cele Saint Louis", "ref:FR:SIRET": "33431693200014", "shop": "greengrocer"}}, {"type": "node", "id": 8016720368, "lat": 48.8571633, "lon": 2.3568247, "tags": {"name": "Medley", "opening_hours": "Tu-Sa 10:00-19:00", "shop": "hairdresser"}}, {"type": "node", "id": 8016720374, "lat": 48.8595418, "lon": 2.3557819, "tags": {"check_date": "2025-07-29", "name": "Pot", "shop": "pottery", "wheelchair": "no"}}, {"type": "node", "id": 8016720375, "lat": 48.8570185, "lon": 2.3570333, "tags": {"name": "Lithographies", "shop": "art"}}, {"type": "node", "id": 8016720378, "lat": 48.8570094, "lon": 2.3572471, "tags": {"check_date": "2024-02-13", "name": "Panier des Sens", "ref:FR:SIRET": "82005330400060", "shop": "perfumery", "wheelchair": "yes"}}, {"type": "node", "id": 8016720381, "lat": 48.8570822, "lon": 2.3570994, "tags": {"brand": "Chevignon", "brand:wikidata": "Q787601", "brand:wikipedia": "fr:Chevignon", "name": "Chevignon", "shop": "clothes", "wheelchair": "limited"}}, {"type": "node", "id": 8016758787, "lat": 48.855709, "lon": 2.3565858, "tags": {"name": "Eaux de vie et vins du monde", "shop": "alcohol"}}, {"type": "node", "id": 8016758789, "lat": 48.8558532, "lon": 2.3566894, "tags": {"level": "0", "name": "Hier et aujourd'hui", "shop": "antiques", "wheelchair": "no"}}, {"type": "node", "id": 8016758795, "lat": 48.8562124, "lon": 2.3574519, "tags": {"check_date": "2025-12-08", "name": "Paul Marius", "opening_hours": "Su-Fr 11:30-14:00,15:00-19:00; Sa 11:30-19:00", "shop": "clothes"}}, {"type": "node", "id": 8016758797, "lat": 48.8563823, "lon": 2.3567917, "tags": {"check_date": "2025-12-08", "level": "0", "name": "Pressing 4 filles", "opening_hours": "Mo-Fr 08:30-20:00, Sa 09:00-20:00", "shop": "dry_cleaning", "wheelchair": "yes"}}, {"type": "node", "id": 8016758806, "lat": 48.8551927, "lon": 2.3599909, "tags": {"name": "Le Petit Vapoteur", "opening_hours": "Mo-Su 10:00-19:00", "ref:FR:SIRET": "82115527200189", "shop": "e-cigarette"}}, {"type": "node", "id": 8016758810, "lat": 48.8555763, "lon": 2.3581488, "tags": {"check_date": "2025-11-10", "name": "Villa Paris", "shop": "art"}}, {"type": "node", "id": 8016758818, "lat": 48.8557662, "lon": 2.3570778, "tags": {"level": "0", "name": "La tabati\u00e8re du Marais", "ref:FR:SIRET": "80997621000017", "shop": "newsagent", "tobacco": "yes", "wheelchair": "no"}}, {"type": "node", "id": 8016758821, "lat": 48.8565349, "lon": 2.3569033, "tags": {"shop": "clothes", "wheelchair": "no"}}, {"type": "node", "id": 8016758832, "lat": 48.8553011, "lon": 2.3594207, "tags": {"check_date": "2025-12-08", "level": "0", "name": "Simone P\u00e9r\u00e8le", "ref:FR:SIRET": "33965540900060", "shop": "clothes", "toilets": "no", "wheelchair": "no"}}, {"type": "node", "id": 8016758834, "lat": 48.8556968, "lon": 2.357349, "tags": {"name": "Au Spa du Village", "ref:FR:SIRET": "91079362900015", "shop": "beauty", "website": "https://www.auspaduvillage.fr/"}}, {"type": "node", "id": 8016758839, "lat": 48.855565, "lon": 2.3582707, "tags": {"check_date": "2025-11-10", "name:signed": "no", "shop": "travel_agency"}}, {"type": "node", "id": 8016758852, "lat": 48.8553648, "lon": 2.3588977, "tags": {"name": "Petit pan", "opening_hours": "Mo-Su 11:00-19:00", "shop": "interior_decoration"}}, {"type": "node", "id": 8016758858, "lat": 48.855566, "lon": 2.3583309, "tags": {"name": "Gilbert Gilbert", "opening_hours": "Tu-Sa 11:00-13:30,14:30-19:00", "shop": "lighting"}}, {"type": "node", "id": 8016758866, "lat": 48.8589262, "lon": 2.3569353, "tags": {"name": "Jamault", "shop": "frame"}}, {"type": "node", "id": 8016758867, "lat": 48.8558422, "lon": 2.3567539, "tags": {"name": "Shanti Travel", "shop": "travel_agency"}}, {"type": "node", "id": 8016758868, "lat": 48.8570745, "lon": 2.3572888, "tags": {"brand": "Rituals", "brand:wikidata": "Q62874140", "name": "Rituals", "shop": "cosmetics"}}, {"type": "node", "id": 8016758871, "lat": 48.857729, "lon": 2.3578201, "tags": {"brand": "Wolford", "brand:wikidata": "Q431607", "brand:wikipedia": "en:Wolford", "check_date": "2025-07-29", "name": "Wolford", "shop": "clothes"}}, {"type": "node", "id": 8016758889, "lat": 48.8596985, "lon": 2.3528336, "tags": {"shop": "vacant", "wheelchair": "limited"}}, {"type": "node", "id": 8016758894, "lat": 48.855555, "lon": 2.3585559, "tags": {"check_date": "2025-11-10", "name": "Thierry Vendome", "shop": "jewelry"}}, {"type": "node", "id": 8026362210, "lat": 48.8502404, "lon": 2.35889, "tags": {"addr:city": "Paris", "addr:housenumber": "1", "addr:postcode": "75004", "addr:street": "Boulevard Henri IV", "branch": "Store Notre Dame", "brand": "Giant", "brand:wikidata": "Q703557", "check_date": "2025-08-29", "check_date:opening_hours": "2025-08-29", "check_date:service:bicycle:retail": "2025-08-29", "contact:phone": "+33 1 43 29 05 63", "description": "R\u00e9paration toutes marques. Montage \u00e0 la carte. Accessoires. Textiles. Nutrition. V\u00e9los enfants, ville, VTC, VTT, route, Triathlon, V\u00e9los \u00e0 Assistance \u00c9lectrique, Fixie.", "name": "Giant", "opening_hours": "Tu-Sa 10:00-19:00", "service:bicycle:pump": "no", "service:bicycle:repair": "yes", "service:bicycle:retail": "yes", "service:bicycle:second_hand": "no", "shop": "bicycle", "website": "https://www.giant-notredame.fr/", "wheelchair": "no"}}, {"type": "node", "id": 8026362211, "lat": 48.8520761, "lon": 2.3568986, "tags": {"addr:city": "Paris", "addr:housenumber": "39", "addr:postcode": "75004", "addr:street": "Quai d'Anjou", "disused:amenity": "post_office", "old_name": "La Poste", "shop": "vacant"}}, {"type": "node", "id": 8069346965, "lat": 48.8587098, "lon": 2.3502262, "tags": {"addr:housenumber": "24", "addr:street": "Rue Saint-Martin", "indoor_seating": "no", "name": "Maison Marnay", "opening_hours": "Mo-Sa 07:00-20:00", "outdoor_seating": "no", "ref:FR:SIRET": "80748375500011", "shop": "bakery", "takeaway": "only", "wheelchair": "no"}}, {"type": "node", "id": 8113062857, "lat": 48.8531774, "lon": 2.3535928, "tags": {"name": "Pierre Herm\u00e9", "opening_hours": "Mo-Th 11:00-19:00; Fr,Sa 10:00-20:00; Su 10:00-19:00", "ref:FR:SIRET": "43485195200334", "shop": "confectionery"}}, {"type": "node", "id": 8113062858, "lat": 48.8531333, "lon": 2.3535559, "tags": {"name": "Opulence Vintage", "shop": "clothes"}}, {"type": "node", "id": 8113062860, "lat": 48.8529583, "lon": 2.3537098, "tags": {"name": "Antiquit\u00e9s", "opening_hours": "Fr-We 15:00-20:00", "ref:FR:SIRET": "38970444600027", "shop": "antiques"}}, {"type": "node", "id": 8113062861, "lat": 48.8530013, "lon": 2.3537531, "tags": {"contact:phone": "+33 1 43 26 08 63", "name": "Lafitte", "opening_hours": "Tu-Sa 10:00-14:00,15:00-19:00", "ref:FR:SIRET": "89705051400081", "ref:vatin": "FR44897050514", "shop": "deli", "website": "https://www.lafitte.fr"}}, {"type": "node", "id": 8113062864, "lat": 48.8530852, "lon": 2.353847, "tags": {"name": "L'\u00c9tiquette", "opening_hours": "Mo 14:00-20:00; Tu-Su 11:00-20:00", "shop": "wine", "website": "https://letiquetteparis.fr/"}}, {"type": "node", "id": 8113062865, "lat": 48.8531116, "lon": 2.3538751, "tags": {"contact:instagram": "lacabanedelouise_paris", "name": "La Cabane de Louise", "opening_hours": "We 10:30-19:30, Th,Fr 11:30-14:30,15:30-20:00, Sa,Su 11:00-20:00", "shop": "interior_decoration", "website": "https://lacabanedelouise.fr"}}, {"type": "node", "id": 8269359959, "lat": 48.85841, "lon": 2.3590575, "tags": {"check_date": "2025-06-12", "name": "apm", "shop": "jewelry"}}, {"type": "node", "id": 8274234810, "lat": 48.8578876, "lon": 2.3601343, "tags": {"entrance": "yes"}}, {"type": "node", "id": 8402437243, "lat": 48.8594775, "lon": 2.3528237, "tags": {"name": "Respiro", "shop": "interior_decoration", "survey:date": "2025-04-14"}}, {"type": "node", "id": 8642635740, "lat": 48.8555986, "lon": 2.3562731, "tags": {"check_date": "2025-11-10", "name": "Pierre Boisset", "opening_hours": "Tu,We 15:00-19:00; Th-Sa 11:00-19:00", "shop": "bag"}}, {"type": "node", "id": 8642635741, "lat": 48.8588733, "lon": 2.357118, "tags": {"name": "Inouitoosh", "shop": "clothes"}}, {"type": "node", "id": 8642635756, "lat": 48.8554541, "lon": 2.3561396, "tags": {"check_date": "2025-11-10", "level": "0", "name": "Psych\u00e9", "shop": "fashion_accessories", "wheelchair": "no"}}, {"type": "node", "id": 8642635761, "lat": 48.8590786, "lon": 2.3567334, "tags": {"name": "art\u00e9fact", "shop": "tea"}}, {"type": "node", "id": 8716773872, "lat": 48.8548213, "lon": 2.3542807, "tags": {"old_name": "La Petite Experience", "shop": "vacant"}}, {"type": "node", "id": 8777094477, "lat": 48.8572205, "lon": 2.3571481, "tags": {"brand": "Karl Lagerfeld", "brand:wikidata": "Q108024274", "name": "Karl Lagerfeld", "shop": "clothes", "wheelchair": "no"}}, {"type": "node", "id": 8777094478, "lat": 48.8572757, "lon": 2.3571984, "tags": {"name": "Odaje", "old_name": "M. Moustache", "opening_hours": "Mo-Fr 11:30-20:00; Sa 11:00-20:00; Su 11:30-19:00", "ref:FR:SIRET": "75092338500041", "shop": "shoes", "wheelchair": "no"}}, {"type": "node", "id": 8777233345, "lat": 48.8553576, "lon": 2.3557637, "tags": {"level": "0", "shop": "tattoo"}}, {"type": "node", "id": 8784694839, "lat": 48.8599938, "lon": 2.3560985, "tags": {"name": "Wever & Ducr\u00e9", "shop": "lighting"}}, {"type": "node", "id": 8784694847, "lat": 48.8599458, "lon": 2.3560563, "tags": {"name": "WoodySae\u00ef\u00e9", "ref:FR:SIRET": "87838506100022", "shop": "hairdresser"}}, {"type": "node", "id": 8833633090, "lat": 48.8589243, "lon": 2.3593462, "tags": {"name": "Caba\u00efa", "shop": "clothes"}}, {"type": "node", "id": 8833633091, "lat": 48.8589543, "lon": 2.359383, "tags": {"name": "La Chambre aux Confitures", "shop": "deli"}}, {"type": "node", "id": 8833633092, "lat": 48.8591939, "lon": 2.3596606, "tags": {"name": "La Calini\u00e8re", "shop": "antiques"}}, {"type": "node", "id": 8833633093, "lat": 48.8592323, "lon": 2.3597183, "tags": {"name": "Horace", "shop": "cosmetics"}}, {"type": "node", "id": 8833633094, "lat": 48.8593311, "lon": 2.3598685, "tags": {"name": "Fred Perry", "shop": "clothes", "website": "https://www.fredperry.com/eu-fr/shop-finder/paris-temple"}}, {"type": "node", "id": 8833633095, "lat": 48.8594105, "lon": 2.3599765, "tags": {"name": "Daphn\u00e9 Dasque", "shop": "jewelry", "website": "https://daphnedasque.com"}}, {"type": "node", "id": 8840327599, "lat": 48.8571429, "lon": 2.3573962, "tags": {"brand": "UGG", "brand:wikidata": "Q1138480", "check_date": "2025-07-29", "name": "UGG", "shop": "shoes", "wheelchair": "no"}}, {"type": "node", "id": 8840327600, "lat": 48.8574989, "lon": 2.357656, "tags": {"check_date": "2025-07-29", "indoor_seating": "yes", "name": "Saveurs de pain", "outdoor_seating": "yes", "shop": "bakery", "wheelchair": "limited"}}, {"type": "node", "id": 8840327602, "lat": 48.85795, "lon": 2.3580087, "tags": {"name": "Amour en Cage", "ref:FR:SIRET": "49867585900033", "shop": "fashion_accessories", "survey:date": "2025-04-14"}}, {"type": "node", "id": 8842970035, "lat": 48.8532179, "lon": 2.3536303, "tags": {"check_date": "2025-05-13", "contact:phone": "+33 1 42 49 03 81", "level": "0", "name": "L'Hu\u00eetrerie", "opening_hours": "We-Mo 12:00-22:00; Mo-Th 15:30-17:30 closed", "operator": "Poget & de Witte", "shop": "seafood", "website": "https://www.poget-dewitte.com"}}, {"type": "node", "id": 8928958514, "lat": 48.8572162, "lon": 2.3577456, "tags": {"addr:housenumber": "10", "addr:street": "Rue du Tr\u00e9sor", "name": "La Redoute Int\u00e9rieurs", "shop": "furniture"}}, {"type": "node", "id": 9019374169, "lat": 48.858803, "lon": 2.350684, "tags": {"name": "Free'p'star", "shop": "clothes", "wheelchair": "no"}}, {"type": "node", "id": 9123101151, "lat": 48.8555453, "lon": 2.358614, "tags": {"name": "Personnalise Paris", "shop": "clothes"}}, {"type": "node", "id": 9233564999, "lat": 48.8580438, "lon": 2.3591252, "tags": {"branch": "Lab P75", "brand": "Nike", "brand:wikidata": "Q483915", "brand:wikipedia": "en:Nike, Inc.", "inscription": "Librairie", "level": "0", "name": "Nike lab P75", "opening_hours": "Mo-Sa 10:30-19:30", "shop": "clothes", "wheelchair": "no"}}, {"type": "node", "id": 9233565002, "lat": 48.8568012, "lon": 2.3586436, "tags": {"name": "Smoke well", "shop": "e-cigarette"}}, {"type": "node", "id": 9233565006, "lat": 48.856756, "lon": 2.3586022, "tags": {"beauty": "nails", "name": "Meet Nail", "ref:FR:SIRET": "84981244100012", "shop": "beauty"}}, {"type": "node", "id": 9241124965, "lat": 48.858473, "lon": 2.3594236, "tags": {"addr:city": "Paris", "addr:housenumber": "38", "addr:postcode": "75003", "addr:street": "Rue des Francs Bourgeois", "clothes": "fashion;jewels;hats", "name": "Pop-up Store des Arbal\u00e9triers", "opening_hours": "Fr-Su 11:00-19:00", "payment:cash": "yes", "payment:credit_cards": "yes", "shop": "fashion_accessories", "survey:date": "2022-12-04"}}, {"type": "node", "id": 9247842739, "lat": 48.8590581, "lon": 2.3584887, "tags": {"check_date": "2025-06-12", "name": "Oh my cream", "shop": "cosmetics", "survey:date": "2025-04-14"}}, {"type": "node", "id": 9247842746, "lat": 48.8569312, "lon": 2.3569656, "tags": {"name": "Les Stocks du Marais", "shop": "clothes"}}, {"type": "node", "id": 9314777167, "lat": 48.8532356, "lon": 2.3585959, "tags": {"name": "Le cerisier", "shop": "jewelry"}}, {"type": "node", "id": 9314777169, "lat": 48.855982, "lon": 2.3594631, "tags": {"check_date": "2025-06-07", "level": "0", "name": "Alternatives", "ref:FR:SIRET": "34161202600011", "shop": "clothes", "wheelchair": "no"}}, {"type": "node", "id": 9314777180, "lat": 48.8560263, "lon": 2.3587165, "tags": {"check_date": "2025-11-10", "check_date:opening_hours": "2025-11-10", "level": "0", "name": "Rayon bio", "opening_hours": "Mo-Su 09:30-20:00", "organic": "only", "shop": "convenience"}}, {"type": "node", "id": 9314777181, "lat": 48.8561079, "lon": 2.3590031, "tags": {"check_date": "2025-06-07", "name": "Noir Kennedy", "shop": "clothes"}}, {"type": "node", "id": 9360947895, "lat": 48.8560333, "lon": 2.3592362, "tags": {"check_date": "2025-06-07", "contact:facebook": "https://www.facebook.com/dragontattooparis/", "contact:phone": "+33 1 40 29 43 03", "name": "Dragon & Tattoo", "opening_hours": "Tu-Sa 11:00-19:00", "ref:FR:SIRET": "43015654700027", "shop": "tattoo"}}, {"type": "node", "id": 9414038866, "lat": 48.8517422, "lon": 2.3566086, "tags": {"addr:city": "Paris", "addr:housenumber": "33", "addr:postcode": "75004", "addr:street": "Rue Saint-Louis en l'\u00cele", "brand": "Carrefour Express", "brand:wikidata": "Q2940190", "check_date": "2024-04-06", "name": "Carrefour Express", "opening_hours": "Mo-Sa 08:00-22:00; Su 09:00-13:00", "operator": "Groupe Carrefour", "operator:wikidata": "Q3117359", "operator:wikipedia": "fr:Groupe Carrefour", "phone": "+33 1 42 03 67 18", "ref:FR:SIRET": "82251170500037", "shop": "convenience", "website": "https://www.carrefour.fr/magasin/express-paris-2-ponts-12"}}, {"type": "node", "id": 9431934618, "lat": 48.8576899, "lon": 2.3540041, "tags": {"shop": "vacant"}}, {"type": "node", "id": 9472817077, "lat": 48.8555751, "lon": 2.3590398, "tags": {"check_date": "2025-12-08", "name": "Finsbury", "opening_hours": "Mo-Sa 10:30-19:30; Su 11:00-19:00", "shop": "shoes", "wheelchair": "no"}}, {"type": "node", "id": 9472817078, "lat": 48.8556034, "lon": 2.3589328, "tags": {"brand": "Free", "brand:wikidata": "Q2467627", "name": "Free", "shop": "mobile_phone"}}, {"type": "node", "id": 9472827427, "lat": 48.8560236, "lon": 2.3582806, "tags": {"addr:housenumber": "26", "addr:postcode": "75004", "addr:street": "Rue de Rivoli", "check_date": "2025-12-08", "name": "Tabac\u2013Loto\u2013PMU", "shop": "tobacco", "wheelchair": "no"}}, {"type": "node", "id": 9488141287, "lat": 48.8580513, "lon": 2.3515416, "tags": {"branch": "Renard", "brand": "Ernest & Valentin", "check_date": "2024-02-09", "indoor_seating": "yes", "name": "Ernest & Valentin", "outdoor_seating": "no", "ref:FR:SIRET": "90428710900014", "shop": "bakery", "smoking": "no", "website": "https://ernestetvalentin.com/boulangeries/", "wheelchair": "no"}}, {"type": "node", "id": 9488141289, "lat": 48.8581841, "lon": 2.3516187, "tags": {"indoor_seating": "yes", "name": "MuMu", "outdoor_seating": "no", "shop": "gift", "smoking": "no", "wheelchair": "limited"}}, {"type": "node", "id": 9488141290, "lat": 48.8586729, "lon": 2.351907, "tags": {"check_date": "2025-07-02", "name": "Copyself", "opening_hours": "Mo-Sa 09:00-19:00", "ref:FR:SIRET": "43382721900059", "shop": "copyshop", "wheelchair": "yes"}}, {"type": "node", "id": 9490913362, "lat": 48.8508689, "lon": 2.3500027, "tags": {"check_date": "2025-06-03", "name": "Salon Sant\u00e9 Bien-\u00catre", "shop": "massage"}}, {"type": "node", "id": 9501679136, "lat": 48.8503182, "lon": 2.3500791, "tags": {"beauty": "spa;massage", "name": "Amanpur Tha\u00ef Spa", "opening_hours": "Mo-Su 11:00-20:00", "shop": "beauty"}}, {"type": "node", "id": 9501679140, "lat": 48.8504532, "lon": 2.3502213, "tags": {"name": "Messy Nessy's Cabinet", "opening_hours": "Mo-Fr 11:00-18:00, Sa 14:00-19:00", "shop": "art", "website": "https://www.messynessychic.com"}}, {"type": "node", "id": 9504481087, "lat": 48.8586294, "lon": 2.3584415, "tags": {"check_date": "2025-06-12", "name": "Repetto", "opening_hours": "Mo 13:00-19:00; Tu-Sa 10:00-19:00; Su 13:00-19:00", "shop": "shoes", "wikidata": "Q3427237", "wikipedia": "fr:Repetto"}}, {"type": "node", "id": 9558673813, "lat": 48.8522729, "lon": 2.3567852, "tags": {"addr:city": "Paris", "addr:housenumber": "35", "addr:postcode": "75004", "addr:street": "Rue des Deux Ponts", "name": "Laguiole Coutellerie", "ref:FR:SIRET": "38488700600052", "shop": "houseware"}}, {"type": "node", "id": 9561130813, "lat": 48.852484, "lon": 2.3545678, "tags": {"name": "Le Prestige de l'Alimentation", "opening_hours": "Mo,We-Su 08:00-22:00", "shop": "convenience"}}, {"type": "node", "id": 9561130815, "lat": 48.8528182, "lon": 2.3540051, "tags": {"addr:housenumber": "90", "addr:street": "Rue Saint-Louis en l'\u00cele", "name": "Tourbillon", "opening_hours": "Tu 14:30-19:30; We-Sa 10:00-13:00,14:30-19:30; Su 10:00-19:30", "operator": "Yann Brys", "phone": "+33 1 46 33 56 13", "ref:FR:SIRET": "90815100400011", "shop": "pastry", "website": "https://patisserie-tourbillon.fr/"}}, {"type": "node", "id": 9579422637, "lat": 48.8533115, "lon": 2.354197, "tags": {"name": "Nour Mira", "opening_hours": "We-Su 11:00-13:30,14:30-19:00", "ref:FR:SIRET": "92077428800020", "shop": "jewelry"}}, {"type": "node", "id": 9579632341, "lat": 48.8502745, "lon": 2.3524962, "tags": {"books": "comic", "name": "\u00c9ditions D\u00e9esse", "opening_hours": "Mo 16:00-19:00; Tu-Fr 11:00-13:00,14:30-19:00; Sa 11:00-19:00", "shop": "books", "website": "http://www.editions-deesse.com/"}}, {"type": "node", "id": 9602961115, "lat": 48.8575468, "lon": 2.3539804, "tags": {"addr:housenumber": "33", "entrance": "yes", "source": "survey"}}, {"type": "node", "id": 9645789817, "lat": 48.8570115, "lon": 2.3596117, "tags": {"check_date": "2024-12-26", "contact:city": "Paris", "contact:housenumber": "11", "contact:postcode": "75004", "contact:street": "Rue des Rosiers", "name": "Bag all", "phone": "+33 6 71 94 60 70", "shop": "bag", "website": "https://bag-all-france.com"}}, {"type": "node", "id": 9646770645, "lat": 48.8571535, "lon": 2.3578729, "tags": {"name": "Codage", "shop": "cosmetics", "website": "https://www.codageparis.com/fr", "wheelchair": "no"}}, {"type": "node", "id": 9659990019, "lat": 48.858754, "lon": 2.3502488, "tags": {"name": "G20", "shop": "convenience", "wheelchair": "yes"}}, {"type": "node", "id": 9675439454, "lat": 48.8500367, "lon": 2.3504942, "tags": {"name": "Salon sur Cour", "ref:FR:SIRET": "47866212500028", "shop": "hairdresser", "website": "https://salon-sur-cour.ecoif.fr/"}}, {"type": "node", "id": 9691431273, "lat": 48.8500625, "lon": 2.3531604, "tags": {"name": "Jenny & Paola", "ref:FR:SIRET": "51038167600020", "shop": "hairdresser"}}, {"type": "node", "id": 9691431277, "lat": 48.8584656, "lon": 2.358265, "tags": {"level": "0", "name": "Orlebar Brown", "ref:FR:SIRET": "87905104300039", "shop": "clothes", "survey:date": "2025-04-14", "wheelchair": "no"}}, {"type": "node", "id": 9708641352, "lat": 48.858751, "lon": 2.3547615, "tags": {"check_date": "2025-12-19", "name": "Fleux", "opening_hours": "Mo 10:15-20:45; Tu 09:45-21:30; We 09:30-21:30; Th 09:15-21:30; Fr-Sa 09:15-21:45; Su 09:15-21:00", "shop": "interior_decoration", "website": "https://www.fleux.com/"}}, {"type": "node", "id": 9754625681, "lat": 48.8590483, "lon": 2.3534164, "tags": {"name": "Chez bogato", "opening_hours": "Tu-Sa 11:00-19:30; Su 11:00-19:00", "ref:FR:SIRET": "50254348100043", "shop": "pastry", "website": "https://chezbogato.fr/"}}, {"type": "node", "id": 9778929917, "lat": 48.8563924, "lon": 2.3579308, "tags": {"check_date": "2024-04-06", "name": "joy", "ref:FR:SIRET": "48451645500017", "shop": "clothes", "survey:date": "2022-05-27"}}, {"type": "node", "id": 9778930117, "lat": 48.8563097, "lon": 2.3577594, "tags": {"name": "Voltage", "ref:FR:SIRET": "34975930800019", "shop": "music", "survey:date": "2022-05-27"}}, {"type": "node", "id": 9778930217, "lat": 48.8564154, "lon": 2.3578507, "tags": {"check_date": "2024-04-06", "name": "zazen", "phone": "+33 142782937", "ref:FR:SIRET": "50824764000024", "shop": "hairdresser", "survey:date": "2022-05-27"}}, {"type": "node", "id": 9797551087, "lat": 48.855436, "lon": 2.3578792, "tags": {"delivery": "yes", "level": "0", "name": "Kaviari Delikatessen", "opening_hours": "Mo-Su 09:30-20:30", "phone": "+33 1 42 77 23 08", "ref:FR:SIRET": "81274135300062", "shop": "deli", "takeaway": "yes", "website": "https://kaviaridelikatessens.com/"}}, {"type": "node", "id": 9802817406, "lat": 48.8521729, "lon": 2.3554077, "tags": {"name": "Faelsa Kabrousse", "old_name": "Patrick Allain", "ref:FR:SIREN": "824823231", "ref:FR:SIRET": "82482323100033", "ref:vatin": "FR93824823231", "shop": "florist"}}, {"type": "node", "id": 9802817408, "lat": 48.8522417, "lon": 2.3556023, "tags": {"branch": "Saint-Louis en l'\u00cele", "brand": "Nicolas", "brand:website": "https://www.nicolas.com/", "brand:wikidata": "Q3340012", "brand:wikipedia": "fr:Nicolas (entreprise vinicole)", "contact:city": "Paris", "contact:housenumber": "64", "contact:postcode": "75004", "contact:street": "Rue Saint-Louis en l'\u00cele", "name": "Nicolas", "opening_hours": "Tu-Sa 10:30-20:00, Su 10:30-13:30", "operator": "\u00c9tablissements Nicolas", "operator:ref:FR:SIREN": "542066238", "ref:FR:NAF": "47.25Z", "ref:FR:SIRET": "54206623802863", "ref:vatin": "FR31542066238", "shop": "alcohol"}}, {"type": "node", "id": 9802817410, "lat": 48.8519281, "lon": 2.3561053, "tags": {"addr:city": "Paris", "addr:housenumber": "39", "addr:postcode": "75004", "addr:street": "Rue Saint-Louis en l'\u00cele", "name": "Mus\u00e9e Vivant du Fromage", "ref:FR:SIRET": "80002086900049", "shop": "cheese"}}, {"type": "node", "id": 9802817411, "lat": 48.852009, "lon": 2.3558728, "tags": {"check_date": "2022-09-30", "name": "Maison H. Moinet", "opening_hours": "Tu-Sa 11:00-13:30,14:30-19:00", "ref:FR:SIRET": "39005867500039", "shop": "confectionery"}}, {"type": "node", "id": 9802817413, "lat": 48.8525532, "lon": 2.3547237, "tags": {"check_date": "2025-06-20", "name": "La Ferme Saint-Aubin", "opening_hours": "Tu-Su 09:30-13:00,15:00-19:30", "payment:cash": "no", "payment:mastercard": "yes", "payment:visa": "yes", "ref:FR:SIRET": "79150048100019", "shop": "cheese"}}, {"type": "node", "id": 9802817414, "lat": 48.8526707, "lon": 2.3540375, "tags": {"name": "Nina Kendosa", "opening_hours": "Mo-Su 10:30-19:30", "ref:FR:SIRET": "44359295100117", "shop": "clothes"}}, {"type": "node", "id": 9802817415, "lat": 48.8522714, "lon": 2.355526, "tags": {"name": "Hadrien", "opening_hours": "10:00-20:00", "shop": "chocolate", "website": "https://www.hadrien-chocolatier.fr"}}, {"type": "node", "id": 9802832181, "lat": 48.8516079, "lon": 2.3573316, "tags": {"addr:city": "Paris", "addr:housenumber": "34", "addr:postcode": "75004", "addr:street": "Rue Saint-Louis en l'\u00cele", "name": "Les Barbes Bleues", "opening_hours": "Mo-Sa 09:30-19:30", "phone": "+33 6 59 32 09 71", "shop": "hairdresser", "website": "https://lesbarbesbleues.com/"}}, {"type": "node", "id": 9808617387, "lat": 48.8594076, "lon": 2.3547161, "tags": {"check_date": "2024-10-22", "name": "Spa Tha\u00ef Luxe", "shop": "massage"}}, {"type": "node", "id": 9823618150, "lat": 48.8583532, "lon": 2.3552965, "tags": {"brand": "Ba&sh", "brand:website": "https://ba-sh.com", "brand:wikidata": "Q104214363", "check_date": "2024-08-10", "clothes": "women", "name": "Ba&sh", "shop": "clothes"}}, {"type": "node", "id": 9836845750, "lat": 48.8583566, "lon": 2.3534894, "tags": {"addr:city": "Paris", "addr:housenumber": "14", "addr:postcode": "75004", "addr:street": "Rue du Temple", "check_date": "2025-06-13", "name": "Rossignol", "ref:FR:SIRET": "05650295800228", "shop": "sports", "survey:date": "2025-03-25", "wheelchair": "yes"}}, {"type": "node", "id": 9864565605, "lat": 48.8516169, "lon": 2.3569814, "tags": {"addr:city": "Paris", "addr:housenumber": "27", "addr:postcode": "75004", "addr:street": "Rue Saint-Louis en l'\u00cele", "check_date": "2024-07-07", "name": "Tr\u00e9sors du Tibet", "opening_hours": "Tu-Fr,Su 11:00-19:30; Sa 11:00-20:00", "shop": "gift"}}, {"type": "node", "id": 9864590859, "lat": 48.8516426, "lon": 2.3569216, "tags": {"addr:city": "Paris", "addr:housenumber": "27", "addr:postcode": "75004", "addr:street": "Rue Saint-Louis en l'\u00cele", "name": "Akoun Propri\u00e9t\u00e9s", "shop": "estate_agent"}}, {"type": "node", "id": 9869127881, "lat": 48.8599765, "lon": 2.3500734, "tags": {"check_date": "2025-08-07", "name": "Tabac Le Pompidou", "shop": "tobacco", "survey:date": "2025-04-14", "wheelchair": "no"}}, {"type": "node", "id": 9886172972, "lat": 48.8592357, "lon": 2.3502982, "tags": {"name": "We love", "shop": "clothes", "wheelchair": "limited"}}, {"type": "node", "id": 9886172973, "lat": 48.8592749, "lon": 2.3503246, "tags": {"name": "Couleurs du Monde", "ref:FR:SIRET": "39508240700085", "shop": "clothes", "wheelchair": "no"}}, {"type": "node", "id": 9886172974, "lat": 48.8593317, "lon": 2.3503464, "tags": {"addr:city": "Paris", "addr:housenumber": "69", "addr:postcode": "75004", "addr:street": "Rue Saint-Martin", "name": "Fioko Shop", "shop": "fashion_accessories", "website": "https://fioko.shop/", "wheelchair": "no"}}, {"type": "node", "id": 9886172975, "lat": 48.8593835, "lon": 2.3503821, "tags": {"name": "Bella Blue", "shop": "clothes", "wheelchair": "no"}}, {"type": "node", "id": 9892290664, "lat": 48.8566854, "lon": 2.3563074, "tags": {"name": "She's Cake", "opening_hours": "We-Su 11:30-19:00", "shop": "pastry", "website": "https://www.shescake.fr", "wheelchair": "no"}}, {"type": "node", "id": 9892290668, "lat": 48.8574799, "lon": 2.3561821, "tags": {"addr:city": "Paris", "addr:housenumber": "25", "addr:postcode": "75004", "addr:street": "Rue du Bourg Tibourg", "contact:instagram": "kimonoarch_yandsons.fr", "name": "KIMONO ARCH / Y. & SONS", "opening_hours": "Tu-Su 11:00-19:00", "phone": "+33 7 44 85 66 53", "shop": "clothes", "website": "https://www.kimono-yamato.co.jp/en/kimonoarch_yandsons_in_paris", "wheelchair": "limited"}}, {"type": "node", "id": 9898312897, "lat": 48.8583821, "lon": 2.3531368, "tags": {"addr:housenumber": "15", "addr:street": "Rue du Temple", "brand": "Aigle", "brand:wikidata": "Q404391", "check_date": "2025-07-02", "name": "Aigle", "shop": "clothes", "survey:date": "2025-03-25"}}, {"type": "node", "id": 9898312899, "lat": 48.8583019, "lon": 2.3530899, "tags": {"check_date": "2025-06-13", "name": "BHM optique", "opening_hours": "Mo-Th 10:00-19:30; Fr 10:00-16:00; Sa off; Su 12:00-19:00", "ref:FR:SIRET": "52974680200014", "shop": "optician", "survey:date": "2025-03-25"}}, {"type": "node", "id": 9898312900, "lat": 48.8582494, "lon": 2.353045, "tags": {"check_date": "2025-06-13", "level": "0", "name": "CAC", "shop": "fabric", "survey:date": "2025-03-25", "website": "https://www.cac.fr/en/contact", "wheelchair": "no"}}, {"type": "node", "id": 9905886838, "lat": 48.8587664, "lon": 2.353399, "tags": {"addr:housenumber": "21", "addr:street": "Rue du Temple", "brand": "K-Way", "brand:wikidata": "Q2820820", "check_date": "2025-07-02", "name": "K-Way", "ref:FR:SIRET": "75362526800093", "shop": "clothes", "survey:date": "2025-03-25", "wheelchair": "yes"}}, {"type": "node", "id": 9905886842, "lat": 48.8586753, "lon": 2.3533467, "tags": {"brand": "American Vintage", "brand:wikidata": "Q2422884", "name": "American Vintage", "shop": "clothes", "survey:date": "2025-03-25", "wheelchair": "limited"}}, {"type": "node", "id": 9905886843, "lat": 48.8586266, "lon": 2.3533133, "tags": {"check_date": "2025-07-02", "name": "Newcop", "opening_hours": "Mo-Sa 11:30-20:00, Su 11:30-19:30", "shop": "shoes"}}, {"type": "node", "id": 9905886844, "lat": 48.8585621, "lon": 2.3532528, "tags": {"check_date": "2025-07-02", "name": "Kaolin", "ref:FR:SIRET": "50779490700026", "shop": "interior_decoration", "survey:date": "2025-03-25", "wheelchair": "no"}}, {"type": "node", "id": 9905886857, "lat": 48.858177, "lon": 2.3533923, "tags": {"check_date": "2025-12-08", "name": "Timberland", "shop": "clothes"}}, {"type": "node", "id": 9905886863, "lat": 48.8580451, "lon": 2.3532361, "tags": {"addr:housenumber": "12", "addr:street": "Rue du Temple", "check_date": "2025-12-08", "name": "Le petit lunetier", "opening_hours": "Tu,We 11:30-13:30,14:30-19:30; Th-Sa 10:30-13:30,14:30-19:30", "ref:FR:SIRET": "80967635600094", "shop": "optician", "survey:date": "2025-03-25", "wheelchair": "no"}}, {"type": "node", "id": 9906576383, "lat": 48.8589166, "lon": 2.3535083, "tags": {"check_date": "2025-07-02", "name": "Jott", "opening_hours": "11:00-19:00", "shop": "clothes", "wheelchair": "no"}}, {"type": "node", "id": 9910423504, "lat": 48.8587091, "lon": 2.3536478, "tags": {"addr:housenumber": "20", "addr:street": "Rue du Temple", "check_date": "2025-06-13", "contact:instagram": "perlemoiparis", "name": "Perle et Moi", "shop": "jewelry"}}, {"type": "node", "id": 9917430877, "lat": 48.8584474, "lon": 2.3579033, "tags": {"level": "0", "name": "Maison Francis Kurkdjian", "ref:FR:SIRET": "50834388600042", "shop": "perfumery"}}, {"type": "node", "id": 9917430884, "lat": 48.8584185, "lon": 2.3579692, "tags": {"level": "0", "name": "Infiniment Coty", "opening_hours": "Tu-Su 11:00-19:30", "ref:FR:SIRET": "55201929100293", "shop": "perfumery"}}, {"type": "node", "id": 9963172309, "lat": 48.8577721, "lon": 2.3570015, "tags": {"brand": "Comptoir des Cotonniers", "brand:website": "https://www.comptoirdescotonniers.com", "brand:wikidata": "Q2990868", "level": "0", "name": "Comptoir des Cotonniers", "opening_hours": "Mo-Sa 10:30-19:30", "shop": "clothes", "wheelchair": "yes"}}, {"type": "node", "id": 9963172316, "lat": 48.8575554, "lon": 2.3576982, "tags": {"brand": "Falconeri", "brand:wikidata": "Q28056375", "check_date": "2025-07-29", "name": "Falconeri", "shop": "clothes"}}, {"type": "node", "id": 9963191519, "lat": 48.8570758, "lon": 2.3580547, "tags": {"level": "0", "name": "Mark'style Tokyo", "opening_hours": "Mo-Su 11:00-19:00", "shop": "stationery", "wheelchair": "no"}}, {"type": "node", "id": 10045995157, "lat": 48.8590545, "lon": 2.3538577, "tags": {"addr:housenumber": "26", "addr:street": "Rue du Temple", "check_date": "2025-06-13", "name": "Moscot", "shop": "optician", "survey:date": "2025-03-25", "wheelchair": "no"}}, {"type": "node", "id": 10083679388, "lat": 48.8519064, "lon": 2.3561708, "tags": {"check_date": "2024-07-08", "name": "Blue Lemon", "shop": "bag"}}, {"type": "node", "id": 10083679392, "lat": 48.8519666, "lon": 2.3563517, "tags": {"disused:shop": "fashion_accessories", "old_name": "Diwali", "shop": "vacant"}}, {"type": "node", "id": 10083679393, "lat": 48.8523882, "lon": 2.3551832, "tags": {"check_date": "2025-10-28", "name": "Cyril Antony", "opening_hours": "Tu-Fr 10:30-19:00; Sa 11:00-19:00", "ref:FR:SIRET": "49968854700011", "shop": "optician", "website": "https://cyrilantony.fr"}}, {"type": "node", "id": 10099270358, "lat": 48.8574446, "lon": 2.3502313, "tags": {"name": "M'Optique", "ref:FR:SIRET": "52227733400010", "shop": "optician"}}, {"type": "node", "id": 10153088249, "lat": 48.8597322, "lon": 2.3507792, "tags": {"name": "Bobart'", "shop": "fashion_accessories", "wheelchair": "limited"}}, {"type": "node", "id": 10212698997, "lat": 48.8568797, "lon": 2.3550033, "tags": {"name": "Soltours", "ref:FR:SIRET": "32088887800016", "shop": "travel_agency", "wheelchair": "no"}}, {"type": "node", "id": 10214547231, "lat": 48.8501238, "lon": 2.3520562, "tags": {"name": "Alimentation Feti Prix", "shop": "convenience"}}, {"type": "node", "id": 10247806214, "lat": 48.8591793, "lon": 2.3565396, "tags": {"name": "meus", "shop": "clothes", "website": "https://www.meusparis.com/meus-store-paris"}}, {"type": "node", "id": 10274355079, "lat": 48.8558868, "lon": 2.357018, "tags": {"name": "Histoire 2 Soeurs", "shop": "yes"}}, {"type": "node", "id": 10274355091, "lat": 48.8559468, "lon": 2.3570552, "tags": {"name": "Ecox, L'atelier", "opening_hours": "Tu-Sa 09:30-14:00,15:00-19:00", "service:bicycle:repair": "yes", "shop": "bicycle", "website": "https://www.ecox.fr/nos-magasins/rivoli"}}, {"type": "node", "id": 10274392250, "lat": 48.8556188, "lon": 2.3570468, "tags": {"name": "Samsara Baz Art", "shop": "yes"}}, {"type": "node", "id": 10716343400, "lat": 48.8546914, "lon": 2.3546041, "tags": {"name": "Les Fleurs de Lut\u00e8ce", "ref:FR:SIRET": "85044105600031", "shop": "florist"}}, {"type": "node", "id": 10746322392, "lat": 48.8547218, "lon": 2.3507281, "tags": {"name": "Manuelle Guibal", "ref:FR:SIRET": "39991160100058", "shop": "clothes", "website": "https://www.manuelleguibal.com/"}}, {"type": "node", "id": 10746322396, "lat": 48.8548567, "lon": 2.350433, "tags": {"name": "Kathy", "ref:FR:SIRET": "53108516500011", "shop": "gift"}}, {"type": "node", "id": 10746322401, "lat": 48.8548077, "lon": 2.350513, "tags": {"name": "Fantastik", "ref:FR:SIRET": "52780006400026", "shop": "gift"}}, {"type": "node", "id": 10746322403, "lat": 48.8528822, "lon": 2.3517319, "tags": {"name": "Flan de Notre-Dame", "opening_hours": "09:00-19:30", "shop": "pastry"}}, {"type": "node", "id": 10746322404, "lat": 48.8530137, "lon": 2.3513446, "tags": {"name": "AMR Souvenirs", "opening_hours": "09:00-20:00; May-Sep 09:00-22:00", "shop": "gift"}}, {"type": "node", "id": 10809266720, "lat": 48.8566624, "lon": 2.3583819, "tags": {"name": "Boucherie Norbert \u00c0 l'oranaise", "shop": "butcher"}}, {"type": "node", "id": 10809266722, "lat": 48.8569319, "lon": 2.3586238, "tags": {"name": "Sweet escape", "ref:FR:SIRET": "89976063100023", "shop": "confectionery"}}, {"type": "node", "id": 10809266723, "lat": 48.8571155, "lon": 2.3587698, "tags": {"name": "Le temple du vintage", "second_hand": "only", "shop": "clothes"}}, {"type": "node", "id": 10814251191, "lat": 48.857915, "lon": 2.3544746, "tags": {"brand": "Rolex", "brand:wikidata": "Q62288", "name": "Rolex", "shop": "watches"}}, {"type": "node", "id": 10816470205, "lat": 48.8559055, "lon": 2.3597202, "tags": {"check_date": "2025-06-07", "name": "Mardini", "shop": "shoes"}}, {"type": "node", "id": 10825253638, "lat": 48.8525804, "lon": 2.3546587, "tags": {"name": "78 iSL", "opening_hours": "11:00-19:30", "shop": "clothes"}}, {"type": "node", "id": 10825253640, "lat": 48.8526663, "lon": 2.3544286, "tags": {"name": "Bakhtar", "opening_hours": "11:00-19:00; Mo,Su 14:00-19:00", "shop": "gift", "website": "https://amanghaffori.wixsite.com/bakhtar"}}, {"type": "node", "id": 10825253642, "lat": 48.8527194, "lon": 2.3538884, "tags": {"name": "Le grain de sable", "opening_hours": "We-Mo 11:00-19:00; Tu 15:00-19:00", "shop": "gift"}}, {"type": "node", "id": 10825253643, "lat": 48.8527406, "lon": 2.3538301, "tags": {"name": "Sobral", "opening_hours": "Mo 12:00-19:00; Tu-Th 11:30-19:00; Fr 12:00-19:00; Sa 11:00-19:00; Su 13:00-19:00", "shop": "jewelry"}}, {"type": "node", "id": 10830590612, "lat": 48.8519861, "lon": 2.3559461, "tags": {"check_date": "2025-07-29", "description": "Sells clothes and country flags", "name": "Komorebi", "shop": "clothes"}}, {"type": "node", "id": 10830590614, "lat": 48.8521023, "lon": 2.3556198, "tags": {"name": "Galerie \u00c9toile", "official_name": "Kim & Okasha", "ref:FR:SIREN": "987571676", "ref:FR:SIRET": "98757167600012", "ref:vatin": "FR02987571676", "shop": "art"}}, {"type": "node", "id": 10830590615, "lat": 48.8521172, "lon": 2.3555723, "tags": {"name": "Maison CF", "opening_hours": "Mo-Sa 11:00-19:00", "shop": "books", "website": "https://www.maisoncf.fr/"}}, {"type": "node", "id": 10830590616, "lat": 48.8521376, "lon": 2.3555142, "tags": {"check_date": "2024-10-08", "shop": "vacant"}}, {"type": "node", "id": 10830590617, "lat": 48.8521912, "lon": 2.355349, "tags": {"name": "Charlotte", "shop": "clothes"}}, {"type": "node", "id": 10830590619, "lat": 48.8522949, "lon": 2.3550736, "tags": {"check_date": "2025-10-28", "name": "Pylones", "ref:FR:SIRET": "33225187500032", "shop": "gift"}}, {"type": "node", "id": 10857887005, "lat": 48.8594023, "lon": 2.3557126, "tags": {"addr:housenumber": "33", "addr:street": "Rue des Blancs-Manteaux", "check_date": "2025-07-29", "name": "L'appartement S\u00e9zane", "opening_hours": "Su-Fr 11:00-20:00; Sa 10:00-20:00", "ref:FR:SIRET": "87756690100162", "shop": "clothes", "wheelchair": "no"}}, {"type": "node", "id": 10916623417, "lat": 48.8517492, "lon": 2.3556613, "tags": {"contact:city": "Paris", "contact:housenumber": "10", "contact:postcode": "75004", "contact:street": "Rue Bud\u00e9", "name": "Prestige Paris", "old_name": "La Suite Paris", "opening_hours": "Mo-Fr 10:00-19:00; Th 10:00-20:00; Sa 09:30-18:30", "phone": "+33 1 42 71 81 18", "ref:FR:SIREN": "980427561", "ref:FR:SIRET": "98042756100017", "ref:vatin": "FR01980427561", "shop": "hairdresser"}}, {"type": "node", "id": 10920092319, "lat": 48.8575386, "lon": 2.3519077, "tags": {"check_date": "2025-06-13", "name": "Pikolinos", "shop": "shoes"}}, {"type": "node", "id": 10920092320, "lat": 48.8574272, "lon": 2.3520069}, {"type": "node", "id": 10920092321, "lat": 48.8574193, "lon": 2.3520542}, {"type": "node", "id": 10920092322, "lat": 48.8574367, "lon": 2.352061}, {"type": "node", "id": 10920092323, "lat": 48.8574446, "lon": 2.3520136}, {"type": "node", "id": 10920092324, "lat": 48.8570785, "lon": 2.3538264, "tags": {"entrance": "shop"}}, {"type": "node", "id": 10989026252, "lat": 48.8574491, "lon": 2.3550815, "tags": {"name": "Librairie Fondation Alaia", "shop": "books"}}, {"type": "node", "id": 11013561649, "lat": 48.85647, "lon": 2.3571487, "tags": {"check_date": "2024-04-06", "name": "Boutique Lucca's", "shop": "clothes"}}, {"type": "node", "id": 11036019304, "lat": 48.8581169, "lon": 2.3519917, "tags": {"check_date": "2025-07-02", "name": "Royal Renard", "shop": "gift"}}, {"type": "node", "id": 11036043729, "lat": 48.8579422, "lon": 2.3518629, "tags": {"name": "Eyes contact", "ref:FR:SIRET": "52987978500010", "shop": "optician"}}, {"type": "node", "id": 11037927155, "lat": 48.8597224, "lon": 2.3505932, "tags": {"check_date": "2023-07-10", "name": "Fripe OLYMPA Vintage Store", "ref:FR:SIRET": "40883700300024", "second_hand": "only", "shop": "clothes", "wheelchair": "limited"}}, {"type": "node", "id": 11059918465, "lat": 48.8565086, "lon": 2.3575076, "tags": {"name": "warene creations", "shop": "clothes"}}, {"type": "node", "id": 11059918466, "lat": 48.8567541, "lon": 2.3584797, "tags": {"name": "ycho", "ref:FR:SIRET": "80317376400017", "shop": "clothes"}}, {"type": "node", "id": 11059937056, "lat": 48.8568334, "lon": 2.3586839, "tags": {"name": "the room", "ref:FR:SIRET": "95307150300015", "shop": "clothes"}}, {"type": "node", "id": 11059989341, "lat": 48.8589919, "lon": 2.3585542, "tags": {"check_date": "2025-06-12", "name": "balibaris", "ref:FR:SIRET": "52799527800217", "shop": "clothes", "survey:date": "2025-04-14"}}, {"type": "node", "id": 11069094905, "lat": 48.8554907, "lon": 2.355492, "tags": {"brand": "A+Glass", "brand:wikidata": "Q116688243", "contact:city": "Paris 4eme Arrondissement", "contact:phone": "+33 800 33 20 00", "contact:postcode": "75004", "contact:street": "Place De L'h\u00f4tel De Ville", "name": "A+Glass Mobile Paris Iv", "opening_hours": "Mo-Sa 08:00-19:00", "service:vehicle:glass": "yes", "shop": "car_repair", "website": "https://www.aplusglass.com/"}}, {"type": "node", "id": 11102867831, "lat": 48.8547792, "lon": 2.3585163, "tags": {"name": "Rodolphe & Co", "ref:FR:SIRET": "51470831200053", "shop": "cosmetics"}}, {"type": "node", "id": 11112424562, "lat": 48.8532705, "lon": 2.3505175, "tags": {"name": "Au Jongleur de Notre Dame", "ref:FR:SIRET": "67201472700032", "shop": "gift"}}, {"type": "node", "id": 11112497712, "lat": 48.8534168, "lon": 2.3500163, "tags": {"shop": "gift"}}, {"type": "node", "id": 11112500612, "lat": 48.8511818, "lon": 2.3502934, "tags": {"name": "Avant\u00ed la Musica", "ref:FR:SIRET": "52357152900016", "shop": "music"}}, {"type": "node", "id": 11112510724, "lat": 48.851172, "lon": 2.3506036, "tags": {"check_date": "2025-08-27", "check_date:opening_hours": "2025-08-27", "name": "La main d'or du Tibet", "opening_hours": "Mo-Su 10:00-19:00", "shop": "gift"}}, {"type": "node", "id": 11212328365, "lat": 48.8588216, "lon": 2.3504243, "tags": {"name": "Mes Indes Galantes", "shop": "clothes", "wheelchair": "limited"}}, {"type": "node", "id": 11212390172, "lat": 48.8585486, "lon": 2.3512404, "tags": {"name": "Free'P'Star", "second_hand": "only", "shop": "clothes", "wheelchair": "yes"}}, {"type": "node", "id": 11299593181, "lat": 48.8571841, "lon": 2.3561395, "tags": {"addr:housenumber": "14", "addr:street": "rue du bourg Tibourg", "name": "Anatomica", "phone": "+33142741020", "ref:FR:SIRET": "39791606500022", "shop": "clothes", "website": "https://www.anatomica.fr/", "wheelchair": "no"}}, {"type": "node", "id": 11425763870, "lat": 48.8594118, "lon": 2.3538669, "tags": {"name": "Free'P'Star", "shop": "clothes"}}, {"type": "node", "id": 11462800119, "lat": 48.8596257, "lon": 2.3562351, "tags": {"name": "Pressin \u00e9cologique cleanwash", "shop": "dry_cleaning"}}, {"type": "node", "id": 11579731589, "lat": 48.8587743, "lon": 2.350585, "tags": {"shop": "vacant"}}, {"type": "node", "id": 11603053059, "lat": 48.859778, "lon": 2.3506083, "tags": {"name": "Fripe Avenue", "shop": "clothes", "wheelchair": "limited"}}, {"type": "node", "id": 11603065866, "lat": 48.8583891, "lon": 2.350379, "tags": {"name": "Retouches", "shop": "sewing", "wheelchair": "limited"}}, {"type": "node", "id": 11603075939, "lat": 48.8595125, "lon": 2.3506479, "tags": {"name": "Rainbow factory", "shop": "leather", "wheelchair": "limited"}}, {"type": "node", "id": 11603111829, "lat": 48.8584026, "lon": 2.3506064, "tags": {"name": "Form", "shop": "window_blind", "wheelchair": "no"}}, {"type": "node", "id": 11603117644, "lat": 48.8584677, "lon": 2.3506501, "tags": {"female": "yes", "male": "yes", "name": "Bouclette.co", "phone": "+33143373087", "shop": "hairdresser", "website": "https://bouclette.co", "wheelchair": "yes"}}, {"type": "node", "id": 11603128902, "lat": 48.8583307, "lon": 2.3503626, "tags": {"beauty": "tanning", "name": "Point Soleil", "ref:FR:SIRET": "49314725000168", "shop": "beauty", "wheelchair": "yes"}}, {"type": "node", "id": 11603152755, "lat": 48.8595991, "lon": 2.3505231, "tags": {"addr:housenumber": "81", "addr:street": "Rue Saint-Martin", "name": "Chapeaux Merry Jean's", "ref:FR:SIRET": "37995645100056", "shop": "clothes", "wheelchair": "limited"}}, {"type": "node", "id": 11603160809, "lat": 48.8590544, "lon": 2.3521205, "tags": {"name": "Boutique de la Reunion", "shop": "convenience", "wheelchair": "limited"}}, {"type": "node", "id": 11608284670, "lat": 48.8560897, "lon": 2.3592816, "tags": {"name": "Il \u00e9tait une fois", "shop": "christmas"}}, {"type": "node", "id": 11681699669, "lat": 48.8570436, "lon": 2.358095, "tags": {"addr:housenumber": "6", "addr:postcode": "75004", "addr:street": "Rue du Tr\u00e9sor", "contact:facebook": "agogogang", "contact:instagram": "agogogang", "email": "bisou@agogogang.fr", "name": "AGOGOGANG", "opening_hours": "Tu-Fr 11:00-19:00; Sa 11:00-20:00; Su 13:00-19:00", "phone": "+33 9 87 00 45 97", "shop": "clothes", "website": "https://agogogang.fr/"}}, {"type": "node", "id": 11781433970, "lat": 48.8578501, "lon": 2.3518366, "tags": {"shop": "vacant"}}, {"type": "node", "id": 11781433971, "lat": 48.8577614, "lon": 2.3517689, "tags": {"name": "HIS", "shop": "vacant"}}, {"type": "node", "id": 11800097085, "lat": 48.8581913, "lon": 2.3521098, "tags": {"level": "0", "lottery": "yes", "name": "Tabac du Renard", "ref:FR:SIREN": "403193931", "ref:FR:SIRET": "40319393100041", "shop": "tobacco"}}, {"type": "node", "id": 11824620483, "lat": 48.8561743, "lon": 2.3562869, "tags": {"amenity": "bicycle_repair_station", "brand": "CycloCube", "fee": "yes", "name": "CycloCube - Acad\u00e9mie du Climat", "opening_hours": "We 18:30 21:00", "operator": "CycloCube - Acad\u00e9mie du Climat", "payment:cards": "yes", "payment:cash": "yes", "service:bicycle:diy": "yes", "service:bicycle:pump": "yes", "service:bicycle:repair": "yes", "service:bicycle:repair_stand": "yes", "service:bicycle:second_hand": "yes", "service:bicycle:stand": "yes", "service:bicycle:tools": "yes", "service:bicycle:volonteer": "yes", "shop": "bicycle", "website": "https://cyclocube.org/prochain-atelier-velo/"}}, {"type": "node", "id": 11850965585, "lat": 48.8578726, "lon": 2.353033}, {"type": "node", "id": 11850965589, "lat": 48.8576953, "lon": 2.352816, "tags": {"entrance": "exit", "exit": "emergency"}}, {"type": "node", "id": 11949687752, "lat": 48.8572572, "lon": 2.3561871, "tags": {"level": "0", "name": "L'Appartement Fran\u00e7ais", "opening_hours": "Mo 13:00-19:00; Tu-Sa 11:00-19:30; Su 12:30-18:30; PH closed", "ref:FR:SIRET": "83131223600035", "shop": "clothes", "website": "https://www.lappartementfrancais.fr/content/10-boutique-made-in-France-paris", "wheelchair": "no"}}, {"type": "node", "id": 11949687753, "lat": 48.8578167, "lon": 2.3564601, "tags": {"name": "Th\u00e9 Fran\u00e7ais", "shop": "tea"}}, {"type": "node", "id": 11949687754, "lat": 48.857616, "lon": 2.3564592, "tags": {"name": "Fer Blanc", "shop": "helmet"}}, {"type": "node", "id": 11949687755, "lat": 48.8576572, "lon": 2.3565059, "tags": {"name": "Korean Cosmetics", "shop": "beauty"}}, {"type": "node", "id": 11949687756, "lat": 48.8573176, "lon": 2.3562431, "tags": {"name": "Korean Cosmetics", "shop": "beauty"}}, {"type": "node", "id": 11949687757, "lat": 48.8571239, "lon": 2.3560679, "tags": {"name": "Parici Opticienne", "ref:FR:SIRET": "51280383400013", "shop": "optician", "wheelchair": "no"}}, {"type": "node", "id": 11949687758, "lat": 48.8578639, "lon": 2.3566802, "tags": {"alt_shop": "popup", "description": "ceci est un pop-up store donc avec types de magasins et enseignes \u00e9ph\u00e9m\u00e8res", "note": "merci de conserver le alt_shop", "permanent": "no", "shop": "vacant"}}, {"type": "node", "id": 11980531155, "lat": 48.8584011, "lon": 2.3561087, "tags": {"brand": "Monop'", "brand:wikidata": "Q89913683", "name": "Monop'", "ref:FR:SIRET": "44465668001145", "shop": "convenience"}}, {"type": "node", "id": 12040193585, "lat": 48.8515894, "lon": 2.3570675, "tags": {"addr:city": "Paris", "addr:housenumber": "25", "addr:postcode": "75004", "addr:street": "Rue Saint-Louis en l'\u00cele", "shop": "yes"}}, {"type": "node", "id": 12048844923, "lat": 48.8590458, "lon": 2.3592065, "tags": {"name": "Maison Berger", "shop": "perfumery"}}, {"type": "node", "id": 12048856191, "lat": 48.8590967, "lon": 2.3592917, "tags": {"name": "L:A Bruket", "shop": "cosmetics"}}, {"type": "node", "id": 12048863067, "lat": 48.8591625, "lon": 2.359394, "tags": {"check_date": "2025-07-26", "name": "Bobbies", "shop": "fashion_accessories"}}, {"type": "node", "id": 12048870961, "lat": 48.8591331, "lon": 2.3595639, "tags": {"brand": "Jimmy Fairly", "brand:wikidata": "Q104825419", "name": "Jimmy Fairly", "ref:FR:SIRET": "53042242700043", "shop": "optician"}}, {"type": "node", "id": 12048897650, "lat": 48.8593008, "lon": 2.3595835, "tags": {"name": "Caroline Najman", "shop": "jewelry"}}, {"type": "node", "id": 12048900426, "lat": 48.8592342, "lon": 2.3594963, "tags": {"name": "Mi Mai", "shop": "shoes"}}, {"type": "node", "id": 12048901108, "lat": 48.859198, "lon": 2.3594461, "tags": {"addr:housenumber": "81", "addr:street": "Rue Vieille du Temple", "brand": "Faguo", "brand:wikidata": "Q48752850", "check_date": "2025-07-26", "name": "Faguo", "phone": "+33142711042", "shop": "clothes", "website": "https://www.faguo-store.com/fr/boutique/412-boutique-marais-faguo"}}, {"type": "node", "id": 12048901530, "lat": 48.8592709, "lon": 2.3595366, "tags": {"clothes": "underwear", "name": "Livy", "shop": "clothes"}}, {"type": "node", "id": 12091604579, "lat": 48.8567418, "lon": 2.3595977, "tags": {"check_date": "2024-08-04", "name": "Quai 71", "ref:FR:SIRET": "44913501100020", "shop": "clothes"}}, {"type": "node", "id": 12091604580, "lat": 48.8564658, "lon": 2.3595448, "tags": {"check_date": "2024-08-04", "shop": "vacant"}}, {"type": "node", "id": 12091604582, "lat": 48.8563623, "lon": 2.3594767, "tags": {"check_date": "2024-08-04", "name": "GC Cr\u00e9ation", "shop": "jewelry"}}, {"type": "node", "id": 12091604583, "lat": 48.8563114, "lon": 2.3594279, "tags": {"check_date": "2024-08-04", "name": "Bazar Suzanne", "ref:FR:SIRET": "38876585100018", "shop": "gift"}}, {"type": "node", "id": 12091604584, "lat": 48.8562737, "lon": 2.3594019, "tags": {"beauty": "nails", "check_date": "2024-08-04", "name": "Mini Nail", "shop": "beauty"}}, {"type": "node", "id": 12117083934, "lat": 48.8589479, "lon": 2.3555141, "tags": {"name": "Le Sud", "opening_hours": "Mo-Sa 10:30-19:30", "shop": "art", "website": "https://www.galerielesud.fr"}}, {"type": "node", "id": 12117083935, "lat": 48.8593462, "lon": 2.3544376, "tags": {"name": "Le Lavoir du IV\u00e8me", "self_service": "yes", "shop": "laundry"}}, {"type": "node", "id": 12117083936, "lat": 48.8593479, "lon": 2.3548185, "tags": {"contact:instagram": "waekura", "name": "Waekura", "opening_hours": "Tu-Fr 11:00-19:00, Sa 11:30-19:30", "shop": "jewelry", "website": "https://www.waekura.com"}}, {"type": "node", "id": 12117083937, "lat": 48.85918, "lon": 2.3535034, "tags": {"name": "Magna-Carta", "opening_hours": "Tu-Sa 11:00-19:00, Su 13:00-19:00", "shop": "gift", "website": "https://www.magna-carta.fr"}}, {"type": "node", "id": 12117083938, "lat": 48.8589997, "lon": 2.3553608, "tags": {"name": "I-Run", "opening_hours": "Mo-Sa 11:00-19:30, Su 13:30-18:30", "ref:FR:SIRET": "44315886000249", "shop": "sports", "sport": "running", "website": "https://www.i-run.fr"}}, {"type": "node", "id": 12117083939, "lat": 48.8592941, "lon": 2.3546148, "tags": {"name": "Edemonium", "opening_hours": "We-Sa 13:00-20:00, Su 15:00-20:00", "ref:FR:SIRET": "42416365700010", "shop": "fashion_accessories", "website": "http://www.edemonium.com"}}, {"type": "node", "id": 12117083940, "lat": 48.8587408, "lon": 2.3553266, "tags": {"brand:website": "https://www.millet.com", "brand:wikidata": "Q3314326", "name": "Millet", "opening_hours": "Tu-Sa 10:30-19:30, Su 11:00-19:00", "ref:FR:SIRET": "40031331800257", "shop": "sports"}}, {"type": "node", "id": 12151062218, "lat": 48.8586394, "lon": 2.351336, "tags": {"name": "Ban tha\u00ef spa", "shop": "massage", "wheelchair": "limited"}}, {"type": "node", "id": 12169961997, "lat": 48.8580805, "lon": 2.3564001, "tags": {"addr:city": "Paris", "addr:housenumber": "13", "addr:postcode": "75004", "addr:street": "Rue Sainte-Croix de la Bretonnerie", "name": "Tediber", "shop": "bed", "website": "https://www.tediber.com/"}}, {"type": "node", "id": 12175273406, "lat": 48.8539333, "lon": 2.3571466, "tags": {"addr:housenumber": "18", "addr:street": "Rue de l'H\u00f4tel de Ville", "email": "contact@convertibledefrance.net", "name": "Convertible contemporain", "outdoor_seating": "no", "phone": "+33646165143", "shop": "furniture", "website": "http://convertibledefrance.net"}}, {"type": "node", "id": 12277448184, "lat": 48.8510195, "lon": 2.3510328, "tags": {"check_date": "2025-10-28", "name": "Boz Souvenirs", "official_name": "Best of Zaine", "ref:FR:SIREN": "479034266", "ref:FR:SIRET": "47903426600011", "ref:vatin": "FR86479034266", "shop": "gift"}}, {"type": "node", "id": 12277448187, "lat": 48.850936, "lon": 2.3506705, "tags": {"check_date": "2025-04-30", "contact:phone": "+33 9 87 44 01 87", "name": "Cookies by Moon's", "opening_hours": "10:00-20:00", "shop": "pastry"}}, {"type": "node", "id": 12298810360, "lat": 48.8563052, "lon": 2.3505033, "tags": {"level": "1", "name": "St\u00e9phane Bianca", "shop": "clothes"}}, {"type": "node", "id": 12299554981, "lat": 48.8569618, "lon": 2.3528207, "tags": {"name": "Paris boutique", "shop": "gift"}}, {"type": "node", "id": 12306707563, "lat": 48.8575563, "lon": 2.3519997, "tags": {"amenity": "fast_food", "brand": "Ben's Cookies", "brand:wikidata": "Q4885143", "check_date": "2024-11-02", "level": "0", "name": "Ben's Cookies", "shop": "confectionery"}}, {"type": "node", "id": 12345725057, "lat": 48.8587135, "lon": 2.3514067, "tags": {"shop": "vacant"}}, {"type": "node", "id": 12345783071, "lat": 48.8585326, "lon": 2.3502432, "tags": {"name": "DEG", "ref:FR:SIRET": "42513300600089", "shop": "optician", "wheelchair": "yes"}}, {"type": "node", "id": 12682434169, "lat": 48.8557033, "lon": 2.3573184, "tags": {"name": "Ilyoucha", "ref:FR:SIRET": "93085247000010", "shop": "clothes", "website": "https://ilyoucha.com/"}}, {"type": "node", "id": 12682434170, "lat": 48.85567, "lon": 2.3574314, "tags": {"name": "sensitive et fils", "ref:FR:SIRET": "44963615800023", "shop": "interior_decoration", "website": "https://www.sensitiveetfils.com/"}}, {"type": "node", "id": 12699456231, "lat": 48.8588786, "lon": 2.3537391, "tags": {"check_date": "2025-06-13", "clothes": "women", "name": "Maison Stella & Suzie", "shop": "clothes", "survey:date": "2025-03-25"}}, {"type": "node", "id": 12754824397, "lat": 48.8585823, "lon": 2.3583805, "tags": {"check_date": "2025-06-12", "name": "Iro", "shop": "clothes", "survey:date": "2025-04-14"}}, {"type": "node", "id": 12754989523, "lat": 48.8576655, "lon": 2.3583001, "tags": {"name": "eye show", "shop": "optician", "survey:date": "2025-04-14"}}, {"type": "node", "id": 12755073089, "lat": 48.8568614, "lon": 2.3596518, "tags": {"name": "Bombers", "shop": "clothes", "survey:date": "2025-04-14"}}, {"type": "node", "id": 12755073090, "lat": 48.8568362, "lon": 2.3596407, "tags": {"name": "Le Pop Up du Marais", "shop": "gift", "survey:date": "2025-04-14"}}, {"type": "node", "id": 12833821864, "lat": 48.8520807, "lon": 2.3560413, "tags": {"check_date": "2025-07-29", "contact:phone": "+33 1 43 29 33 93", "level": "0", "name": "C\u00e9line Wright", "official_name": "Yamina", "opening_hours": "Tu-Sa 14:00-19:00", "ref:FR:SIREN": "327707360", "ref:FR:SIRET": "32770736000027", "ref:vatin": "FR29327707360", "shop": "lighting", "website": "https://www.celinewright.com/"}}, {"type": "node", "id": 12833821865, "lat": 48.8524198, "lon": 2.3550996, "tags": {"check_date": "2025-10-28", "name": "Carr\u00e9 d'Artistes", "opening_hours": "11:00-20:00; Su-Tu 13:00-14:00 closed", "ref:FR:SIRET": "43765605100160", "ref:vatin": "FR27437656051", "shop": "art", "website": "https://www.carredartistes.com"}}, {"type": "node", "id": 12833821868, "lat": 48.852209, "lon": 2.3545615, "tags": {"check_date": "2025-10-28", "contact:instagram": "galeriejccharbonnier", "level": "0", "name": "Jean-Christophe Charbonnier", "official_name": "Verneuil Extr\u00eame-Orient", "opening_hours": "Th-Sa 15:00-19:00 \"on appointment\"", "origin": "japanese", "ref:FR:SIREN": "511885659", "ref:FR:SIRET": "51188565900025", "ref:vatin": "FR34511885659", "shop": "antiques", "website": "https://www.galeriejccharbonnier.com"}}, {"type": "node", "id": 12833821869, "lat": 48.8520986, "lon": 2.3559928, "tags": {"check_date": "2025-07-29", "name": "Galerie DDG", "ref:FR:SIREN": "478886963", "ref:FR:SIRET": "47888696300014", "ref:vatin": "FR12478886963", "shop": "art", "website": "https://www.galerieddg.fr"}}, {"type": "node", "id": 12833821870, "lat": 48.852023, "lon": 2.3561968, "tags": {"name": "Galerie DDG", "shop": "art"}}, {"type": "node", "id": 12833821871, "lat": 48.8522178, "lon": 2.3556684, "tags": {"contact:instagram": "l_empire_du_tapis_", "name": "L'Empire du Tapis", "shop": "carpet"}}, {"type": "node", "id": 12833821872, "lat": 48.8520554, "lon": 2.3561115, "tags": {"name": "L'\u00cele aux Bijoux", "shop": "clothes"}}, {"type": "node", "id": 12844783511, "lat": 48.8572665, "lon": 2.3539718, "tags": {"addr:housenumber": "1", "entrance": "service", "source": "survey"}}, {"type": "node", "id": 12844901130, "lat": 48.8591136, "lon": 2.3557148, "tags": {"name": "Bir\u00f2 store", "ref:FR:SIRET": "90185028900025", "shop": "car", "website": "https://birofrance.eu/store-locator/"}}, {"type": "node", "id": 12851665957, "lat": 48.8581369, "lon": 2.3522651, "tags": {"check_date": "2025-07-02", "name": "Kiloshop", "ref:FR:SIRET": "53246522600035", "second_hand": "only", "shop": "clothes", "source": "survey", "website": "https://www.kilo-shop.com/shop/kawaii-du-marais/"}}, {"type": "node", "id": 12851665958, "lat": 48.8581047, "lon": 2.3524177, "tags": {"check_date": "2025-07-02", "name": "Kawaii", "opening_hours": "Mo-Sa 11:00-19:00; Su off", "second_hand": "only", "shop": "clothes", "source": "survey", "website": "https://www.kilo-shop.com/shop/kawaii-du-marais/"}}, {"type": "node", "id": 12851665962, "lat": 48.8566745, "lon": 2.3563525, "tags": {"shop": "yes"}}, {"type": "node", "id": 12877058989, "lat": 48.8501962, "lon": 2.3538201, "tags": {"contact:phone": "+33 1 42 49 02 97", "name": "Treca", "opening_hours": "Mo-Sa 10:00-12:45,14:00-19:00; Th 12:00-14:00 closed", "shop": "bed"}}, {"type": "node", "id": 12877058993, "lat": 48.8502458, "lon": 2.3536616, "tags": {"contact:phone": "+33 9 73 10 26 28", "name": "Stressless Store", "opening_hours": "Mo-Fr 10:00-12:45,14:00-19:00, Sa 10:00-13:00,14:00-19:00", "ref:FR:SIRET": "80320245600049", "shop": "furniture"}}, {"type": "node", "id": 12879296125, "lat": 48.8549352, "lon": 2.3532399, "tags": {"check_date": "2025-06-01", "description": "Bouquiniste. \u00ab Livres, fanzines, brochures et affiches con\u00e7ues du bon c\u00f4t\u00e9 de la barricade \u00bb", "email": "lalezarde@riseup.net", "name": "La L\u00e9zarde", "shop": "books", "website": "https://corneill.es/@lalezarde"}}, {"type": "node", "id": 12895393391, "lat": 48.8561879, "lon": 2.3586559, "tags": {"check_date": "2025-06-07", "name": "Le Bijou Parisien", "shop": "gift"}}, {"type": "node", "id": 12895393393, "lat": 48.8562522, "lon": 2.3583831, "tags": {"check_date": "2025-06-07", "name": "Thierry Villenave", "phone": "+33 1 42 77 69 87", "shop": "fashion_accessories"}}, {"type": "node", "id": 12895393398, "lat": 48.8558726, "lon": 2.3598005, "tags": {"check_date": "2025-06-07", "name": "Harley Vape", "shop": "e-cigarette"}}, {"type": "node", "id": 12895393399, "lat": 48.8558499, "lon": 2.3599087, "tags": {"check_date": "2025-06-07", "contact:instagram": "moratoireparis", "name": "Moratoire", "shop": "clothes"}}, {"type": "node", "id": 12895393400, "lat": 48.8561271, "lon": 2.358911, "tags": {"check_date": "2025-06-07", "name": "Capitales Tours", "ref:FR:SIRET": "31181082400020", "shop": "travel_agency"}}, {"type": "node", "id": 12895411201, "lat": 48.8561704, "lon": 2.3587429, "tags": {"check_date": "2025-06-07", "name": "Scotland House of Cashmere", "shop": "clothes"}}, {"type": "node", "id": 12909276956, "lat": 48.8580674, "lon": 2.3596595, "tags": {"check_date": "2025-06-28", "check_date:opening_hours": "2025-06-28", "name": "Zag", "opening_hours:signed": "no", "shop": "jewelry", "wheelchair": "no"}}, {"type": "node", "id": 12909276957, "lat": 48.8598086, "lon": 2.357122, "tags": {"check_date": "2025-06-12", "name": "L\u2019Entropiste", "shop": "cosmetics"}}, {"type": "node", "id": 12909276958, "lat": 48.8598468, "lon": 2.3570451, "tags": {"check_date": "2025-06-12", "name": "Innerskin", "opening_hours": "Mo-Sa 10:00-20:00", "shop": "beauty"}}, {"type": "node", "id": 12912487707, "lat": 48.8581052, "lon": 2.3533036, "tags": {"addr:housenumber": "12", "addr:street": "Rue du Temple", "brand": "Sebago", "brand:wikidata": "Q3476844", "check_date": "2025-12-08", "name": "Sebago", "opening_hours": "Mo-Sa 10:00-19:00; Su 11:00-19:00", "shop": "shoes"}}, {"type": "node", "id": 12941360966, "lat": 48.8580267, "lon": 2.3569216, "tags": {"brand": "Hoka", "brand:wikidata": "Q16908664", "name": "Hoka", "shop": "sports"}}, {"type": "node", "id": 12941441104, "lat": 48.8581439, "lon": 2.3562066, "tags": {"name": "Bon parfumeur", "shop": "perfumery", "website": "https://www.bonparfumeur.com/fr/pages/boutique"}}, {"type": "node", "id": 12960923843, "lat": 48.855774, "lon": 2.3548655, "tags": {"name": "Wilde", "shop": "art"}}, {"type": "node", "id": 12989345883, "lat": 48.8599273, "lon": 2.3540082, "tags": {"name": "Incandescent", "shop": "clothes"}}, {"type": "node", "id": 13007380327, "lat": 48.8585328, "lon": 2.354988, "tags": {"shop": "vacant"}}, {"type": "node", "id": 13011975135, "lat": 48.8583338, "lon": 2.3555222, "tags": {"name": "Maison 123", "shop": "clothes"}}, {"type": "node", "id": 13012025202, "lat": 48.8583475, "lon": 2.3544693, "tags": {"name": "Eataly", "shop": "bakery"}}, {"type": "node", "id": 13012296429, "lat": 48.858673, "lon": 2.3549627, "tags": {"name": "Sunspel", "shop": "clothes"}}, {"type": "node", "id": 13012296434, "lat": 48.8588061, "lon": 2.3545212, "tags": {"addr:housenumber": "46", "addr:postcode": "75004", "addr:street": "Rue Sainte-Croix de la Bretonnerie", "name": "N\u00e8ulo", "ref:FR:SIRET": "90164558000027", "shop": "pastry", "source": "survey", "website": "https://neulo.fr"}}, {"type": "node", "id": 13018595539, "lat": 48.8582434, "lon": 2.3523772, "tags": {"shop": "vacant"}}, {"type": "node", "id": 13018595540, "lat": 48.8581783, "lon": 2.352586, "tags": {"check_date": "2025-12-08", "name": "Free'p'Star", "second_hand": "only", "shop": "clothes"}}, {"type": "node", "id": 13018595541, "lat": 48.8582067, "lon": 2.3524807, "tags": {"name": "L'Atelier", "repair": "yes", "shop": "computer"}}, {"type": "node", "id": 13022670887, "lat": 48.8588939, "lon": 2.3539009, "tags": {"shop": "vacant"}}, {"type": "node", "id": 13022670888, "lat": 48.8588642, "lon": 2.3539918, "tags": {"name": "Rendel", "shop": "optician", "website": "https://rendelparis.com/pages/nos-boutiques"}}, {"type": "node", "id": 13088774828, "lat": 48.8586711, "lon": 2.3575075, "tags": {"name": "Sports d'\u00e9poque", "shop": "clothes"}}, {"type": "node", "id": 13088774832, "lat": 48.858492, "lon": 2.3581894, "tags": {"clothes": "underwear", "name": "Eres", "shop": "clothes", "website": "https://stores.eresparis.com/fr/france-FR/111/eres-marais/details"}}, {"type": "node", "id": 13136588746, "lat": 48.8591008, "lon": 2.3566841, "tags": {"name": "Ikian", "shop": "clothes", "website": "https://ikian.fr/fr/magasins"}}, {"type": "node", "id": 13288242794, "lat": 48.8598856, "lon": 2.3547468, "tags": {"name": "Entremains", "shop": "clothes", "website": "https://entremains.com/"}}, {"type": "node", "id": 13288242796, "lat": 48.8598199, "lon": 2.355013, "tags": {"name": "About Dreams", "shop": "clothes", "website": "https://aboutdreams.fr/"}}, {"type": "node", "id": 13346873109, "lat": 48.8597378, "lon": 2.3548605, "tags": {"name": "retouche couture proximit\u00e9", "shop": "tailor"}}, {"type": "node", "id": 13354469440, "lat": 48.8597224, "lon": 2.3567263, "tags": {"name": "Anthony Gar\u00e7on", "shop": "clothes", "website": "https://anthonygarcon.com/"}}, {"type": "node", "id": 13410848155, "lat": 48.8575449, "lon": 2.352473, "tags": {"contact:website": "https://teatribesandco.com/", "name": "Tea Tribes & Co", "opening_hours": "Mo-Su,PH 11:00-20:00", "payment:credit_cards": "yes", "payment:debit_cards": "yes", "shop": "tea", "wheelchair": "no"}}, {"type": "node", "id": 13446397665, "lat": 48.8584761, "lon": 2.3594429, "tags": {"addr:city": "Paris", "addr:country": "France", "addr:postcode": "75003", "addr:street": "Impasse des Arbal\u00e9triers", "description": "Bijouterie d'Art et Accessoires de Mode\nSertissage de pierres fines et pr\u00e9cieuses et commande sur mesure", "name": "Nathalie Iuso Bijoux", "opening_hours": "Fr-Su 11:00-19:00", "phone": "+33953997408", "shop": "jewelry", "website": "https://www.iuso-creation.com"}}, {"type": "way", "id": 29168869, "nodes": [320799693, 693542167, 693542168, 693542176, 693542182, 693542173, 693542177, 693542174, 693542181, 693542180, 693542178, 658959185, 11850965589, 693542184, 693542188, 693542187, 693542189, 693542192, 11850965585, 693542193, 693542195, 693542197, 700449268, 2595414642, 9602961115, 693542206, 693542208, 693542209, 693542211, 320799695, 693542204, 693542201, 693542200, 12844783511, 700449351, 693542199, 10920092324, 320799696, 693542172, 693542162, 693542164, 693542165, 693542170, 320799693], "tags": {"alt_name": "Bazar de l'H\u00f4tel de Ville", "baby_feeding": "room", "building": "yes", "building:levels": "9", "changing_table": "yes", "changing_table:location": "room", "check_date": "2025-07-02", "contact:city": "Paris", "contact:housenumber": "52", "contact:postcode": "75004", "contact:street": "Rue de Rivoli", "contact:website": "https://www.bhv.fr/", "diff:ref:FR:RNB": "multiple", "highchair": "yes", "name": "Le BHV Marais", "name:zh": "\u739b\u83b1BHV\u767e\u8d27", "opening_hours": "Mo-Sa 10:00-20:00; Su 11:00-19:00", "payment:credit_cards": "yes", "payment:debit_cards": "yes", "ref:FR:RNB": "V1M44ETSPD3Q;99DF2KEEYCNW", "shop": "department_store", "toilets": "yes", "toilets:wheelchair": "yes", "wheelchair": "yes", "wikidata": "Q2892394", "wikipedia": "fr:Bazar de l'H\u00f4tel de Ville"}}, {"type": "way", "id": 56003317, "nodes": [702977264, 702977200, 8274234810, 702977314, 702977029, 702977263, 702976977, 702977264], "tags": {"addr:housenumber": "39", "addr:street": "Rue des Francs Bourgeois", "brand": "Uniqlo", "brand:wikidata": "Q26070", "brand:wikipedia": "en:Uniqlo", "building": "retail", "building:levels": "3", "check_date": "2025-06-12", "contact:city": "Paris", "contact:housenumber": "39", "contact:phone": "+33 1 53 01 87 87", "contact:postcode": "75004", "contact:street": "Rue des Francs Bourgeois", "contact:website": "http://www.uniqlo.com/fr/", "name": "Uniqlo", "opening_hours": "Mo-Fr 11:00-20:00; Sa-Su 10:00-20:00", "shop": "clothes", "source": "cadastre-dgi-fr source : Direction G\u00e9n\u00e9rale des Imp\u00f4ts - Cadastre. Mise \u00e0 jour : 2010", "wheelchair": "yes", "wikidata": "Q22980177"}}, {"type": "way", "id": 204494085, "nodes": [702269576, 702269200, 702269499, 2144935688, 2144935687, 702269576], "tags": {"brand": "Bang & Olufsen", "brand:wikidata": "Q790020", "check_date": "2025-07-07", "name": "Bang & Olufsen", "shop": "hifi", "source": "survey"}}, {"type": "way", "id": 1175163391, "nodes": [10920092323, 10920092322, 10920092321, 10920092320, 10920092323], "tags": {"building": "retail", "building:levels": "1", "check_date": "2024-10-26", "name:signed": "no", "shop": "kiosk", "wheelchair": "yes"}}]}