{"version": 0.6, "generator": "Overpass API 0.7.62.8 e802775f", "osm3s": {"timestamp_osm_base": "2026-01-13T20:16:43Z", "copyright": "The data included in this document is from www.openstreetmap.org. The data is made available under ODbL."}, "elements": [{"type": "node", "id": 315123765, "lat": 48.8464653, "lon": 2.2801018, "tags": {"amenity": "fuel", "brand": "Avia", "brand:wikidata": "Q300147", "brand:wikipedia": "de:Avia International", "compressed_air": "yes", "fuel:diesel": "yes", "fuel:e10": "yes", "fuel:e85": "yes", "fuel:octane_98": "yes", "maxheight": "3.25", "name": "Avia", "old_ref:FR:prix-carburants": "75015023", "opening_hours": "24/7", "ref:FR:prix-carburants": "75015036", "shop": "convenience;gas", "source": "DGCCRF - 2025", "toilets": "yes", "wheelchair": "limited"}}, {"type": "node", "id": 675140433, "lat": 48.8478054, "lon": 2.2826951}, {"type": "node", "id": 675140583, "lat": 48.8482353, "lon": 2.2816327}, {"type": "node", "id": 675140597, "lat": 48.8485624, "lon": 2.2820048}, {"type": "node", "id": 675140598, "lat": 48.848853, "lon": 2.2816406}, {"type": "node", "id": 675140601, "lat": 48.8492029, "lon": 2.2821054}, {"type": "node", "id": 675140609, "lat": 48.8490047, "lon": 2.2818588}, {"type": "node", "id": 675140616, "lat": 48.848668, "lon": 2.2829223}, {"type": "node", "id": 675140659, "lat": 48.8481602, "lon": 2.2831381}, {"type": "node", "id": 675140686, "lat": 48.8493108, "lon": 2.2837367}, {"type": "node", "id": 675140724, "lat": 48.8497705, "lon": 2.2828637}, {"type": "node", "id": 682420333, "lat": 48.8488118, "lon": 2.2821468, "tags": {"addr:housenumber": "6", "source": "cadastre-dgi-fr source : Direction G\u00e9n\u00e9rale des Imp\u00f4ts - Cadastre ; mise \u00e0 jour : 2010"}}, {"type": "node", "id": 682420344, "lat": 48.8483505, "lon": 2.2828437, "tags": {"addr:housenumber": "18", "source": "cadastre-dgi-fr source : Direction G\u00e9n\u00e9rale des Imp\u00f4ts - Cadastre ; mise \u00e0 jour : 2010"}}, {"type": "node", "id": 682420354, "lat": 48.8486558, "lon": 2.282379, "tags": {"addr:housenumber": "10", "source": "cadastre-dgi-fr source : Direction G\u00e9n\u00e9rale des Imp\u00f4ts - Cadastre ; mise \u00e0 jour : 2010"}}, {"type": "node", "id": 682420387, "lat": 48.8487158, "lon": 2.2822897, "tags": {"addr:housenumber": "8", "source": "cadastre-dgi-fr source : Direction G\u00e9n\u00e9rale des Imp\u00f4ts - Cadastre ; mise \u00e0 jour : 2010"}}, {"type": "node", "id": 682420394, "lat": 48.8482752, "lon": 2.2829601, "tags": {"addr:housenumber": "20", "source": "cadastre-dgi-fr source : Direction G\u00e9n\u00e9rale des Imp\u00f4ts - Cadastre ; mise \u00e0 jour : 2010"}}, {"type": "node", "id": 682420409, "lat": 48.8485748, "lon": 2.2824996, "tags": {"addr:housenumber": "12", "source": "cadastre-dgi-fr source : Direction G\u00e9n\u00e9rale des Imp\u00f4ts - Cadastre ; mise \u00e0 jour : 2010"}}, {"type": "node", "id": 682420415, "lat": 48.8482211, "lon": 2.2830439, "tags": {"addr:housenumber": "22", "source": "cadastre-dgi-fr source : Direction G\u00e9n\u00e9rale des Imp\u00f4ts - Cadastre ; mise \u00e0 jour : 2010"}}, {"type": "node", "id": 682420452, "lat": 48.8488862, "lon": 2.282036, "tags": {"addr:housenumber": "4", "source": "cadastre-dgi-fr source : Direction G\u00e9n\u00e9rale des Imp\u00f4ts - Cadastre ; mise \u00e0 jour : 2010"}}, {"type": "node", "id": 1307926873, "lat": 48.848189, "lon": 2.2839192, "tags": {"brand": "Monoprix", "brand:wikidata": "Q3321241", "brand:wikipedia": "en:Monoprix", "name": "Monoprix", "opening_hours": "Mo-Sa 08:00-22:50; Su 09:00-22:50", "operator": "Groupe Casino", "phone": "+33 1 45 75 02 40", "shop": "supermarket", "source": "survey", "website": "https://www.monoprix.fr/316.html"}}, {"type": "node", "id": 1950361814, "lat": 48.8489694, "lon": 2.2819122}, {"type": "node", "id": 1950361815, "lat": 48.849138, "lon": 2.2822045}, {"type": "node", "id": 2008945702, "lat": 48.8474354, "lon": 2.2841428, "tags": {"brand": "La Grande R\u00e9cr\u00e9", "brand:wikidata": "Q3209556", "brand:wikipedia": "fr:La Grande R\u00e9cr\u00e9 (magasin)", "check_date": "2024-06-01", "contact:city": "Paris", "contact:postcode": "75015", "contact:street": "Rue Linois", "name": "La Grande R\u00e9cr\u00e9", "opening_hours": "Mo-Sa 10:00-20:30; Su 11:00-19:00", "payment:cash": "yes", "payment:credit_cards": "yes", "payment:debit_cards": "yes", "shop": "toys", "wheelchair": "yes"}}, {"type": "node", "id": 2267594417, "lat": 48.8460342, "lon": 2.2777904, "tags": {"name": "Mini Boutique", "shop": "convenience"}}, {"type": "node", "id": 2449418758, "lat": 48.8456389, "lon": 2.2845372, "tags": {"branch": "Pi\u00e9ton Paris Saint Charles", "brand": "Auchan Drive", "brand:wikidata": "Q2870659", "brand:wikipedia": "fr:Auchan Drive", "contact:city": "Paris", "contact:housenumber": "98", "contact:postcode": "75015", "contact:street": "Rue Saint-Charles", "contact:website": "https://www.auchandirect.fr/", "drive_through": "only", "name": "Auchan Drive", "opening_hours": "Mo-Sa 09:00-21:00", "operator": "Auchan", "shop": "convenience"}}, {"type": "node", "id": 2449440155, "lat": 48.8456004, "lon": 2.284764, "tags": {"check_date": "2025-04-12", "contact:city": "Paris", "contact:housenumber": "105", "contact:postcode": "75015", "contact:street": "Rue Saint-Charles", "name": "Kenzie", "shop": "clothes"}}, {"type": "node", "id": 2449440156, "lat": 48.8456928, "lon": 2.2849054, "tags": {"brand": "Marionnaud", "brand:wikidata": "Q1129073", "brand:wikipedia": "fr:Marionnaud", "check_date": "2025-04-12", "check_date:opening_hours": "2022-07-03", "contact:city": "Paris", "contact:housenumber": "103", "contact:postcode": "75015", "contact:street": "Rue Saint-Charles", "name": "Marionnaud", "opening_hours": "Mo-Sa 10:00-19:00", "shop": "perfumery"}}, {"type": "node", "id": 2449442004, "lat": 48.8457432, "lon": 2.2845468, "tags": {"brand": "5\u00e0sec", "brand:wikidata": "Q2817899", "check_date": "2025-04-12", "contact:city": "Paris", "contact:housenumber": "96", "contact:postcode": "75015", "contact:street": "Rue Saint-Charles", "name": "5\u00e0sec", "shop": "dry_cleaning"}}, {"type": "node", "id": 2449445771, "lat": 48.8458771, "lon": 2.2846462, "tags": {"check_date": "2025-04-12", "contact:city": "Paris", "contact:housenumber": "96", "contact:postcode": "75015", "contact:street": "Rue Saint-Charles", "contact:website": "https://www.bisboutiquesolidaire.fr/", "name": "BIS Boutique Solidaire", "opening_hours": "Mo-Sa 10:00-19:30", "shop": "clothes"}}, {"type": "node", "id": 2449485236, "lat": 48.846356, "lon": 2.2850476, "tags": {"addr:housenumber": "70", "addr:postcode": "75015", "addr:street": "Avenue \u00c9mile Zola", "air_conditioning": "yes", "branch": "Paris Beaugrenelle", "brand": "Boulanger", "brand:wikidata": "Q2921695", "check_date": "2024-04-19", "check_date:opening_hours": "2022-05-20", "contact:city": "Paris", "contact:housenumber": "70", "contact:postcode": "75015", "contact:street": "Avenue \u00c9mile Zola", "contact:website": "https://www.boulanger.com/", "internet_access": "wlan", "internet_access:fee": "no", "level": "0", "name": "Boulanger", "opening_hours": "Mo-Sa 10:00-20:00; Su 10:00-19:30", "operator": "Boulanger", "payment:cash": "yes", "payment:credit_cards": "yes", "shop": "electronics", "stroller": "yes", "wheelchair": "yes"}}, {"type": "node", "id": 2449485239, "lat": 48.8463083, "lon": 2.2860592, "tags": {"brand": "Picard", "brand:wikidata": "Q3382454", "brand:wikipedia": "en:Picard Surgel\u00e9s", "check_date:opening_hours": "2022-07-03", "contact:city": "Paris", "contact:housenumber": "38 bis", "contact:phone": "+33 1 45 79 13 41", "contact:postcode": "75015", "contact:street": "Rue des Entrepreneurs", "name": "Picard", "opening_hours": "Mo-Sa 09:00-20:30; Su 09:00-12:45", "operator": "Picard", "shop": "frozen_food", "website": "https://magasins.picard.fr/311-picard-entrepreneurs"}}, {"type": "node", "id": 2449485240, "lat": 48.8462771, "lon": 2.2861413, "tags": {"contact:city": "Paris", "contact:housenumber": "40", "contact:postcode": "75015", "contact:street": "Rue des Entrepreneurs", "name": "Audition Sant\u00e9 !", "opening_hours": "Mo,We,Fr 14:00-18:00, We,Fr 09:00-12:00", "shop": "hearing_aids"}}, {"type": "node", "id": 2458067898, "lat": 48.8469248, "lon": 2.2861641, "tags": {"check_date": "2025-12-02", "contact:city": "Paris", "contact:housenumber": "9", "contact:postcode": "75015", "contact:street": "Place Charles Michels", "name": "Maroquinerie Charles Michels", "shop": "bag"}}, {"type": "node", "id": 2458086797, "lat": 48.8471374, "lon": 2.2853376, "tags": {"contact:city": "Paris", "contact:housenumber": "49", "contact:postcode": "75015", "contact:street": "Rue Linois", "name": "Boulangerie", "opening_hours": "Fr-We 06:30-20:00", "phone": "+33 1 45 75 41 85", "shop": "bakery"}}, {"type": "node", "id": 2458125736, "lat": 48.8473866, "lon": 2.2842477, "tags": {"brand": "HEMA", "brand:wikidata": "Q903805", "check_date": "2025-12-02", "contact:city": "Paris", "contact:postcode": "75015", "contact:street": "Rue Linois", "name": "HEMA", "opening_hours": "Mo-Sa 10:00-20:30; Su 10:00-19:00", "shop": "department_store", "toilets": "no"}}, {"type": "node", "id": 2458125740, "lat": 48.8471937, "lon": 2.2845493, "tags": {"brand": "Micromania", "brand:wikidata": "Q3312221", "brand:wikipedia": "en:Micromania (video game retailer)", "check_date:opening_hours": "2024-03-10", "contact:city": "Paris", "contact:phone": "+33 1 45 77 52 05", "contact:postcode": "75015", "contact:street": "Rue Linois", "name": "Micromania", "opening_hours": "Mo-Sa 10:00-20:00; Su 11:00-19:00", "opening_hours:signed": "no", "shop": "video_games", "website": "https://www.micromania.fr/magasin?storeid=BP", "wheelchair": "yes"}}, {"type": "node", "id": 2458125743, "lat": 48.8470051, "lon": 2.284844, "tags": {"brand": "Orange", "brand:wikidata": "Q1431486", "contact:city": "Paris", "contact:postcode": "75015", "contact:street": "Rue Linois", "name": "Orange", "opening_hours": "Mo-Sa 10:00-20:00", "shop": "mobile_phone", "wheelchair": "yes"}}, {"type": "node", "id": 2458125744, "lat": 48.8469654, "lon": 2.284931, "tags": {"check_date": "2025-12-02", "contact:city": "Paris", "contact:postcode": "75015", "contact:street": "Rue Linois", "name": "Waffle Factory", "shop": "pastry"}}, {"type": "node", "id": 2458164240, "lat": 48.8463401, "lon": 2.2843476, "tags": {"brand": "Carrefour City", "brand:wikidata": "Q2940187", "brand:wikipedia": "fr:Carrefour City", "contact:city": "Paris", "contact:housenumber": "62", "contact:phone": "+33 1 34 13 37 64", "contact:postcode": "75015", "contact:street": "Avenue \u00c9mile Zola", "contact:website": "https://www.carrefour.fr/", "name": "Carrefour City", "opening_hours": "Mo-Sa 07:00-22:00; Su 09:00-22:00", "operator": "Groupe Carrefour", "operator:wikidata": "Q3117359", "operator:wikipedia": "fr:Groupe Carrefour", "shop": "convenience"}}, {"type": "node", "id": 2458280768, "lat": 48.8463544, "lon": 2.2854334, "tags": {"check_date": "2025-04-12", "contact:city": "Paris", "contact:housenumber": "89", "contact:postcode": "75015", "contact:street": "Rue Saint-Charles", "name": "Cul de Cochon", "opening_hours": "Tu-Sa 09:30-12:45,16:15-20:00, Su 09:00-13:00", "shop": "butcher"}}, {"type": "node", "id": 2458280769, "lat": 48.8463092, "lon": 2.2853911, "tags": {"check_date": "2025-04-12", "contact:city": "Paris", "contact:housenumber": "91", "contact:postcode": "75015", "contact:street": "Rue Saint-Charles", "description": "Linge de maison et ameublement", "name": "HM France", "opening_hours": "Mo-Fr 10:15-19:00, Sa 10:00-19:15", "shop": "interior_decoration"}}, {"type": "node", "id": 2458280770, "lat": 48.846272, "lon": 2.2853564, "tags": {"brand": "Biguine", "check_date": "2025-12-02", "check_date:opening_hours": "2022-07-03", "contact:city": "Paris", "contact:housenumber": "91", "contact:postcode": "75015", "contact:street": "Rue Saint-Charles", "name": "L\u2018atelier 15", "opening_hours": "Tu-Sa 10:00-19:00, Mo 11:00-19:00", "shop": "hairdresser"}}, {"type": "node", "id": 2458280771, "lat": 48.8462249, "lon": 2.2853124, "tags": {"beauty": "nails", "name": "AN Nails", "shop": "beauty"}}, {"type": "node", "id": 2458325622, "lat": 48.8460429, "lon": 2.285153, "tags": {"check_date": "2025-12-02", "contact:city": "Paris", "contact:housenumber": "95-97", "contact:postcode": "75015", "contact:street": "Rue Saint-Charles", "name": "Mes Lunettes - JMS Opticiens", "opening_hours": "Tu-Sa 10:00-19:00", "shop": "optician"}}, {"type": "node", "id": 2458325624, "lat": 48.8459437, "lon": 2.2850676, "tags": {"check_date": "2025-04-12", "contact:city": "Paris", "contact:housenumber": "99", "contact:postcode": "75015", "contact:street": "Rue Saint-Charles", "name": "Bergamote et Chocolats", "opening_hours": "Tu-Sa 10:00-19:00", "shop": "confectionery"}}, {"type": "node", "id": 2458325625, "lat": 48.8459137, "lon": 2.2850418, "tags": {"check_date": "2025-12-02", "contact:city": "Paris", "contact:housenumber": "99", "contact:postcode": "75015", "contact:street": "Rue Saint-Charles", "name": "Bel Chou\u2019s", "shop": "shoes"}}, {"type": "node", "id": 2458325626, "lat": 48.845886, "lon": 2.2850179, "tags": {"beauty": "nails", "check_date": "2025-04-12", "contact:city": "Paris", "contact:housenumber": "99", "contact:postcode": "75015", "contact:street": "Rue Saint-Charles", "name": "Manucure Beaugrenelle", "shop": "beauty"}}, {"type": "node", "id": 2458325627, "lat": 48.8458029, "lon": 2.2849464, "tags": {"check_date": "2025-04-12", "contact:city": "Paris", "contact:housenumber": "101 bis", "contact:postcode": "75015", "contact:street": "Rue Saint-Charles", "name": "Atmosph\u00e8re", "opening_hours": "Tu-Sa 10:30-19:30; Mo 13:00-19:00", "shop": "clothes"}}, {"type": "node", "id": 2543366195, "lat": 48.8522993, "lon": 2.2879393, "tags": {"laundry_service": "yes", "name": "Pressing", "opening_hours": "Mo-Fr 08:00-19:00; Sa 08:30-16:00", "self_service": "no", "shop": "laundry", "source": "cadastre-dgi-fr source : Direction G\u00e9n\u00e9rale des Imp\u00f4ts - Cadastre. Mise \u00e0 jour : 2013"}}, {"type": "node", "id": 2544806223, "lat": 48.8523658, "lon": 2.2875421, "tags": {"name": "Mac Rayan", "shop": "hairdresser", "source": "cadastre-dgi-fr source : Direction G\u00e9n\u00e9rale des Imp\u00f4ts - Cadastre. Mise \u00e0 jour : 2013"}}, {"type": "node", "id": 2689489607, "lat": 48.8461944, "lon": 2.2777583, "tags": {"name:signed": "no", "shop": "kiosk"}}, {"type": "node", "id": 3356939230, "lat": 48.8471149, "lon": 2.2861588, "tags": {"branch": "Paris", "brand:wikidata": "Q104192959", "contact:city": "Paris", "contact:housenumber": "83", "contact:postcode": "75015", "contact:street": "Rue Saint-Charles", "name": "Mistigriff", "opening_hours": "Mo-Sa 10:00-19:30", "phone": "+33 1 53 95 32 40", "ref:FR:SIRET": "43511609000398", "shop": "clothes", "website": "https://www.mistigriff.fr"}}, {"type": "node", "id": 3477371483, "lat": 48.8485923, "lon": 2.2824079, "tags": {"brand": "Darty", "brand:wikidata": "Q2439098", "brand:wikipedia": "fr:Darty", "contact:city": "Paris", "contact:housenumber": "12", "contact:postcode": "75015", "contact:street": "Rue Linois", "contact:website": "https://www.darty.com/", "name": "Darty", "opening_hours": "Mo-Sa 10:00-20:30; Su 11:00-19:00", "operator": "Fnac-Darty", "shop": "electronics"}}, {"type": "node", "id": 3477372668, "lat": 48.8484618, "lon": 2.2823928, "tags": {"addr:city": "Paris", "addr:housenumber": "5", "addr:postcode": "75015", "addr:street": "Rue Linois", "branch": "Paris   Beaugrenelle", "brand": "Fnac", "brand:website": "http://fnac.com/", "brand:wikidata": "Q676585", "brand:wikipedia": "en:Fnac", "contact:city": "Paris", "contact:housenumber": "5", "contact:postcode": "75015", "contact:street": "Rue Linois", "contact:website": "https://www.fnac.com/", "internet_access": "wlan", "name": "Fnac", "opening_hours": "Mo-Sa 10:00-20:00; Su 11:00-19:00", "operator": "Fnac-Darty", "phone": "+33 8 25 02 00 20", "shop": "electronics", "website": "https://www.fnac.com/Paris-Beaugrenelle/Fnac-Beaugrenelle/cl321/w-4"}}, {"type": "node", "id": 3580568793, "lat": 48.8492717, "lon": 2.2823415, "tags": {"beauty": "cosmetics", "brand": "Yves Rocher", "brand:wikidata": "Q1477321", "brand:wikipedia": "en:Yves Rocher (company)", "contact:city": "Paris", "contact:housenumber": "12", "contact:phone": "+33 1 45 75 38 29", "contact:postcode": "75015", "contact:street": "Rue Linois", "contact:website": "https://www.yves-rocher.fr/tout-sur-les-magasins/ile-de-france/paris/paris-beaugrenelle/S-FRYROC255", "name": "Yves Rocher", "opening_hours": "Mo-Sa 10:00-20:30; Su 11:00-19:00", "shop": "cosmetics"}}, {"type": "node", "id": 3670340315, "lat": 48.8462238, "lon": 2.2819092, "tags": {"check_date": "2024-06-15", "name": "Saint-Maclou", "opening_hours": "Tu-Sa 10:00-12:30,14:00-18:45", "shop": "carpet", "website": "https://www.saint-maclou.com/"}}, {"type": "node", "id": 3826268764, "lat": 48.8482092, "lon": 2.2824654, "tags": {"branch": "Women", "brand": "Ikks", "brand:wikidata": "Q3146711", "clothes": "women", "contact:city": "Paris", "contact:facebook": "https://www.facebook.com/ikks", "contact:phone": "+33 1 45 75 40 01", "contact:postcode": "75015", "contact:street": "Centre Commercial Beaugrenelle", "contact:street_1": "12, rue Linois", "contact:website": "https://www.ikks.com", "name": "Ikks", "opening_hours": "Mo-Sa 10:00-21:00", "shop": "clothes", "wheelchair": "yes"}}, {"type": "node", "id": 3905019668, "lat": 48.8465839, "lon": 2.2806525, "tags": {"brand": "Auchan", "brand:wikidata": "Q758603", "brand:wikipedia": "en:Auchan", "check_date:opening_hours": "2024-03-04", "contact:city": "Paris", "contact:housenumber": "21", "contact:phone": "+33 1 45 79 43 87", "contact:postcode": "75015", "contact:street": "Rue de Javel", "contact:website": "https://www.auchan.fr/magasins/my-auchan-paris-javel/sl-4897", "name": "My Auchan", "opening_hours": "Mo-Sa 08:00-21:00; Su 09:00-21:00", "organic": "yes", "payment:american_express": "yes", "payment:cash": "yes", "payment:coins": "yes", "payment:contactless": "yes", "payment:debit_cards": "yes", "payment:maestro": "yes", "payment:mastercard": "yes", "payment:visa": "yes", "payment:visa_debit": "yes", "payment:visa_electron": "yes", "shop": "supermarket", "source": "survey 2019", "stroller": "yes", "wheelchair": "yes"}}, {"type": "node", "id": 3906584170, "lat": 48.8485257, "lon": 2.2825726}, {"type": "node", "id": 3906584171, "lat": 48.8488026, "lon": 2.2827218}, {"type": "node", "id": 3920304775, "lat": 48.8460947, "lon": 2.2792411, "tags": {"female": "yes", "male": "yes", "name": "Roger Doueiry", "opening_hours": "Mo 09:30-14:00; Tu,We,Fr,Sa 09:30-19:30; Th 09:30-20:30", "shop": "hairdresser"}}, {"type": "node", "id": 3966675072, "lat": 48.8465602, "lon": 2.2796537, "tags": {"addr:housenumber": "15", "addr:postcode": "75015", "addr:street": "Avenue \u00c9mile Zola", "check_date": "2023-04-30", "level": "1", "name": "Euro Mart", "name:fr": "Euromart", "opening_hours": "Tu-Su 10:00-20:00", "phone": "+33145774277", "shop": "convenience", "website": "https://www.euromartmall.com/"}}, {"type": "node", "id": 4136415192, "lat": 48.8456492, "lon": 2.2776216, "tags": {"check_date": "2023-05-12", "currency:XBT": "yes", "name": "Barnacle", "opening_hours": "Mo 13:00-19:30; Tu 10:00-13:00,14:00-19:30; We-Sa 10:00-19:30", "payment:lightning": "yes", "payment:lightning_contactless": "no", "payment:onchain": "yes", "phone": "+33 7 50 66 89 08", "shop": "optician"}}, {"type": "node", "id": 4136438391, "lat": 48.845918, "lon": 2.2776541, "tags": {"addr:city": "Paris", "addr:street": "Rue de la Convention", "name": "Horlogerie Bijouterie", "shop": "jewelry"}}, {"type": "node", "id": 4138467501, "lat": 48.8458353, "lon": 2.2779204, "tags": {"female": "yes", "male": "yes", "name": "Atelier Hiromi", "opening_hours": "Tu-Sa 10:00-18:00", "shop": "hairdresser"}}, {"type": "node", "id": 4535369092, "lat": 48.8466578, "lon": 2.2863414, "tags": {"contact:city": "Paris", "contact:housenumber": "11", "contact:postcode": "75015", "contact:street": "Place Charles Michels", "name": "Happy", "shop": "florist"}}, {"type": "node", "id": 4535378290, "lat": 48.8475597, "lon": 2.2838491, "tags": {"brand": "Nature & D\u00e9couvertes", "brand:wikidata": "Q3337111", "check_date:opening_hours": "2022-07-09", "fax": "+33 1 58 01 14 09", "name": "Nature & D\u00e9couvertes", "opening_hours": "Mo-Su 10:00-20:00; PH off", "phone": "+33 1 58 01 14 05", "shop": "outdoor", "website": "https://www.natureetdecouvertes.com/magasins/paris/beaugrenelle"}}, {"type": "node", "id": 4537744689, "lat": 48.8453831, "lon": 2.2781986, "tags": {"addr:city": "Paris", "addr:housenumber": "4", "addr:postcode": "75015", "addr:street": "Rue de la Convention", "email": "contact@boulangerieparisandco.fr", "facebook": "https://www.facebook.com/boulangerieparisandco75", "name": "Boulangerie Paris&Co", "opening_hours": "Mo-Fr 06:30-21:00; Su 07:00-20:00", "shop": "bakery", "website": "https://boulangerieparisandco.fr/"}}, {"type": "node", "id": 5271732776, "lat": 48.8481784, "lon": 2.2824227, "tags": {"name": "Maisons du Monde", "shop": "interior_decoration"}}, {"type": "node", "id": 5306881875, "lat": 48.8461186, "lon": 2.2827277, "tags": {"contact:city": "Paris", "contact:email": "monveloenseine@gmail.com", "contact:housenumber": "18 bis", "contact:postcode": "75015", "contact:street": "Rue des Quatre Fr\u00e8res Peignot", "contact:website": "https://monveloenseine.fr/", "name": "Mon v\u00e9lo en Seine", "opening_hours": "Tu 19:00-21:30", "service:bicycle:diy": "yes", "service:bicycle:repair": "yes", "shop": "bicycle", "wikidata": "Q97013969"}}, {"type": "node", "id": 5615236401, "lat": 48.8472019, "lon": 2.2852063, "tags": {"contact:city": "Paris", "contact:housenumber": "45", "contact:postcode": "75015", "contact:street": "Rue Linois", "name": "Beau Drugstore", "opening_hours": "Tu-Sa 08:00-18:00", "payment:cash": "yes", "payment:credit_cards": "yes", "payment:mastercard": "yes", "payment:visa": "yes", "payment:visa_electron": "yes", "shop": "tobacco"}}, {"type": "node", "id": 5615247157, "lat": 48.8473129, "lon": 2.2850361, "tags": {"contact:city": "Paris", "contact:housenumber": "43", "contact:postcode": "75015", "contact:street": "Rue Linois", "female": "yes", "male": "yes", "name": "Coiffeur Visagiste Eliano", "opening_hours": "Mo-Sa 09:00-19:00", "shop": "hairdresser", "wheelchair": "no"}}, {"type": "node", "id": 5615250959, "lat": 48.8480471, "lon": 2.2847094, "tags": {"addr:city": "Paris", "addr:housenumber": "1", "addr:postcode": "75015", "addr:street": "Rue Beaugrenelle", "name": "Grosbill", "opening_hours": "Mo-Sa 10:00-12:30,13:30-19:00; Su 10:00-12:30,13:30-18:00", "phone": "+33 1 83 64 77 88", "shop": "computer", "website": "https://paris15.grosbill.com/"}}, {"type": "node", "id": 6224652089, "lat": 48.8478699, "lon": 2.2835377, "tags": {"addr:postcode": "75015", "brand": "Uniqlo", "brand:wikidata": "Q26070", "brand:wikipedia": "en:Uniqlo", "name": "Uniqlo", "opening_hours": "Mo-Su 10:00-20:00", "shop": "clothes"}}, {"type": "node", "id": 6224652286, "lat": 48.8480106, "lon": 2.2833087, "tags": {"addr:city": "Paris", "brand": "Aubade", "brand:wikidata": "Q2870536", "brand:wikipedia": "fr:Aubade (lingerie)", "clothes": "underwear", "name": "Aubade", "shop": "clothes"}}, {"type": "node", "id": 6846309086, "lat": 48.8472908, "lon": 2.2863859, "tags": {"addr:city": "Paris", "addr:housenumber": "81-83", "addr:postcode": "75015", "addr:street": "Rue Saint-Charles", "air_conditioning": "yes", "brand": "Intermarch\u00e9 Express", "brand:wikidata": "Q98278043", "brand:wikipedia": "fr:Intermarch\u00e9", "contact:city": "Paris", "contact:housenumber": "83", "contact:phone": "+33 1 85 34 46 12", "contact:postcode": "75015", "contact:street": "Rue Saint-Charles", "contact:website": "https://www.intermarche.com/magasins/08484/paris-75015/infos-pratiques", "level": "0", "name": "Intermarch\u00e9 Express", "opening_hours": "Mo-Sa 08:00-22:00; Su 09:00-20:00", "operator": "Groupement des Mousquetaires", "payment:cash": "yes", "payment:credit_cards": "yes", "shop": "convenience", "stroller": "limited", "wheelchair": "yes"}}, {"type": "node", "id": 7033258055, "lat": 48.8488652, "lon": 2.282797, "tags": {"addr:city": "Paris", "addr:postcode": "75015", "addr:street": "Rue Linois", "check_date": "2024-11-09", "internet_access": "wlan", "internet_access:fee": "no", "level": "0;1;2;3", "name": "Galeries Lafayettes Beaugrenelle", "opening_hours": "Mo-Su 09:00-20:30", "operator": "Galeries Lafayettes", "payment:cash": "yes", "payment:contactless": "yes", "payment:mastercard": "yes", "payment:visa": "yes", "shop": "department_store", "wheelchair": "yes"}}, {"type": "node", "id": 7078311691, "lat": 48.8477193, "lon": 2.2855214, "tags": {"shop": "beauty"}}, {"type": "node", "id": 7078311696, "lat": 48.8477632, "lon": 2.284983, "tags": {"name": "AquaBleu", "shop": "hairdresser"}}, {"type": "node", "id": 7078311715, "lat": 48.8478044, "lon": 2.2853024, "tags": {"name": "Teinturerie Pressing", "shop": "dry_cleaning"}}, {"type": "node", "id": 7078311721, "lat": 48.8477418, "lon": 2.2854644, "tags": {"name": "Le Lieu du Vin", "shop": "wine"}}, {"type": "node", "id": 7769694188, "lat": 48.8467724, "lon": 2.2859006}, {"type": "node", "id": 7799699398, "lat": 48.848306, "lon": 2.2827495, "tags": {"brand": "Zara", "brand:wikidata": "Q147662", "brand:wikipedia": "en:Zara (retailer)", "name": "Zara", "shop": "clothes", "wheelchair": "yes"}}, {"type": "node", "id": 8682419018, "lat": 48.84789, "lon": 2.285046, "tags": {"contact:city": "Paris", "contact:housenumber": "5", "contact:phone": "+33 1 45 77 03 60", "contact:postcode": "75015", "contact:street": "Rue Beaugrenelle", "contact:website": "https://www.entendre-paris15.fr", "name": "Entendre", "official_name": "Entendre Paris 15", "opening_hours": "Mo 14:00-18:30; Tu-Fr 09:30-12:30, 14:00-18:30; Sa 09:30-12:30", "shop": "hearing_aids"}}, {"type": "node", "id": 8957705477, "lat": 48.852254, "lon": 2.2880963, "tags": {"addr:housenumber": "16", "addr:street": "Rue du Docteur Finlay", "brand": "CocciMarket", "brand:wikidata": "Q90020480", "name": "CocciMarket", "opening_hours": "Mo-Su 07:00-22:00", "shop": "convenience", "wheelchair": "yes"}}, {"type": "node", "id": 9670499369, "lat": 48.8462889, "lon": 2.2832668, "tags": {"contact:city": "Paris", "contact:housenumber": "52", "contact:phone": "+33 1 45 77 66 81", "contact:postcode": "75015", "contact:street": "Avenue \u00c9mile Zola", "contact:website": "http://www.lesdelicesdorient.com", "name": "Les D\u00e9lices D\u2019Orient", "opening_hours": "Tu-Su 08:30-20:00", "shop": "convenience"}}, {"type": "node", "id": 9831608883, "lat": 48.8477126, "lon": 2.2837817, "tags": {"brand": "Petit Bateau", "brand:wikidata": "Q3377090", "name": "Petit Bateau", "opening_hours": "Mo-Sa 10:00-20:30; Su 11:00-19:00", "phone": "+33 1 40 58 18 32", "shop": "clothes", "website": "https://stores.petit-bateau.com/france/paris/32-34-rue-linois"}}, {"type": "node", "id": 9831608884, "lat": 48.847923, "lon": 2.2834553, "tags": {"name": "My Jolie Candle", "opening_hours": "Mo-Sa 10:00-20:30; Su 11:00-19:00", "shop": "gift"}}, {"type": "node", "id": 9831608886, "lat": 48.8480756, "lon": 2.2832035, "tags": {"brand": "Pablo", "brand:wikidata": "Q104718978", "clothes": "women", "name": "Pablo", "shop": "clothes"}}, {"type": "node", "id": 9831608888, "lat": 48.8482385, "lon": 2.2829705, "tags": {"brand": "Pandora", "brand:wikidata": "Q2241604", "name": "Pandora", "shop": "jewelry", "wheelchair": "yes"}}, {"type": "node", "id": 9863935454, "lat": 48.8469611, "lon": 2.2834248, "tags": {"contact:city": "Paris", "contact:housenumber": "12", "contact:postcode": "75015", "contact:street": "Rue des Quatre Fr\u00e8res Peignot", "name": "Biogrenelle", "opening_hours": "Mo-Sa 08:00-19:00", "shop": "bakery", "wheelchair": "yes"}}, {"type": "node", "id": 9863935482, "lat": 48.8465043, "lon": 2.2828876, "tags": {"beauty": "nails", "contact:city": "Paris", "contact:housenumber": "47", "contact:postcode": "75015", "contact:street": "Avenue \u00c9mile Zola", "name": "Lotus nails - salon de manucure am\u00e9ricain", "opening_hours": "Mo-Sa 10:00-20:00", "shop": "beauty"}}, {"type": "node", "id": 9863939652, "lat": 48.8462712, "lon": 2.2828512, "tags": {"addr:housenumber": "48", "addr:postcode": "75015", "addr:street": "Avenue \u00c9mile Zola", "contact:city": "Paris", "contact:housenumber": "48", "contact:postcode": "75015", "contact:street": "Avenue \u00c9mile Zola", "name": "D\u00e9li d'or", "opening_hours": "Tu-Su 07:00-20:00", "shop": "bakery"}}, {"type": "node", "id": 9863975710, "lat": 48.8462677, "lon": 2.282526, "tags": {"check_date": "2022-08-22", "name": "Les D\u00e9lices d'Orient", "shop": "butcher"}}, {"type": "node", "id": 9878593860, "lat": 48.8456343, "lon": 2.2776565, "tags": {"beauty": "nails", "name": "Future nails", "opening_hours": "Mo-Sa 10:00-20:00; Su 13:00-19:00", "shop": "beauty"}}, {"type": "node", "id": 9878593861, "lat": 48.8456133, "lon": 2.2776997, "tags": {"brand": "Tchip", "brand:wikidata": "Q62871250", "contact:city": "Paris 15eme Arrondissement", "contact:housenumber": "2", "contact:phone": "+33 1 45 78 69 58", "contact:postcode": "75015", "contact:street": "Rue De La Convention", "female": "yes", "name": "Tchip Coiffure Paris Convention", "opening_hours": "Mo-Fr 10:00-19:00; Sa 09:00-19:00", "shop": "hairdresser", "website": "https://tchip.fr/salon/view/157"}}, {"type": "node", "id": 9878593863, "lat": 48.8455236, "lon": 2.2778966, "tags": {"name": "Urban Scooter - Yamaha Piaggio", "opening_hours": "Tu-Fr 09:00-12:45,14:00-19:00; Sa 14:00-17:00", "shop": "motorcycle"}}, {"type": "node", "id": 10180630858, "lat": 48.8467589, "lon": 2.2858816}, {"type": "node", "id": 10180630859, "lat": 48.8467796, "lon": 2.2858478}, {"type": "node", "id": 10180630860, "lat": 48.846793, "lon": 2.2858668}, {"type": "node", "id": 10180630861, "lat": 48.8467692, "lon": 2.2858647, "tags": {"advertising": "poster_box", "animated": "winding_posters", "colour": "darkgreen", "direction": "220", "land_property": "public", "legal_type:FR": "publicit\u00e9:mobilier_urbain:kiosque", "luminous": "no", "message": "commercial", "operator": "JCDecaux", "sides": "1", "support": "kiosk", "visibility": "street"}}, {"type": "node", "id": 10180630862, "lat": 48.8467863, "lon": 2.2858573, "tags": {"advertising": "poster_box", "animated": "no", "colour": "darkgreen", "direction": "310", "land_property": "public", "legal_type:FR": "publicit\u00e9:mobilier_urbain:kiosque", "luminous": "no", "message": "commercial", "operator": "JCDecaux", "sides": "1", "support": "kiosk", "visibility": "street"}}, {"type": "node", "id": 10180630863, "lat": 48.8467657, "lon": 2.2858911, "tags": {"advertising": "poster_box", "animated": "no", "colour": "darkgreen", "direction": "130", "land_property": "public", "legal_type:FR": "publicit\u00e9:mobilier_urbain:kiosque", "luminous": "no", "message": "commercial", "operator": "JCDecaux", "sides": "1", "support": "kiosk", "visibility": "street"}}, {"type": "node", "id": 10982782562, "lat": 48.846058, "lon": 2.2867409, "tags": {"addr:housenumber": "46", "addr:street": "Rue des Entrepreneurs", "name": "Cr\u00e9ation D'exception", "opening_hours": "Mo-Sa 07:00-20:00; Su 07:30-18:00", "phone": "+33 1 70 23 31 95", "shop": "bakery"}}, {"type": "node", "id": 10984951339, "lat": 48.8463386, "lon": 2.2866433, "tags": {"shop": "optician"}}, {"type": "node", "id": 11711251110, "lat": 48.8477026, "lon": 2.283612, "tags": {"addr:city": "Paris", "addr:housenumber": "14", "addr:postcode": "75015", "addr:street": "Rue Linois", "brand": "Jacadi", "brand:wikidata": "Q3157058", "clothes": "children", "level": "1", "name": "Jacadi", "shop": "clothes", "wheelchair": "yes"}}, {"type": "node", "id": 11711329688, "lat": 48.8476698, "lon": 2.2836923, "tags": {"brand": "GrandOptical", "brand:wikidata": "Q3113677", "level": "1", "name": "Grand  Optical", "opening_hours": "Mo-Sa 10:00-20:00; Su 11:00-19:00", "shop": "optician", "wheelchair": "yes"}}, {"type": "node", "id": 11878916324, "lat": 48.8463475, "lon": 2.2840411, "tags": {"name": "Store", "shop": "copyshop"}}, {"type": "node", "id": 12066353969, "lat": 48.8467181, "lon": 2.2864642, "tags": {"addr:housenumber": "71", "addr:street": "Avenue \u00c9mile Zola", "name": "Plantes pour tous", "ref:FR:SIRET": "95273031500027", "shop": "florist"}}, {"type": "node", "id": 12189600623, "lat": 48.8483454, "lon": 2.2823099, "tags": {"addr:housenumber": "12", "addr:street": "Rue Linois", "brand": "H&M", "brand:wikidata": "Q188326", "check_date": "2024-09-21", "name": "H&M", "opening_hours": "Mo-Sa 10:00-20:00; Su 11:00-19:00", "payment:cash": "yes", "payment:credit_cards": "yes", "payment:debit_cards": "yes", "shop": "clothes", "website": "https://www2.hm.com/fr_fr/customer-service/shopping-at-hm/store-locator.html", "wheelchair": "yes"}}, {"type": "node", "id": 12565769003, "lat": 48.850002, "lon": 2.2848098, "tags": {"addr:housenumber": "9-11", "addr:postcode": "75015", "addr:street": "Rue Robert de Flers", "name": "K-Mart Beaugrenelle", "opening_hours": "Mo-Su 10:00-20:00", "phone": "+33 1 40 59 42 72", "shop": "grocery", "website": "https://k-mart.fr/beaugrenelle"}}, {"type": "node", "id": 13016358442, "lat": 48.8486658, "lon": 2.2823198, "tags": {"brand": "Sephora", "brand:wikidata": "Q2408041", "name": "Sephora", "shop": "cosmetics"}}, {"type": "way", "id": 53396302, "nodes": [675140583, 675140597, 675140598, 675140609, 1950361814, 682420452, 682420333, 682420387, 682420354, 682420409, 3906584170, 682420344, 682420394, 682420415, 675140659, 675140433, 675140583], "tags": {"air_conditioning": "yes", "architect": "Valode & Pistre Architectes", "building": "retail", "building:level:-1": "Darty, Muji, Bo Concept, Madura, Du bruit dans la cuisine, Flexa", "building:level:0": "Maje, Sandro, G\u00e9rard Darel, Sephora, IKKS, Aubade, Petit Bateau, Claude Pierlot", "building:level:1": "Lacoste Live, Grand Optical, Louis Pion, Le temps des Cerises", "building:level:2": "IKKS, Mango, Promod, Darjeeling, Geox", "building:levels": "4", "contact:housename": "\u00celot P\u00e9gase", "contact:housenumber": "12", "contact:postcode": "75015", "contact:street": "Rue Linois", "contact:website": "https://www.beaugrenelle-paris.com/", "internet_access": "wlan", "name": "Beaugrenelle - Magnetic", "note": "Darty tablettes vendeurs Marks et Spencer MDD", "opening_hours": "Mo-Sa 10:00-20:30; Su 11:00-19:00", "shop": "mall", "source": "extrapolation;survey", "start_date": "2012", "stroller": "yes", "toilets": "yes", "wheelchair": "yes", "wikidata": "Q2944936"}}, {"type": "way", "id": 53396317, "nodes": [675140601, 675140724, 675140686, 675140616, 3906584171, 1950361815, 675140601], "tags": {"addr:housename": "\u00celot Verseau", "addr:street": "Rue Linois", "air_conditioning": "yes", "architect": "Valode & Pistre Architectes", "building": "retail", "building:level:0": "Cin\u00e9ma Path\u00e9 Multiplexe, Starbuck, Mark & Spencer", "building:level:1": "Mark & Spencer", "building:level:2": "Mark & Spencer", "building:level:3": "Mark & Spencer, Restaurant Peral", "building:levels": "3", "internet_access": "wlan", "name": "Beaugrenelle", "quiet_hours": "Mo-Fr 15:00-16:00", "shop": "mall", "source": "extrapolation;survey", "source:quiet_hours": "https://beaugrenelle-paris.com/fr/actualites/rse/heure-silencieuse", "start_date": "2012", "stroller": "yes", "wall": "no", "website": "https://www.beaugrenelle-paris.com/", "wheelchair": "yes"}}, {"type": "way", "id": 1112695140, "nodes": [7769694188, 10180630863, 10180630858, 10180630861, 10180630859, 10180630862, 10180630860, 7769694188], "tags": {"building": "yes", "contact:city": "Paris", "contact:postcode": "75015", "contact:street": "Place Charles Michel", "name": "Le kiosque de Paris", "opening_hours": "Mo-Fr 09:30-18:30", "shop": "kiosk"}}]}