{"version": 0.6, "generator": "Overpass API 0.7.62.8 e802775f", "osm3s": {"timestamp_osm_base": "2026-01-13T20:16:43Z", "copyright": "The data included in this document is from www.openstreetmap.org. The data is made available under ODbL."}, "elements": [{"type": "node", "id": 308113484, "lat": 48.8465498, "lon": 2.284777, "tags": {"amenity": "toilets", "changing_table": "no", "drinking_water": "yes", "fee": "no", "operator": "JCDecaux", "operator:wikidata": "Q74877", "toilets:disposal": "flush", "toilets:position": "seated;urinal", "toilets:wheelchair": "yes", "unisex": "yes", "wheelchair": "yes"}}, {"type": "node", "id": 308113486, "lat": 48.8469061, "lon": 2.2850171, "tags": {"addr:postcode": "75015", "addr:street": "Rue Linois", "amenity": "fast_food", "brand": "McDonald's", "brand:wikidata": "Q38076", "brand:wikipedia": "en:McDonald's", "contact:city": "Paris", "contact:postcode": "75015", "contact:street": "Rue Linois", "cuisine": "burger", "name": "McDonald's", "name:ru": "\u041c\u0430\u043a\u0414\u043e\u043d\u0430\u043b\u0434\u0441", "opening_hours": "Mo-Su 07:30-02:00", "operator": "McDonald's", "phone": "+33 1 81 69 54 92", "takeaway": "yes", "website": "https://www.mcdonalds.fr/restaurants/mcdonalds-paris-beaugrenelle/1197"}}, {"type": "node", "id": 308114099, "lat": 48.8468228, "lon": 2.2853345, "tags": {"amenity": "taxi", "name": "Place Charles Michels", "ref": "63", "ref:source": "Ville de Paris, open data 2021", "shelter": "yes"}}, {"type": "node", "id": 308114100, "lat": 48.8469227, "lon": 2.2856922, "tags": {"amenity": "recycling", "check_date:recycling": "2025-12-02", "location": "underground", "recycling:glass": "no", "recycling:glass_bottles": "yes", "recycling_type": "container"}}, {"type": "node", "id": 309044791, "lat": 48.8468474, "lon": 2.2861719, "tags": {"addr:city": "Paris", "amenity": "pharmacy", "check_date": "2025-12-02", "dispensing": "yes", "healthcare": "pharmacy", "name": "Pharmacie Charles Michels", "opening_hours": "Mo-Sa 09:00-20:00", "ref:FR:FINESS": "750025371", "source": "Celtipharm - 10/2014"}}, {"type": "node", "id": 312765791, "lat": 48.8466999, "lon": 2.2845048, "tags": {"amenity": "post_office", "atm": "yes", "change_machine": "yes", "contact:city": "Paris", "contact:housenumber": "67", "contact:phone": "3631", "contact:postcode": "75015", "contact:street": "Avenue \u00c9mile Zola", "name": "Paris Beaugrenelle / Lourmel", "opening_hours": "Mo-Fr 09:00-19:00; Sa 09:00-12:30; PH off; 2024 May 20 off", "operator": "La Poste", "operator:wikidata": "Q373724", "operator:wikipedia": "fr:La Poste (entreprise fran\u00e7aise)", "ref:FR:LaPoste": "14364A", "source": "data.gouv.fr:LaPoste - 06/2015", "stamping_machine": "yes", "wheelchair": "yes"}}, {"type": "node", "id": 315123765, "lat": 48.8464653, "lon": 2.2801018, "tags": {"amenity": "fuel", "brand": "Avia", "brand:wikidata": "Q300147", "brand:wikipedia": "de:Avia International", "compressed_air": "yes", "fuel:diesel": "yes", "fuel:e10": "yes", "fuel:e85": "yes", "fuel:octane_98": "yes", "maxheight": "3.25", "name": "Avia", "old_ref:FR:prix-carburants": "75015023", "opening_hours": "24/7", "ref:FR:prix-carburants": "75015036", "shop": "convenience;gas", "source": "DGCCRF - 2025", "toilets": "yes", "wheelchair": "limited"}}, {"type": "node", "id": 340238080, "lat": 48.8508082, "lon": 2.2875644, "tags": {"source": "cadastre-dgi-fr source : Direction G\u00e9n\u00e9rale des Imp\u00f4ts - Cadastre ; mise \u00e0 jour : 2007"}}, {"type": "node", "id": 343785166, "lat": 48.8468363, "lon": 2.2851518, "tags": {"amenity": "atm", "brand": "CIC", "brand:wikidata": "Q746525", "cash_in": "yes", "check_date": "2024-05-11", "indoor": "no", "name": "CIC", "operator": "CIC", "operator:wikidata": "Q746525", "source": "survey 2013"}}, {"type": "node", "id": 343794502, "lat": 48.8507753, "lon": 2.2876834, "tags": {"source": "cadastre-dgi-fr source : Direction G\u00e9n\u00e9rale des Imp\u00f4ts - Cadastre ; mise \u00e0 jour : 2007"}}, {"type": "node", "id": 343794504, "lat": 48.8508127, "lon": 2.287605, "tags": {"source": "cadastre-dgi-fr source : Direction G\u00e9n\u00e9rale des Imp\u00f4ts - Cadastre ; mise \u00e0 jour : 2007"}}, {"type": "node", "id": 343794506, "lat": 48.8504975, "lon": 2.2872309, "tags": {"source": "cadastre-dgi-fr source : Direction G\u00e9n\u00e9rale des Imp\u00f4ts - Cadastre ; mise \u00e0 jour : 2007"}}, {"type": "node", "id": 343794507, "lat": 48.8504712, "lon": 2.2872388, "tags": {"source": "cadastre-dgi-fr source : Direction G\u00e9n\u00e9rale des Imp\u00f4ts - Cadastre ; mise \u00e0 jour : 2007"}}, {"type": "node", "id": 343794509, "lat": 48.850043, "lon": 2.2883552}, {"type": "node", "id": 343794511, "lat": 48.8500639, "lon": 2.2884163}, {"type": "node", "id": 343794513, "lat": 48.8503845, "lon": 2.2884691}, {"type": "node", "id": 343794514, "lat": 48.8504088, "lon": 2.2884524}, {"type": "node", "id": 343794516, "lat": 48.8504715, "lon": 2.2883194}, {"type": "node", "id": 633221664, "lat": 48.8525052, "lon": 2.2865025}, {"type": "node", "id": 633221666, "lat": 48.8526896, "lon": 2.2868532}, {"type": "node", "id": 633221669, "lat": 48.8522719, "lon": 2.2870117}, {"type": "node", "id": 653366336, "lat": 48.8459719, "lon": 2.2775704, "tags": {"addr:city": "Paris", "addr:housenumber": "1", "addr:postcode": "75015", "addr:street": "Rue de la Convention", "amenity": "restaurant", "bar": "yes", "brewery": "various", "description": "French cuisine", "name": "Regalia", "opening_hours": "Mo 06:30-24:00, Tu-Fr 06:30-01:00, Sa 08:00-01:00, Su 09:00-20:00", "phone": "+33 1 45 77 97 00", "website": "https://www.leregalia.com"}}, {"type": "node", "id": 675558699, "lat": 48.8464653, "lon": 2.2799101}, {"type": "node", "id": 675558872, "lat": 48.8464928, "lon": 2.2798585}, {"type": "node", "id": 681275677, "lat": 48.8529165, "lon": 2.2869649}, {"type": "node", "id": 681275718, "lat": 48.8521178, "lon": 2.2876086}, {"type": "node", "id": 681275719, "lat": 48.851923, "lon": 2.287918}, {"type": "node", "id": 681275720, "lat": 48.8521201, "lon": 2.2876127}, {"type": "node", "id": 681275721, "lat": 48.8521664, "lon": 2.2874662}, {"type": "node", "id": 681275739, "lat": 48.852258, "lon": 2.2875616}, {"type": "node", "id": 681275745, "lat": 48.8530035, "lon": 2.286854}, {"type": "node", "id": 681275759, "lat": 48.8522059, "lon": 2.2876823}, {"type": "node", "id": 681275785, "lat": 48.8523677, "lon": 2.287124}, {"type": "node", "id": 681275820, "lat": 48.8523825, "lon": 2.2871524}, {"type": "node", "id": 681275830, "lat": 48.8526771, "lon": 2.2867443}, {"type": "node", "id": 681276035, "lat": 48.852069, "lon": 2.2880808}, {"type": "node", "id": 681276038, "lat": 48.8521918, "lon": 2.2873895}, {"type": "node", "id": 681276065, "lat": 48.8522761, "lon": 2.287575}, {"type": "node", "id": 681276076, "lat": 48.8521993, "lon": 2.2877028}, {"type": "node", "id": 681276081, "lat": 48.852898, "lon": 2.2870132}, {"type": "node", "id": 681276097, "lat": 48.8528163, "lon": 2.2869445}, {"type": "node", "id": 681276099, "lat": 48.8529286, "lon": 2.2869279}, {"type": "node", "id": 681276115, "lat": 48.8522842, "lon": 2.2874359}, {"type": "node", "id": 681276142, "lat": 48.8529439, "lon": 2.2869482}, {"type": "node", "id": 681276150, "lat": 48.8522048, "lon": 2.2876782}, {"type": "node", "id": 681276165, "lat": 48.8523147, "lon": 2.2874627}, {"type": "node", "id": 681276180, "lat": 48.8529085, "lon": 2.2869568}, {"type": "node", "id": 681276195, "lat": 48.8522624, "lon": 2.2875425}, {"type": "node", "id": 681276199, "lat": 48.8520872, "lon": 2.2875763}, {"type": "node", "id": 681276236, "lat": 48.852915, "lon": 2.2867305}, {"type": "node", "id": 681276245, "lat": 48.8528903, "lon": 2.286739}, {"type": "node", "id": 681276267, "lat": 48.8521295, "lon": 2.2873209}, {"type": "node", "id": 681276274, "lat": 48.8529174, "lon": 2.2869308}, {"type": "node", "id": 682388065, "lat": 48.850416, "lon": 2.2873824, "tags": {"addr:housenumber": "25", "source": "cadastre-dgi-fr source : Direction G\u00e9n\u00e9rale des Imp\u00f4ts - Cadastre ; mise \u00e0 jour : 2010"}}, {"type": "node", "id": 682420361, "lat": 48.8475825, "lon": 2.2858441, "tags": {"addr:city": "Paris", "addr:country": "FR", "addr:housenumber": "11b", "addr:street": "Rue Beaugrenelle", "amenity": "restaurant", "cuisine": "korean", "name": "Gamjatang", "name:ko": "\uc544\uac00\uc0ac\uac00", "opening_hours": "Su-Fr 12:00-14:30, 19:00-22:30", "phone": "+33 1 45 77 89 85", "source": "cadastre-dgi-fr source : Direction G\u00e9n\u00e9rale des Imp\u00f4ts - Cadastre ; mise \u00e0 jour : 2010"}}, {"type": "node", "id": 682420376, "lat": 48.8471365, "lon": 2.2846392, "tags": {"amenity": "fast_food", "check_date:opening_hours": "2024-03-30", "cuisine": "donut", "indoor_seating": "no", "name": "C'est mon donut", "opening_hours:signed": "no", "outdoor_seating": "no", "source": "cadastre-dgi-fr source : Direction G\u00e9n\u00e9rale des Imp\u00f4ts - Cadastre;mise \u00e0 jour : 2010", "takeaway": "only"}}, {"type": "node", "id": 684572977, "lat": 48.8528539, "lon": 2.2868396, "tags": {"addr:housenumber": "1", "source": "cadastre-dgi-fr source : Direction G\u00e9n\u00e9rale des Imp\u00f4ts - Cadastre ; mise \u00e0 jour : 2010"}}, {"type": "node", "id": 1307926059, "lat": 48.8495803, "lon": 2.2858035}, {"type": "node", "id": 1307926089, "lat": 48.8496144, "lon": 2.2855733}, {"type": "node", "id": 1307926149, "lat": 48.8495025, "lon": 2.2841598}, {"type": "node", "id": 1307926243, "lat": 48.8495632, "lon": 2.2858035}, {"type": "node", "id": 1307926348, "lat": 48.8493523, "lon": 2.283977}, {"type": "node", "id": 1307926539, "lat": 48.849615, "lon": 2.2858372}, {"type": "node", "id": 1307926630, "lat": 48.8494192, "lon": 2.2843101}, {"type": "node", "id": 1307926849, "lat": 48.8496509, "lon": 2.2855733}, {"type": "node", "id": 1307926953, "lat": 48.8495216, "lon": 2.2857498}, {"type": "node", "id": 1307926967, "lat": 48.8496532, "lon": 2.2856381}, {"type": "node", "id": 1307927332, "lat": 48.8495871, "lon": 2.2857948}, {"type": "node", "id": 1307927334, "lat": 48.8498114, "lon": 2.2857083}, {"type": "node", "id": 1307927354, "lat": 48.8497431, "lon": 2.2856286}, {"type": "node", "id": 1307927539, "lat": 48.8492697, "lon": 2.2841306}, {"type": "node", "id": 1307927582, "lat": 48.8497505, "lon": 2.2858251}, {"type": "node", "id": 1928784710, "lat": 48.8517077, "lon": 2.2869044}, {"type": "node", "id": 1928784713, "lat": 48.851915, "lon": 2.2864978}, {"type": "node", "id": 2108688340, "lat": 48.846662, "lon": 2.2831751, "tags": {"addr:postcode": "75015", "amenity": "restaurant", "check_date:opening_hours": "2024-03-10", "cuisine": "indian", "name": "Le palais de Shah Jahan", "opening_hours": "Tu-Su 11:30-14:30, Tu-Th,Su 18:30-23:00, Fr,Sa 18:30-23:30", "phone": "+33 1 45 78 21 07", "wheelchair": "limited"}}, {"type": "node", "id": 2108688341, "lat": 48.8465353, "lon": 2.2834107, "tags": {"amenity": "restaurant", "check_date": "2024-04-21", "cuisine": "thai", "name": "Sawadee"}}, {"type": "node", "id": 2267565746, "lat": 48.846049, "lon": 2.278046, "tags": {"amenity": "pharmacy", "contact:city": "Paris", "contact:housenumber": "4", "contact:postcode": "75015", "contact:street": "Avenue \u00c9mile Zola", "contact:website": "http://www.pharmacie-rivegauche.com", "dispensing": "yes", "healthcare": "pharmacy", "name": "Pharmacie Rive Gauche", "opening_hours": "Mo-Fr 08:30-20:00; Sa 09:00-20:00", "ref:FR:FINESS": "750025850", "source": "Celtipharm - 10/2014"}}, {"type": "node", "id": 2267594421, "lat": 48.8460596, "lon": 2.2775578, "tags": {"addr:postcode": "75015", "amenity": "post_box", "check_date:collection_times": "2025-04-03", "collection_times": "Mo-Sa 09:00", "operator": "La Poste", "operator:wikidata": "Q373724", "ref": "A2D8T8", "source": "data.gouv.fr:LaPoste - 06/2015"}}, {"type": "node", "id": 2267594428, "lat": 48.8460301, "lon": 2.2776353, "tags": {"amenity": "fast_food", "cuisine": "sandwich", "name": "King Food"}}, {"type": "node", "id": 2373739985, "lat": 48.8466133, "lon": 2.2798503, "tags": {"amenity": "restaurant", "check_date": "2023-04-30", "cuisine": "korean", "level": "1", "name": "Les 4 Saisons", "opening_hours": "Mo-Sa 12:00-14:30,19:00-22:30"}}, {"type": "node", "id": 2386245895, "lat": 48.8470292, "lon": 2.2780046}, {"type": "node", "id": 2386276062, "lat": 48.8464255, "lon": 2.2771703, "tags": {"amenity": "bench", "backrest": "no", "level": "-1", "source": "survey 2013-07-12"}}, {"type": "node", "id": 2386276063, "lat": 48.8464496, "lon": 2.2771964, "tags": {"amenity": "vending_machine", "check_date": "2025-02-11", "level": "-1", "operator": "Selecta", "payment:coins": "yes", "source": "survey 2013-07-12", "vending": "drinks;food"}}, {"type": "node", "id": 2386276066, "lat": 48.8465633, "lon": 2.277345, "tags": {"amenity": "bench", "backrest": "no", "level": "-1", "source": "survey 2013-07-12"}}, {"type": "node", "id": 2386276068, "lat": 48.846612, "lon": 2.2774037, "tags": {"amenity": "bench", "backrest": "no", "level": "-1", "source": "survey 2013-07-12"}}, {"type": "node", "id": 2386276070, "lat": 48.8466421, "lon": 2.2774442, "tags": {"amenity": "bench", "backrest": "no", "level": "-1", "source": "survey 2013-07-12"}}, {"type": "node", "id": 2386276071, "lat": 48.8466744, "lon": 2.2774881, "tags": {"amenity": "bench", "backrest": "no", "level": "-1", "source": "survey 2013-07-12"}}, {"type": "node", "id": 2386276072, "lat": 48.8466825, "lon": 2.2772636, "tags": {"amenity": "bench", "backrest": "yes", "level": "-1", "source": "survey 2013-07-12"}}, {"type": "node", "id": 2386276073, "lat": 48.8467037, "lon": 2.277528, "tags": {"amenity": "bench", "backrest": "no", "level": "-1", "source": "survey 2013-07-12"}}, {"type": "node", "id": 2386276074, "lat": 48.8467023, "lon": 2.2772899, "tags": {"amenity": "vending_machine", "brand": "Selecta", "brand:wikidata": "Q472153", "check_date": "2025-02-11", "level": "-1", "operator": "Selecta", "payment:coins": "yes", "source": "survey 2013-07-12", "vending": "drinks;food"}}, {"type": "node", "id": 2386276075, "lat": 48.8467454, "lon": 2.2773513, "tags": {"amenity": "bench", "backrest": "yes", "level": "-1", "source": "survey 2013-07-12"}}, {"type": "node", "id": 2386276076, "lat": 48.8469242, "lon": 2.2775917, "tags": {"amenity": "bench", "backrest": "yes", "level": "-1", "source": "survey 2013-07-12"}}, {"type": "node", "id": 2386276079, "lat": 48.8468953, "lon": 2.2777893, "tags": {"amenity": "bench", "backrest": "yes", "level": "-1", "source": "survey 2013-07-12"}}, {"type": "node", "id": 2386276081, "lat": 48.846988, "lon": 2.2779474}, {"type": "node", "id": 2386276082, "lat": 48.8469955, "lon": 2.277935, "tags": {"amenity": "bench", "backrest": "no", "level": "-1", "source": "survey 2013-07-12"}}, {"type": "node", "id": 2386276083, "lat": 48.8470046, "lon": 2.2779198}, {"type": "node", "id": 2386276084, "lat": 48.8470174, "lon": 2.2779683, "tags": {"amenity": "bench", "backrest": "no", "level": "-1", "source": "survey 2013-07-12"}}, {"type": "node", "id": 2386276085, "lat": 48.8470458, "lon": 2.277977}, {"type": "node", "id": 2386276086, "lat": 48.8470634, "lon": 2.2778223}, {"type": "node", "id": 2386276087, "lat": 48.8470772, "lon": 2.2777998}, {"type": "node", "id": 2386276088, "lat": 48.8470866, "lon": 2.2778191, "tags": {"amenity": "bench", "backrest": "no", "level": "-1", "source": "survey 2013-07-12"}}, {"type": "node", "id": 2386276089, "lat": 48.8470891, "lon": 2.2780661, "tags": {"amenity": "bench", "backrest": "yes", "level": "-1", "source": "survey 2013-07-12"}}, {"type": "node", "id": 2386276090, "lat": 48.8471086, "lon": 2.2778524, "tags": {"amenity": "bench", "backrest": "no", "level": "-1", "source": "survey 2013-07-12"}}, {"type": "node", "id": 2386276091, "lat": 48.8471042, "lon": 2.2778803}, {"type": "node", "id": 2386276092, "lat": 48.847118, "lon": 2.2778579}, {"type": "node", "id": 2386276094, "lat": 48.8473298, "lon": 2.2784112, "tags": {"amenity": "clock", "check_date": "2023-02-24", "level": "-1", "source": "survey 2013-07-12"}}, {"type": "node", "id": 2386276095, "lat": 48.8473847, "lon": 2.2785022, "tags": {"amenity": "bench", "backrest": "no", "level": "-1", "source": "survey 2013-07-12"}}, {"type": "node", "id": 2386276096, "lat": 48.8474277, "lon": 2.2783317, "tags": {"amenity": "clock", "check_date": "2023-02-24", "level": "-1", "source": "survey 2013-07-12"}}, {"type": "node", "id": 2386276097, "lat": 48.8474688, "lon": 2.2783578, "tags": {"amenity": "bench", "backrest": "no", "level": "-1", "source": "survey 2013-07-12"}}, {"type": "node", "id": 2449443722, "lat": 48.845815, "lon": 2.2846022, "tags": {"amenity": "restaurant", "check_date": "2025-04-12", "contact:city": "Paris", "contact:housenumber": "96", "contact:phone": "+33 9 52 15 08 58", "contact:postcode": "75015", "contact:street": "Rue Saint-Charles", "contact:website": "https://www.lamaisondescyclades.fr/", "cuisine": "greek", "name": "La maison des Cyclades", "opening_hours": "Tu-Sa 10:00-20:00; Su 10:00-14:00"}}, {"type": "node", "id": 2449461238, "lat": 48.8467193, "lon": 2.2861808, "tags": {"amenity": "bank", "atm": "yes", "brand": "LCL", "brand:wikidata": "Q779722", "brand:wikipedia": "fr:Cr\u00e9dit lyonnais", "check_date": "2025-12-02", "check_date:opening_hours": "2023-11-01", "name": "LCL", "opening_hours": "Tu-Sa 09:00-13:00, Tu,We,Fr 14:00-17:30, Th 15:00-17:30, Sa 14:00-16:00"}}, {"type": "node", "id": 2449469406, "lat": 48.8470091, "lon": 2.2860727, "tags": {"amenity": "cafe", "brand": "Starbucks", "brand:wikidata": "Q37158", "brand:wikipedia": "en:Starbucks", "cuisine": "coffee_shop", "diet:vegetarian": "yes", "name": "Starbucks", "name:fr": "Starbucks", "official_name": "Starbucks Coffee", "opening_hours": "Mo-Fr 07:30-20:30; Sa 08:00-20:30; Su 08:00-20:30", "operator": "Starbucks", "takeaway": "yes", "website": "https://www.starbucks.fr/"}}, {"type": "node", "id": 2449471459, "lat": 48.8464464, "lon": 2.2864898, "tags": {"amenity": "bank", "atm": "yes", "brand": "BNP Paribas", "brand:wikidata": "Q499707", "brand:wikipedia": "en:BNP Paribas", "contact:city": "Paris", "contact:housenumber": "76", "contact:postcode": "75015", "contact:street": "Avenue \u00c9mile Zola", "name": "BNP Paribas", "opening_hours": "Tu-Sa 09:00-13:00, Tu,We,Fr 14:00-18:00, Th 14:00-19:00"}}, {"type": "node", "id": 2449475888, "lat": 48.8464151, "lon": 2.2854902, "tags": {"amenity": "cafe", "check_date": "2025-04-12", "check_date:opening_hours": "2022-07-03", "contact:city": "Paris", "contact:housenumber": "89", "contact:postcode": "75015", "contact:street": "Rue Saint-Charles", "cuisine": "french", "diet:vegetarian": "yes", "name": "Caf\u00e9 Beaugrenelle", "name:fr": "Caf\u00e9 Beaugrenelle", "opening_hours": "Mo-Su 07:00-24:00,00:00-02:00"}}, {"type": "node", "id": 2449485237, "lat": 48.8464239, "lon": 2.2857557, "tags": {"addr:city": "Paris", "amenity": "pharmacy", "dispensing": "yes", "healthcare": "pharmacy", "name": "Pharmarket Beaugrenelle", "opening_hours": "Mo-Sa 09:00-20:00", "ref:FR:FINESS": "750025934", "source": "Celtipharm - 10/2014"}}, {"type": "node", "id": 2449485238, "lat": 48.8463582, "lon": 2.2859283, "tags": {"amenity": "cafe", "bar": "yes", "contact:city": "Paris", "contact:housenumber": "38", "contact:postcode": "75015", "contact:street": "Rue des Entrepreneurs", "name": "Le Relais Charbon", "name:fr": "Le Relais Charbon", "opening_hours": "Mo-Sa 07:30-24:00", "outdoor_seating": "yes"}}, {"type": "node", "id": 2449485241, "lat": 48.846214, "lon": 2.2863069, "tags": {"amenity": "bank", "atm": "yes", "brand": "Soci\u00e9t\u00e9 G\u00e9n\u00e9rale", "brand:wikidata": "Q270363", "brand:wikipedia": "en:Cr\u00e9dit du Nord", "contact:city": "Paris", "contact:housenumber": "40 bis", "contact:postcode": "75015", "contact:street": "Rue des Entrepreneurs", "name": "Soci\u00e9t\u00e9 G\u00e9n\u00e9rale", "opening_hours": "Mo-Fr 09:15-12:45,14:00-17:45"}}, {"type": "node", "id": 2458067901, "lat": 48.8467033, "lon": 2.2866888, "tags": {"amenity": "driving_school", "contact:city": "Paris", "contact:housenumber": "75", "contact:postcode": "75015", "contact:street": "Avenue \u00c9mile Zola", "name": "Centre d'\u00c9ducation Routi\u00e8re"}}, {"type": "node", "id": 2458086793, "lat": 48.8471256, "lon": 2.2857626, "tags": {"addr:city": "Paris", "amenity": "bank", "atm": "yes", "brand": "SG", "brand:wikidata": "Q270363", "brand:wikipedia": "en:Soci\u00e9t\u00e9 G\u00e9n\u00e9rale", "name": "Soci\u00e9t\u00e9 G\u00e9n\u00e9rale", "opening_hours": "Tu-Sa 09:00-13:00, Tu,We,Fr 14:00-17:45, Th 15:00-17:45"}}, {"type": "node", "id": 2458086795, "lat": 48.8471599, "lon": 2.2855769, "tags": {"amenity": "restaurant", "name": "Breizh Cafe"}}, {"type": "node", "id": 2458086796, "lat": 48.8470991, "lon": 2.2854664, "tags": {"amenity": "cafe", "bar": "yes", "check_date": "2025-12-02", "cuisine": "french", "name": "Lutetia", "name:fr": "Lutetia", "opening_hours": "Mo-Sa 07:00-24:00; Su 08:00-24:00", "outdoor_seating": "yes"}}, {"type": "node", "id": 2458125739, "lat": 48.8472846, "lon": 2.2844207, "tags": {"amenity": "police", "contact:city": "Paris", "contact:housenumber": "44", "contact:phone": "+33 1 45 71 14 60", "contact:postcode": "75015", "contact:street": "Rue Linois", "name": "Police nationale", "operator": "Police nationale", "operator:wikidata": "Q121484", "operator:wikipedia": "fr:Police nationale (France)", "police:FR": "police", "wheelchair": "yes"}}, {"type": "node", "id": 2458164239, "lat": 48.8467862, "lon": 2.2850085, "tags": {"amenity": "bank", "atm": "yes", "branch": "Paris Beaugrenelle", "brand": "CIC", "brand:wikidata": "Q746525", "brand:wikipedia": "en:Cr\u00e9dit Industriel et Commercial", "contact:city": "Paris", "contact:housenumber": "2", "contact:postcode": "75015", "contact:street": "Place Charles Michels", "name": "CIC", "opening_hours": "Mo,Tu,Fr 09:00-17:00; We 09:00-18:00; Th 10:00-17:00", "phone": "+33 1 53 35 44 27", "website": "https://www.cic.fr:443/fr/agences/30066/10651/00/000"}}, {"type": "node", "id": 2458280772, "lat": 48.8461887, "lon": 2.2852785, "tags": {"amenity": "restaurant", "check_date": "2025-04-12", "contact:city": "Paris", "contact:housenumber": "93", "contact:postcode": "75015", "contact:street": "Rue Saint-Charles", "cuisine": "japanese", "name": "Man Cha", "opening_hours": "Mo-Sa 10:30-19:00"}}, {"type": "node", "id": 2458325623, "lat": 48.8459685, "lon": 2.285089, "tags": {"amenity": "restaurant", "check_date": "2025-04-12", "contact:city": "Paris", "contact:housenumber": "99", "contact:postcode": "75015", "contact:street": "Rue Saint-Charles", "cuisine": "japanese", "diet:vegan": "yes", "diet:vegetarian": "yes", "name": "Kyoto", "opening_hours": "Mo-Sa 12:00-14:30,19:00-22:30"}}, {"type": "node", "id": 2458325628, "lat": 48.8459993, "lon": 2.2848366, "tags": {"amenity": "restaurant", "check_date": "2025-04-12", "check_date:opening_hours": "2022-10-09", "contact:city": "Paris", "contact:housenumber": "94", "contact:phone": "+33 1 45 74 37 11", "contact:postcode": "75015", "contact:street": "Rue Saint-Charles", "contact:website": "https://fivepizzaoriginal.com", "cuisine": "pizza", "name": "Five Pizza Original", "opening_hours": "Mo-Su 11:00-23:00"}}, {"type": "node", "id": 2503919622, "lat": 48.8508524, "lon": 2.2862677, "tags": {"amenity": "bench", "backrest": "yes", "check_date": "2021-07-20"}}, {"type": "node", "id": 2503919630, "lat": 48.8509024, "lon": 2.2860459, "tags": {"amenity": "bench", "backrest": "yes"}}, {"type": "node", "id": 2503919635, "lat": 48.8509782, "lon": 2.2859798, "tags": {"amenity": "bench", "backrest": "yes"}}, {"type": "node", "id": 2503919647, "lat": 48.851162, "lon": 2.2854079, "tags": {"amenity": "bench", "backrest": "yes"}}, {"type": "node", "id": 2503919650, "lat": 48.8511106, "lon": 2.2854371, "tags": {"amenity": "bench", "backrest": "yes"}}, {"type": "node", "id": 2503919696, "lat": 48.8510998, "lon": 2.2855013, "tags": {"amenity": "bench", "backrest": "yes"}}, {"type": "node", "id": 2503919713, "lat": 48.8511929, "lon": 2.2854137, "tags": {"amenity": "bench", "backrest": "yes"}}, {"type": "node", "id": 2503919722, "lat": 48.8512006, "lon": 2.2855026, "tags": {"amenity": "bench", "backrest": "yes"}}, {"type": "node", "id": 2503919740, "lat": 48.8512637, "lon": 2.2854523, "tags": {"amenity": "bench", "backrest": "yes"}}, {"type": "node", "id": 2504736994, "lat": 48.8517528, "lon": 2.286185}, {"type": "node", "id": 2504736995, "lat": 48.8519386, "lon": 2.2863928}, {"type": "node", "id": 2504736997, "lat": 48.8517615, "lon": 2.2855926}, {"type": "node", "id": 2504737004, "lat": 48.8520842, "lon": 2.2861199}, {"type": "node", "id": 2504767146, "lat": 48.8496887, "lon": 2.2858306}, {"type": "node", "id": 2520178618, "lat": 48.8517018, "lon": 2.2857139}, {"type": "node", "id": 2520178619, "lat": 48.851888, "lon": 2.2859442}, {"type": "node", "id": 2520178620, "lat": 48.8520856, "lon": 2.2859914}, {"type": "node", "id": 2523193260, "lat": 48.8501594, "lon": 2.2880501}, {"type": "node", "id": 2523193264, "lat": 48.850206, "lon": 2.2884395}, {"type": "node", "id": 2523193266, "lat": 48.8502075, "lon": 2.287925}, {"type": "node", "id": 2523193272, "lat": 48.8502935, "lon": 2.2877013}, {"type": "node", "id": 2523193275, "lat": 48.8503487, "lon": 2.2875577}, {"type": "node", "id": 2523193283, "lat": 48.850411, "lon": 2.2873954}, {"type": "node", "id": 2523193305, "lat": 48.8505785, "lon": 2.2873179}, {"type": "node", "id": 2523208865, "lat": 48.8504842, "lon": 2.2882927}, {"type": "node", "id": 2523208869, "lat": 48.8505464, "lon": 2.2881614}, {"type": "node", "id": 2523208870, "lat": 48.8505821, "lon": 2.2880859, "tags": {"barrier": "gate", "bicycle": "yes", "foot": "yes", "maxwidth": "2"}}, {"type": "node", "id": 2523241290, "lat": 48.8505653, "lon": 2.2881215}, {"type": "node", "id": 2523954104, "lat": 48.8478555, "lon": 2.2842101, "tags": {"addr:postcode": "75015", "amenity": "post_box", "collection_times": "Mo-Sa 09:00", "operator": "La Poste", "operator:wikidata": "Q373724", "ref": "A5Z4W7", "source": "data.gouv.fr:LaPoste - 06/2015"}}, {"type": "node", "id": 2523954111, "lat": 48.8487971, "lon": 2.2855992, "tags": {"amenity": "drinking_water", "check_date": "2022-07-03", "indoor": "no", "man_made": "water_tap"}}, {"type": "node", "id": 2526712513, "lat": 48.8477824, "lon": 2.2824011, "tags": {"amenity": "bicycle_parking", "bicycle_parking": "stands", "capacity": "10", "covered": "no", "supervised": "no"}}, {"type": "node", "id": 2529948979, "lat": 48.8459755, "lon": 2.2812741, "tags": {"amenity": "bicycle_parking", "bicycle_parking": "stands", "capacity": "8", "check_date:capacity": "2022-05-20", "covered": "no", "supervised": "no"}}, {"type": "node", "id": 2529948980, "lat": 48.8462971, "lon": 2.2851712, "tags": {"amenity": "bicycle_parking", "bicycle_parking": "stands", "capacity": "12", "covered": "no", "supervised": "no"}}, {"type": "node", "id": 2544806251, "lat": 48.8501938, "lon": 2.2852966, "tags": {"amenity": "pharmacy", "dispensing": "yes", "healthcare": "pharmacy", "name": "Pharmacie Michon", "ref:FR:FINESS": "750027021", "source": "cadastre-dgi-fr source : Direction G\u00e9n\u00e9rale des Imp\u00f4ts - Cadastre. Mise \u00e0 jour : 2013;Celtipharm - 10/2014"}}, {"type": "node", "id": 2545226420, "lat": 48.8519412, "lon": 2.288952, "tags": {"addr:housenumber": "24", "addr:street": "Rue du Docteur Finlay", "amenity": "restaurant", "contact:facebook": "www.facebook.com/labreuvoir75015", "cuisine": "brasserie", "diet:vegan": "yes", "diet:vegetarian": "yes", "indoor_seating": "yes", "name": "L'Abreuvoir", "opening_hours": "Mo-Fr 00:00-01:00,08:00-24:00; Sa,Su 00:00-01:00,09:00-24:00", "outdoor_seating": "yes", "phone": "+33 1 45 77 14 59", "toilets:wheelchair": "yes", "wheelchair": "yes"}}, {"type": "node", "id": 2556810308, "lat": 48.8514989, "lon": 2.2868747}, {"type": "node", "id": 2556810309, "lat": 48.8514997, "lon": 2.2869056}, {"type": "node", "id": 2556810312, "lat": 48.8515564, "lon": 2.2867759}, {"type": "node", "id": 2556810313, "lat": 48.8515779, "lon": 2.2867746}, {"type": "node", "id": 2556810314, "lat": 48.8516289, "lon": 2.2870671}, {"type": "node", "id": 2556810315, "lat": 48.8516303, "lon": 2.287097}, {"type": "node", "id": 2556810316, "lat": 48.8516412, "lon": 2.287115}, {"type": "node", "id": 2556810317, "lat": 48.8516532, "lon": 2.2871203}, {"type": "node", "id": 2556810318, "lat": 48.8516693, "lon": 2.2871101}, {"type": "node", "id": 2556810320, "lat": 48.8516861, "lon": 2.28702}, {"type": "node", "id": 2556810321, "lat": 48.8516815, "lon": 2.2869545}, {"type": "node", "id": 2556810322, "lat": 48.8516984, "lon": 2.2869224}, {"type": "node", "id": 2556810323, "lat": 48.8517046, "lon": 2.2869828}, {"type": "node", "id": 2556810324, "lat": 48.8517042, "lon": 2.2870433}, {"type": "node", "id": 2556810325, "lat": 48.8517058, "lon": 2.2871185}, {"type": "node", "id": 2556810326, "lat": 48.851708, "lon": 2.2871462}, {"type": "node", "id": 2556810327, "lat": 48.8517328, "lon": 2.2870278}, {"type": "node", "id": 2556810328, "lat": 48.8517337, "lon": 2.287066}, {"type": "node", "id": 2556810329, "lat": 48.8517488, "lon": 2.2870002}, {"type": "node", "id": 2556810331, "lat": 48.8517763, "lon": 2.2869504}, {"type": "node", "id": 2556810332, "lat": 48.8517988, "lon": 2.286947}, {"type": "node", "id": 2556810334, "lat": 48.8518165, "lon": 2.2869985}, {"type": "node", "id": 2556810335, "lat": 48.8518169, "lon": 2.2869713}, {"type": "node", "id": 2556810336, "lat": 48.8518226, "lon": 2.28692}, {"type": "node", "id": 2556810337, "lat": 48.8518463, "lon": 2.2873119}, {"type": "node", "id": 2556810338, "lat": 48.8518564, "lon": 2.2868551}, {"type": "node", "id": 2556810339, "lat": 48.8518639, "lon": 2.287308}, {"type": "node", "id": 2556810340, "lat": 48.8518631, "lon": 2.2869712}, {"type": "node", "id": 2556810342, "lat": 48.8518684, "lon": 2.2869629}, {"type": "node", "id": 2556810343, "lat": 48.8518712, "lon": 2.2868358}, {"type": "node", "id": 2556810346, "lat": 48.8519024, "lon": 2.2871071}, {"type": "node", "id": 2556810347, "lat": 48.8519034, "lon": 2.2870015}, {"type": "node", "id": 2556810348, "lat": 48.8519048, "lon": 2.2868353}, {"type": "node", "id": 2556810349, "lat": 48.851913, "lon": 2.2870887}, {"type": "node", "id": 2556810352, "lat": 48.8519306, "lon": 2.287143}, {"type": "node", "id": 2556810353, "lat": 48.851932, "lon": 2.2871793}, {"type": "node", "id": 2556810354, "lat": 48.8519348, "lon": 2.2869384}, {"type": "node", "id": 2556810358, "lat": 48.8519413, "lon": 2.2871256}, {"type": "node", "id": 2556810360, "lat": 48.8519464, "lon": 2.2868783}, {"type": "node", "id": 2556810363, "lat": 48.8519569, "lon": 2.2869299}, {"type": "node", "id": 2556810364, "lat": 48.8519571, "lon": 2.2867765}, {"type": "node", "id": 2556810365, "lat": 48.8519573, "lon": 2.2867974}, {"type": "node", "id": 2556810366, "lat": 48.851958, "lon": 2.2870188}, {"type": "node", "id": 2556810368, "lat": 48.8519622, "lon": 2.2868164}, {"type": "node", "id": 2556810369, "lat": 48.851966, "lon": 2.2870487}, {"type": "node", "id": 2556810370, "lat": 48.8519751, "lon": 2.2869768}, {"type": "node", "id": 2556810371, "lat": 48.8519774, "lon": 2.2870549}, {"type": "node", "id": 2556810372, "lat": 48.8519784, "lon": 2.2868343}, {"type": "node", "id": 2556810373, "lat": 48.8519799, "lon": 2.286876}, {"type": "node", "id": 2556810374, "lat": 48.8519802, "lon": 2.286729}, {"type": "node", "id": 2556810376, "lat": 48.8519944, "lon": 2.2869003}, {"type": "node", "id": 2556810377, "lat": 48.851996, "lon": 2.2870492}, {"type": "node", "id": 2556810378, "lat": 48.8519978, "lon": 2.2869602}, {"type": "node", "id": 2556810379, "lat": 48.8520004, "lon": 2.2866987}, {"type": "node", "id": 2556810380, "lat": 48.8520143, "lon": 2.2869218}, {"type": "node", "id": 2556810381, "lat": 48.8520212, "lon": 2.2869608}, {"type": "node", "id": 2556810382, "lat": 48.8520225, "lon": 2.2869907}, {"type": "node", "id": 2556810383, "lat": 48.8520244, "lon": 2.2867066}, {"type": "node", "id": 2556810384, "lat": 48.8520383, "lon": 2.2867336}, {"type": "node", "id": 2556810389, "lat": 48.8520395, "lon": 2.2869178}, {"type": "node", "id": 2556810390, "lat": 48.8520567, "lon": 2.2868949}, {"type": "node", "id": 2556810391, "lat": 48.8520694, "lon": 2.2867286}, {"type": "node", "id": 2556810392, "lat": 48.8520839, "lon": 2.2867402}, {"type": "node", "id": 2556810393, "lat": 48.8520918, "lon": 2.2867619}, {"type": "node", "id": 2556810394, "lat": 48.8520938, "lon": 2.2867909}, {"type": "node", "id": 2556810395, "lat": 48.8520946, "lon": 2.2868218}, {"type": "node", "id": 2556835925, "lat": 48.8516796, "lon": 2.2868702}, {"type": "node", "id": 2556966391, "lat": 48.8500551, "lon": 2.2863669, "tags": {"addr:housenumber": "36", "addr:postcode": "75015", "addr:street": "Rue Emeriau", "alt_name": "Biblioth\u00e8que Andr\u00e9e Chedid", "amenity": "library", "changing_table": "yes", "email": "bibliotheque.andree-chedid@paris.fr", "internet_access": "wlan", "internet_access:fee": "no", "internet_access:operator": "Mairie de Paris", "name": "Biblioth\u00e8que Andr\u00e9e Chedid", "old_name:1974-2012": "Biblioth\u00e8que Beaugrenelle", "opening_hours": "Tu,Th-Fr 12:00-19:00; We 10:00-19:00; Sa 10:00-18:00; PH off", "operator": "Mairie de Paris", "operator:type": "government", "operator:wikidata": "Q3278478", "phone": "+33 1 45 77 63 40", "source": "cadastre-dgi-fr source : Direction G\u00e9n\u00e9rale des Imp\u00f4ts - Cadastre. Mise \u00e0 jour : 2013", "toilets": "yes", "website": "https://www.paris.fr/lieux/bibliotheque-andree-chedid-1734", "wheelchair": "yes", "wikidata": "Q109848669", "wikimedia_commons": "File:Biblioth\u00e8que Andr\u00e9e Chedid, 36 Rue Emeriau, 75015 Paris.jpg"}}, {"type": "node", "id": 2558804431, "lat": 48.8482742, "lon": 2.2807711, "tags": {"addr:city": "Paris", "addr:housenumber": "13", "addr:postcode": "75015", "addr:street": "Quai Andr\u00e9 Citro\u00ebn", "amenity": "university", "name": "Le Cordon Bleu Paris", "opening_hours": "Mo-Fr 7:00-17:00; Sa 12:00-17:00", "phone": "+33185651500", "source": "cadastre-dgi-fr source : Direction G\u00e9n\u00e9rale des Imp\u00f4ts - Cadastre. Mise \u00e0 jour : 2013", "website": "https://cordonbleu.edu"}}, {"type": "node", "id": 2558804679, "lat": 48.8529501, "lon": 2.2867795, "tags": {"addr:housenumber": "27", "source": "cadastre-dgi-fr source : Direction G\u00e9n\u00e9rale des Imp\u00f4ts - Cadastre. Mise \u00e0 jour : 2013"}}, {"type": "node", "id": 2558804818, "lat": 48.8520256, "lon": 2.2859175, "tags": {"addr:housenumber": "37", "source": "cadastre-dgi-fr source : Direction G\u00e9n\u00e9rale des Imp\u00f4ts - Cadastre. Mise \u00e0 jour : 2013"}}, {"type": "node", "id": 2566345943, "lat": 48.8463773, "lon": 2.2818916, "tags": {"amenity": "parking_space", "capacity:disabled": "1", "parking_space": "disabled", "source": "pr\u00e9fecture de police de Paris - opendata nov 2013 - arr\u00eat\u00e9 2008-012", "wheelchair": "yes"}}, {"type": "node", "id": 2566345974, "lat": 48.847275, "lon": 2.284115, "tags": {"amenity": "parking_space", "capacity:disabled": "1", "fixme": "v\u00e9rifier la pr\u00e9sence de cette place", "note": "\u00e0 l'angle de la rue de Linois", "parking_space": "disabled", "source": "pr\u00e9fecture de police de Paris - opendata nov 2013 - arr\u00eat\u00e9 2008-012", "wheelchair": "yes"}}, {"type": "node", "id": 2566345994, "lat": 48.8477942, "lon": 2.283822, "tags": {"amenity": "parking_space", "capacity:disabled": "1", "parking_space": "disabled", "source": "pr\u00e9fecture de police de Paris - opendata nov 2013 - arr\u00eat\u00e9 2008-012", "wheelchair": "yes"}}, {"type": "node", "id": 2566346000, "lat": 48.8479779, "lon": 2.2819062, "tags": {"amenity": "parking_space", "capacity:disabled": "1", "parking_space": "disabled", "source": "pr\u00e9fecture de police de Paris - opendata nov 2013 - arr\u00eat\u00e9 2008-012", "wheelchair": "yes"}}, {"type": "node", "id": 2566346012, "lat": 48.8485006, "lon": 2.2849114, "tags": {"amenity": "parking_space", "capacity:disabled": "1", "parking_space": "disabled", "source": "pr\u00e9fecture de police de Paris - opendata nov 2013 - arr\u00eat\u00e9 2008-012", "wheelchair": "yes"}}, {"type": "node", "id": 2566346020, "lat": 48.8491313, "lon": 2.2842856, "tags": {"amenity": "parking_space", "capacity:disabled": "2", "parking_space": "disabled", "source": "pr\u00e9fecture de police de Paris - opendata nov 2013 - arr\u00eat\u00e9 2008-012", "wheelchair": "yes"}}, {"type": "node", "id": 2566346039, "lat": 48.8505583, "lon": 2.2853012, "tags": {"amenity": "parking_space", "capacity:disabled": "1", "parking_space": "disabled", "source": "pr\u00e9fecture de police de Paris - opendata nov 2013 - arr\u00eat\u00e9 2008-012", "wheelchair": "yes"}}, {"type": "node", "id": 2572197805, "lat": 48.8516139, "lon": 2.2870487}, {"type": "node", "id": 2572197852, "lat": 48.8516433, "lon": 2.2871144}, {"type": "node", "id": 2572197860, "lat": 48.8516472, "lon": 2.2871067, "tags": {"entrance": "main", "indoor": "yes", "level": "1", "room": "entrance"}}, {"type": "node", "id": 2572197874, "lat": 48.8516527, "lon": 2.2871254}, {"type": "node", "id": 2572197880, "lat": 48.8516566, "lon": 2.2870883}, {"type": "node", "id": 2572197886, "lat": 48.8516594, "lon": 2.2871095}, {"type": "node", "id": 2572197890, "lat": 48.851661, "lon": 2.2871152, "tags": {"entrance": "emergency", "level": "0", "room": "entrance"}}, {"type": "node", "id": 2572197891, "lat": 48.8516621, "lon": 2.2870774, "tags": {"entrance": "main", "indoor": "yes", "level": "1", "room": "entrance"}}, {"type": "node", "id": 2572197900, "lat": 48.851663, "lon": 2.2871378}, {"type": "node", "id": 2572197906, "lat": 48.8516657, "lon": 2.2870704}, {"type": "node", "id": 2572197909, "lat": 48.851666, "lon": 2.2870993}, {"type": "node", "id": 2572197913, "lat": 48.8516674, "lon": 2.2871294, "tags": {"entrance": "main", "indoor": "yes", "level": "1", "room": "entrance"}}, {"type": "node", "id": 2572197998, "lat": 48.8516733, "lon": 2.2870556, "tags": {"entrance": "main", "indoor": "yes", "level": "1", "room": "entrance"}}, {"type": "node", "id": 2572198008, "lat": 48.8516765, "lon": 2.2871118}, {"type": "node", "id": 2572198010, "lat": 48.8516774, "lon": 2.2870478}, {"type": "node", "id": 2572198019, "lat": 48.8516813, "lon": 2.2870653}, {"type": "node", "id": 2572198021, "lat": 48.8516802, "lon": 2.2871352}, {"type": "node", "id": 2572198024, "lat": 48.8516857, "lon": 2.2870941}, {"type": "node", "id": 2572198026, "lat": 48.8516866, "lon": 2.2869447}, {"type": "node", "id": 2572198030, "lat": 48.8516894, "lon": 2.2870118}, {"type": "node", "id": 2572198035, "lat": 48.8516946, "lon": 2.2870304, "tags": {"automatic_door": "infrared", "contact:housename": "Immeuble POLLUX", "contact:housenumber": "37", "contact:postcode": "75015", "contact:street": "Quai de Grenelle", "door": "automatic", "entrance": "main", "level": "0", "name": "ECE Paris - Campus Eiffel", "room": "entrance"}}, {"type": "node", "id": 2572198037, "lat": 48.8516965, "lon": 2.2870728}, {"type": "node", "id": 2572198039, "lat": 48.8516967, "lon": 2.2870729}, {"type": "node", "id": 2572198040, "lat": 48.8516973, "lon": 2.2869967, "tags": {"entrance": "service", "level": "1", "room": "entrance"}}, {"type": "node", "id": 2572198043, "lat": 48.8517044, "lon": 2.2869109}, {"type": "node", "id": 2572198045, "lat": 48.8516987, "lon": 2.2870235, "tags": {"entrance": "main", "indoor": "yes", "level": "1", "room": "entrance"}}, {"type": "node", "id": 2572198047, "lat": 48.8516995, "lon": 2.2870752, "tags": {"entrance": "main", "indoor": "yes", "level": "2", "room": "entrance"}}, {"type": "node", "id": 2572198053, "lat": 48.851701, "lon": 2.2871602}, {"type": "node", "id": 2572198056, "lat": 48.8517067, "lon": 2.2870849}, {"type": "node", "id": 2572198061, "lat": 48.8517099, "lon": 2.2869728}, {"type": "node", "id": 2572198067, "lat": 48.8517129, "lon": 2.2870414}, {"type": "node", "id": 2572198070, "lat": 48.8517186, "lon": 2.2871001, "tags": {"entrance": "main", "indoor": "yes", "level": "2", "room": "entrance"}}, {"type": "node", "id": 2572198075, "lat": 48.851727, "lon": 2.2871103}, {"type": "node", "id": 2572198082, "lat": 48.8517337, "lon": 2.287002}, {"type": "node", "id": 2572198263, "lat": 48.8518567, "lon": 2.2866121}, {"type": "node", "id": 2572198323, "lat": 48.8518669, "lon": 2.2866245, "tags": {"entrance": "yes", "indoor": "yes", "level": "2", "room": "entrance"}}, {"type": "node", "id": 2572198337, "lat": 48.8518736, "lon": 2.2865789}, {"type": "node", "id": 2572198342, "lat": 48.8518794, "lon": 2.2866395}, {"type": "node", "id": 2572198351, "lat": 48.8518872, "lon": 2.2865953, "tags": {"entrance": "yes", "indoor": "yes", "level": "2", "room": "entrance"}}, {"type": "node", "id": 2572198352, "lat": 48.8518872, "lon": 2.2865954, "tags": {"entrance": "yes", "indoor": "yes", "level": "1", "room": "entrance"}}, {"type": "node", "id": 2572198357, "lat": 48.851891, "lon": 2.2866172, "tags": {"entrance": "yes", "indoor": "yes", "level": "2", "room": "entrance"}}, {"type": "node", "id": 2572198358, "lat": 48.8518911, "lon": 2.286617, "tags": {"entrance": "yes", "indoor": "yes", "level": "1", "room": "entrance"}}, {"type": "node", "id": 2572198362, "lat": 48.8518965, "lon": 2.2866067}, {"type": "node", "id": 2572198366, "lat": 48.8518984, "lon": 2.2866625}, {"type": "node", "id": 2572198369, "lat": 48.8519025, "lon": 2.2866547}, {"type": "node", "id": 2572198378, "lat": 48.8519179, "lon": 2.2865659}, {"type": "node", "id": 2572198423, "lat": 48.8519369, "lon": 2.2865889}, {"type": "node", "id": 2572198448, "lat": 48.8519446, "lon": 2.2865743}, {"type": "node", "id": 2572198481, "lat": 48.8519575, "lon": 2.2865495}, {"type": "node", "id": 2595562680, "lat": 48.8466751, "lon": 2.2849129, "tags": {"amenity": "atm", "brand": "La Banque Postale", "brand:wikidata": "Q3206431", "check_date": "2024-04-21", "indoor": "no", "name": "La Banque Postale", "operator": "La Banque Postale", "operator:wikidata": "Q3206431", "source": "survey 2013"}}, {"type": "node", "id": 2595562681, "lat": 48.8466771, "lon": 2.2849539, "tags": {"amenity": "atm", "brand": "La Banque Postale", "brand:wikidata": "Q3206431", "check_date": "2024-05-11", "indoor": "no", "name": "La Banque Postale", "operator": "La Banque Postale", "operator:wikidata": "Q3206431", "source": "survey 2013"}}, {"type": "node", "id": 2595562682, "lat": 48.8467241, "lon": 2.2850507, "tags": {"amenity": "atm", "brand": "CIC", "brand:wikidata": "Q746525", "cash_in": "yes", "check_date": "2024-05-11", "indoor": "no", "name": "CIC", "operator": "CIC", "operator:wikidata": "Q746525", "source": "survey 2013"}}, {"type": "node", "id": 2641511924, "lat": 48.8471814, "lon": 2.2860876, "tags": {"amenity": "bicycle_parking", "bicycle_parking": "stands", "capacity": "16", "check_date:capacity": "2022-07-03", "covered": "no", "supervised": "no"}}, {"type": "node", "id": 2657766155, "lat": 48.8517185, "lon": 2.2870946}, {"type": "node", "id": 2657766156, "lat": 48.8517332, "lon": 2.2870468, "tags": {"automatic_door": "infrared", "door": "automatic", "entrance": "main", "indoor": "yes", "level": "0", "room": "entrance"}}, {"type": "node", "id": 2657766159, "lat": 48.8517444, "lon": 2.2870077}, {"type": "node", "id": 2657766168, "lat": 48.8517526, "lon": 2.2871995}, {"type": "node", "id": 2657766180, "lat": 48.8517734, "lon": 2.2871598}, {"type": "node", "id": 2657766187, "lat": 48.8517839, "lon": 2.2872376}, {"type": "node", "id": 2657766198, "lat": 48.8517919, "lon": 2.2871823, "tags": {"entrance": "yes", "indoor": "yes", "level": "0"}}, {"type": "node", "id": 2657766201, "lat": 48.8518024, "lon": 2.2872018}, {"type": "node", "id": 2657766204, "lat": 48.851805, "lon": 2.287205}, {"type": "node", "id": 2657766207, "lat": 48.8518072, "lon": 2.2872009}, {"type": "node", "id": 2657766208, "lat": 48.8518188, "lon": 2.2870009}, {"type": "node", "id": 2657766210, "lat": 48.8518292, "lon": 2.2872916}, {"type": "node", "id": 2657766216, "lat": 48.8518742, "lon": 2.2872886}, {"type": "node", "id": 2657766217, "lat": 48.8518736, "lon": 2.2870706}, {"type": "node", "id": 2689489608, "lat": 48.8462016, "lon": 2.2779088, "tags": {"amenity": "bench", "backrest": "yes"}}, {"type": "node", "id": 2689489609, "lat": 48.8462045, "lon": 2.2779667, "tags": {"amenity": "recycling", "check_date:recycling": "2023-11-17", "recycling:glass_bottles": "yes", "recycling_type": "container"}}, {"type": "node", "id": 2689489610, "lat": 48.8462742, "lon": 2.2777041, "tags": {"amenity": "bench", "backrest": "yes"}}, {"type": "node", "id": 2689489611, "lat": 48.8462959, "lon": 2.2779417, "tags": {"amenity": "bench", "backrest": "yes"}}, {"type": "node", "id": 2689489612, "lat": 48.846344, "lon": 2.2777014, "tags": {"amenity": "bench", "backrest": "yes"}}, {"type": "node", "id": 2689489613, "lat": 48.8463522, "lon": 2.2779328, "tags": {"amenity": "bench", "backrest": "yes"}}, {"type": "node", "id": 2689489614, "lat": 48.8463955, "lon": 2.2778097, "tags": {"amenity": "bench", "backrest": "yes"}}, {"type": "node", "id": 2697524475, "lat": 48.8457271, "lon": 2.2773879, "tags": {"addr:city": "Paris", "addr:housenumber": "7", "addr:postcode": "75015", "addr:street": "Pont Mirabeau", "amenity": "restaurant", "bar": "yes", "name": "L'Apollinaire", "opening_hours": "Mo-Sa 07:00-24:00", "outdoor_seating": "yes"}}, {"type": "node", "id": 2738225810, "lat": 48.85167, "lon": 2.2868884}, {"type": "node", "id": 2767142974, "lat": 48.8504891, "lon": 2.2885195}, {"type": "node", "id": 2767142977, "lat": 48.8509087, "lon": 2.2876324}, {"type": "node", "id": 2767142980, "lat": 48.8516628, "lon": 2.2887033}, {"type": "node", "id": 2767142982, "lat": 48.8517208, "lon": 2.2885026}, {"type": "node", "id": 2786456401, "lat": 48.8470454, "lon": 2.2823056, "tags": {"amenity": "school", "name": "Coll\u00e8ge Guillaume Apollinaire", "operator:type": "public", "ref:UAI": "0752190Y", "school:FR": "coll\u00e8ge", "source": "data.gouv.fr:Minist\u00e8re de l'\u00c9ducation nationale, de la Jeunesse et de la Vie associative - 05/2012"}}, {"type": "node", "id": 2786456411, "lat": 48.8470998, "lon": 2.2839749, "tags": {"amenity": "school", "name": "\u00c9COLE MAIGRET", "operator:type": "private", "ref:UAI": "0753911U", "school:FR": "secondaire", "source": "data.gouv.fr:Minist\u00e8re de l'\u00c9ducation nationale, de la Jeunesse et de la Vie associative - 05/2012"}}, {"type": "node", "id": 2786456416, "lat": 48.8468354, "lon": 2.2823961, "tags": {"amenity": "school", "name": "Section d'enseignement g\u00e9n\u00e9ral et professionnel adapt\u00e9 du Coll\u00e8ge Guillaume Apollinaire", "operator:type": "public", "ref:UAI": "0752191Z", "school:FR": "SEGPA", "source": "data.gouv.fr:Minist\u00e8re de l'\u00c9ducation nationale, de la Jeunesse et de la Vie associative - 05/2012"}}, {"type": "node", "id": 2786456553, "lat": 48.8468889, "lon": 2.2820204, "tags": {"amenity": "school", "name": "\u00c9cole Maternelle", "operator:type": "public", "ref:UAI": "0752333D", "school:FR": "maternelle", "source": "data.gouv.fr:Minist\u00e8re de l'\u00c9ducation nationale, de la Jeunesse et de la Vie associative - 05/2012"}}, {"type": "node", "id": 2786456558, "lat": 48.8516206, "lon": 2.2877625, "tags": {"amenity": "school", "name": "\u00c9cole Maternelle Emeriau", "operator:type": "public", "ref:UAI": "0752832W", "school:FR": "maternelle", "source": "data.gouv.fr:Minist\u00e8re de l'\u00c9ducation nationale, de la Jeunesse et de la Vie associative - 05/2012"}}, {"type": "node", "id": 2786456564, "lat": 48.8514547, "lon": 2.2875474, "tags": {"amenity": "school", "name": "\u00c9cole primaire Emeriau", "operator:type": "public", "ref:UAI": "0751203A", "school:FR": "primaire", "source": "data.gouv.fr:Minist\u00e8re de l'\u00c9ducation nationale, de la Jeunesse et de la Vie associative - 05/2012"}}, {"type": "node", "id": 2829373055, "lat": 48.8485573, "lon": 2.2811113, "tags": {"amenity": "bicycle_parking", "bicycle_parking": "wide_stands", "capacity": "26", "covered": "no", "supervised": "no"}}, {"type": "node", "id": 2829373056, "lat": 48.8487304, "lon": 2.2813632, "tags": {"amenity": "bicycle_parking", "bicycle_parking": "wide_stands", "capacity": "20", "covered": "no", "supervised": "no", "survey:date": "2017-07-25"}}, {"type": "node", "id": 2829373057, "lat": 48.8489679, "lon": 2.281692, "tags": {"amenity": "bicycle_parking", "bicycle_parking": "wide_stands", "capacity": "40", "covered": "no", "supervised": "no", "survey:date": "2017-07-25"}}, {"type": "node", "id": 2958647459, "lat": 48.8473631, "lon": 2.2860341, "tags": {"amenity": "restaurant", "contact:city": "Paris", "contact:housenumber": "16", "contact:postcode": "75015", "contact:street": "Rue Beaugrenelle", "cuisine": "french", "name": "Le Pareloup", "opening_hours": "Mo-Su 12:00-23:00"}}, {"type": "node", "id": 3211540617, "lat": 48.8467856, "lon": 2.2815796, "tags": {"amenity": "bicycle_parking", "bicycle_parking": "wide_stands", "capacity": "10", "covered": "no", "fee": "no", "supervised": "no"}}, {"type": "node", "id": 3394667994, "lat": 48.8519327, "lon": 2.2866969, "tags": {"amenity": "drinking_water", "indoor": "yes", "level": "1"}}, {"type": "node", "id": 3394667995, "lat": 48.8519384, "lon": 2.2867053, "tags": {"amenity": "vending_machine", "indoor": "yes", "level": "1", "payment:coins": "yes", "vending": "food"}}, {"type": "node", "id": 3394668093, "lat": 48.8519369, "lon": 2.2867035, "tags": {"amenity": "vending_machine", "indoor": "yes", "level": "2", "payment:coins": "yes", "vending": "food"}}, {"type": "node", "id": 3394668193, "lat": 48.8519433, "lon": 2.2867103, "tags": {"amenity": "vending_machine", "indoor": "yes", "level": "2", "payment:coins": "yes", "vending": "drinks"}}, {"type": "node", "id": 3394668293, "lat": 48.8519448, "lon": 2.2867121, "tags": {"amenity": "vending_machine", "indoor": "yes", "level": "1", "payment:coins": "yes", "vending": "drinks"}}, {"type": "node", "id": 3404744495, "lat": 48.8519422, "lon": 2.2865789}, {"type": "node", "id": 3404744496, "lat": 48.8519517, "lon": 2.2865608}, {"type": "node", "id": 3404744793, "lat": 48.8516449, "lon": 2.2871113}, {"type": "node", "id": 3404744896, "lat": 48.8516646, "lon": 2.2870726}, {"type": "node", "id": 3404744897, "lat": 48.8516647, "lon": 2.2871346}, {"type": "node", "id": 3404744899, "lat": 48.8516695, "lon": 2.2871253}, {"type": "node", "id": 3404744900, "lat": 48.8516711, "lon": 2.2870598}, {"type": "node", "id": 3404744906, "lat": 48.851916, "lon": 2.2866291}, {"type": "node", "id": 3404744907, "lat": 48.8519317, "lon": 2.2865989}, {"type": "node", "id": 3404744993, "lat": 48.8516496, "lon": 2.2871021}, {"type": "node", "id": 3404745000, "lat": 48.8518841, "lon": 2.2865917}, {"type": "node", "id": 3404745001, "lat": 48.8518887, "lon": 2.2866216}, {"type": "node", "id": 3404745002, "lat": 48.8518902, "lon": 2.286599}, {"type": "node", "id": 3404745005, "lat": 48.8519265, "lon": 2.286609}, {"type": "node", "id": 3404745193, "lat": 48.8516611, "lon": 2.2870792}, {"type": "node", "id": 3404745195, "lat": 48.851676, "lon": 2.2870505}, {"type": "node", "id": 3404745202, "lat": 48.8519209, "lon": 2.2866194}, {"type": "node", "id": 3404745205, "lat": 48.8519471, "lon": 2.2865697}, {"type": "node", "id": 3404745295, "lat": 48.8518708, "lon": 2.2866292}, {"type": "node", "id": 3593436896, "lat": 48.847959, "lon": 2.278795}, {"type": "node", "id": 3593436900, "lat": 48.848037, "lon": 2.27867}, {"type": "node", "id": 3593436910, "lat": 48.848135, "lon": 2.279041}, {"type": "node", "id": 3593436919, "lat": 48.848212, "lon": 2.278919}, {"type": "node", "id": 3611617287, "lat": 48.8475234, "lon": 2.2825602, "tags": {"access": "private", "amenity": "parking", "parking": "underground"}}, {"type": "node", "id": 3688311703, "lat": 48.8510388, "lon": 2.2882667, "tags": {"amenity": "college", "check_date": "2024-09-29", "name": "\u00c9cole Sup\u00e9rieure de Commerce Ext\u00e9rieur", "operator:type": "private", "ref:UAI": "0922631K", "short_name": "ESCE", "source": "data.gouv.fr:Office national d'information sur les enseignements et les professions - 11/2011", "toilets:wheelchair": "yes", "website": "https://www.esce.fr/", "wheelchair": "yes", "wikipedia": "fr:\u00c9cole sup\u00e9rieure du commerce ext\u00e9rieur"}}, {"type": "node", "id": 3695985998, "lat": 48.8492061, "lon": 2.2822149, "tags": {"amenity": "fast_food", "brand": "Chipotle", "brand:wikidata": "Q465751", "brand:wikipedia": "en:Chipotle Mexican Grill", "contact:city": "Paris", "contact:housenumber": "1", "contact:phone": "+33 1 45 78 17 49", "contact:postcode": "75015", "contact:street": "Rue Linois", "contact:website": "http://chipotle.fr/", "cuisine": "mexican", "delivery": "no", "drive_through": "no", "name": "Chipotle", "official_name": "Chipotle Mexican Grill", "opening_hours": "Mo-Th 11:00-22:00; Fr,Sa 11:00-23:30", "operator": "Chipotle Mexican Grill, Inc.", "smoking": "no", "takeaway": "yes"}}, {"type": "node", "id": 3699786748, "lat": 48.846148, "lon": 2.278533, "tags": {"amenity": "car_sharing", "capacity": "4", "network": "Europcar On Demand", "operator": "Ubeeqo", "operator:wikidata": "Q25391869", "wheelchair": "no"}}, {"type": "node", "id": 3699786749, "lat": 48.8465147, "lon": 2.2845167, "tags": {"amenity": "charging_station", "bicycle": "no", "capacity": "4", "fee": "yes", "motorcar": "yes", "name": "Paris | Avenue Emile Zola 65", "network": "Belib'", "opening_hours": "24/7", "operator": "TotalEnergies", "operator:email": "assistance.technique@tevgo.fr", "operator:phone": "+33 1 85 16 94 02", "owner": "TotalEnergies", "ref:EU:EVSE": "FR*V75*PPX15*07", "socket:type2": "4", "socket:typee": "4", "wheelchair": "no"}}, {"type": "node", "id": 3708095756, "lat": 48.8473024, "lon": 2.2859873, "tags": {"addr:housenumber": "80", "addr:street": "Rue Saint-Charles", "amenity": "restaurant", "check_date": "2025-08-03", "contact:city": "Paris", "contact:housenumber": "80", "contact:postcode": "75015", "contact:street": "Rue Saint-Charles", "cuisine": "pizza", "description": "Traiteur Italien (pizza \u00e0 emporter)", "name": "Da Enzo", "opening_hours": "Mo-Sa 10:30-21:00", "outdoor_seating": "yes", "payment:cash": "yes", "payment:credit_cards": "yes", "payment:debit_cards": "yes", "phone": "+33 1 45 75 70 00", "wheelchair": "no"}}, {"type": "node", "id": 3826356257, "lat": 48.8477753, "lon": 2.2836366, "tags": {"addr:city": "Paris", "addr:housenumber": "32", "addr:postcode": "75015", "addr:street": "Rue Linois", "amenity": "cafe", "brand": "Joe & The Juice", "brand:wikidata": "Q26221514", "contact:city": "Paris", "contact:postcode": "75015", "contact:street": "Rue Linois", "cuisine": "coffee_shop", "description": "Centre Commercial Beaugrenelle - Cellule 19", "indoor": "room", "name": "Joe & The Juice", "opening_hours": "Mo-Su 08:00-20:00", "phone": "+33 1 59 20 04 88", "takeaway": "yes", "website": "https://www.joejuice.com/store/1032"}}, {"type": "node", "id": 3898618609, "lat": 48.8485134, "lon": 2.2830375, "tags": {"amenity": "post_box", "collection_times": "Mo-Fr 09:00; Sa 09:00", "operator": "La Poste", "operator:wikidata": "Q373724", "ref": "A5R2Z7", "source": "survey", "source:ref": "data.gouv.fr:LaPoste - 06/2015"}}, {"type": "node", "id": 3902395923, "lat": 48.8501612, "lon": 2.2853693, "tags": {"amenity": "restaurant", "contact:city": "Paris", "contact:housenumber": "11", "contact:phone": "+33 1 45 77 69 69", "contact:postcode": "75015", "contact:street": "Rue du Th\u00e9\u00e2tre", "cuisine": "korean", "karaoke": "yes", "name": "Star King"}}, {"type": "node", "id": 3905019666, "lat": 48.8487622, "lon": 2.2829136, "tags": {"amenity": "fast_food", "brand": "Cojean", "brand:wikidata": "Q2981929", "cuisine": "salad;sandwich", "diet:vegan": "yes", "diet:vegetarian": "yes", "name": "Cojean", "opening_hours": "Mo-Su 10:00-21:00", "takeaway": "yes", "toilets:wheelchair": "yes", "wheelchair": "yes"}}, {"type": "node", "id": 3905019667, "lat": 48.8485402, "lon": 2.2819748, "tags": {"amenity": "parking_entrance", "fee": "yes", "maxheight": "2", "name": "Beaugrenelle - Magnetic", "parking": "underground", "wheelchair": "yes"}}, {"type": "node", "id": 3905019671, "lat": 48.8463178, "lon": 2.2805067, "tags": {"amenity": "waste_disposal"}}, {"type": "node", "id": 3905019672, "lat": 48.8463203, "lon": 2.2792657, "tags": {"amenity": "bicycle_parking", "bicycle_parking": "wide_stands", "capacity": "8", "covered": "no", "fee": "no", "supervised": "no", "surface": "asphalt"}}, {"type": "node", "id": 3905019674, "lat": 48.846367, "lon": 2.2804837, "tags": {"amenity": "bench", "backrest": "yes", "check_date": "2022-02-21", "material": "wood"}}, {"type": "node", "id": 3905019692, "lat": 48.8466498, "lon": 2.2783784, "tags": {"amenity": "motorcycle_parking", "covered": "no", "fee": "no", "parking": "surface", "supervised": "no", "surface": "asphalt"}}, {"type": "node", "id": 3905019713, "lat": 48.8471893, "lon": 2.2793406, "tags": {"amenity": "bicycle_parking", "bicycle_parking": "wide_stands", "capacity": "10", "covered": "no", "fee": "no", "supervised": "no", "surface": "asphalt", "survey:date": "2017-07-25"}}, {"type": "node", "id": 3905019723, "lat": 48.8487064, "lon": 2.2810462, "tags": {"amenity": "bench", "backrest": "no", "check_date": "2021-06-21", "material": "stone"}}, {"type": "node", "id": 3905019727, "lat": 48.8488017, "lon": 2.2831426, "tags": {"access": "no", "amenity": "motorcycle_parking", "covered": "yes", "supervised": "no"}}, {"type": "node", "id": 3905019732, "lat": 48.8489037, "lon": 2.2816021, "tags": {"amenity": "motorcycle_parking", "capacity": "6", "check_date": "2025-07-25", "check_date:capacity": "2025-07-25", "covered": "no", "fee": "no", "parking": "surface", "supervised": "no", "surface": "cobblestone"}}, {"type": "node", "id": 3905019751, "lat": 48.8494058, "lon": 2.2836258, "tags": {"amenity": "bench", "backrest": "no", "material": "wood"}}, {"type": "node", "id": 3905020259, "lat": 48.8499545, "lon": 2.2830023, "tags": {"amenity": "taxi"}}, {"type": "node", "id": 3905020260, "lat": 48.8499527, "lon": 2.2857379, "tags": {"amenity": "restaurant", "cuisine": "korean", "level": "0", "name": "Bulpan", "opening_hours": "12:00-14:00, 19:00-22:30", "outdoor_seating": "no", "smoking": "no", "toilets": "yes", "toilets:access": "customers", "toilets:disposal": "flush", "toilets:handwashing": "yes", "toilets:position": "seated", "toilets:wheelchair": "no"}}, {"type": "node", "id": 3905020262, "lat": 48.8500531, "lon": 2.2855627, "tags": {"amenity": "restaurant", "cuisine": "lebanese", "name": "Dandana"}}, {"type": "node", "id": 3905020268, "lat": 48.8501079, "lon": 2.285006, "tags": {"amenity": "bench", "backrest": "no", "material": "wood"}}, {"type": "node", "id": 3905020277, "lat": 48.8504248, "lon": 2.2853175, "tags": {"amenity": "pharmacy", "dispensing": "yes", "healthcare": "pharmacy", "name": "Pharmacie du front de seine", "opening_hours": "Mo-Fr 09:00-14:30,15:00-20:00; Sa 09:00-14:30,15:00-19:30", "wheelchair": "yes"}}, {"type": "node", "id": 3906583847, "lat": 48.8462417, "lon": 2.2776248, "tags": {"amenity": "toilets", "changing_table": "no", "drinking_water": "yes", "fee": "no", "operator": "JCDecaux", "operator:wikidata": "Q74877", "toilets:disposal": "flush", "toilets:position": "seated;urinal", "toilets:wheelchair": "yes", "unisex": "yes", "wheelchair": "yes"}}, {"type": "node", "id": 3906584173, "lat": 48.8496015, "lon": 2.2826528, "tags": {"amenity": "parking_entrance", "fee": "yes", "maxheight": "2", "name": "Beaugrenelle - Panoramic", "parking": "underground", "wheelchair": "yes"}}, {"type": "node", "id": 3906584202, "lat": 48.8524904, "lon": 2.2862109, "tags": {"amenity": "recycling", "recycling:glass_bottles": "yes", "recycling_type": "container", "ref": "D468"}}, {"type": "node", "id": 3906584207, "lat": 48.8525704, "lon": 2.2871975}, {"type": "node", "id": 3906584210, "lat": 48.8525938, "lon": 2.2872139}, {"type": "node", "id": 3906584212, "lat": 48.8526079, "lon": 2.2862908}, {"type": "node", "id": 3906584214, "lat": 48.85278, "lon": 2.2867007}, {"type": "node", "id": 3906584215, "lat": 48.8527867, "lon": 2.2866824}, {"type": "node", "id": 3906584216, "lat": 48.8528024, "lon": 2.2865745}, {"type": "node", "id": 3920295905, "lat": 48.8473252, "lon": 2.2792743, "tags": {"access": "yes", "amenity": "bicycle_parking", "bicycle_parking": "floor", "covered": "no", "fee": "no", "survey:date": "2017-07-25"}}, {"type": "node", "id": 3920295906, "lat": 48.8495232, "lon": 2.2827594, "tags": {"amenity": "restaurant", "contact:city": "Paris", "contact:housenumber": "61", "contact:phone": "+33 1 40 58 21 26", "contact:postcode": "75015", "contact:street": "Quai de Grenelle", "contact:website": "http://www.restaurant-benkay.com/", "cuisine": "japanese", "name": "Benkay"}}, {"type": "node", "id": 3920295917, "lat": 48.8519024, "lon": 2.2857019, "tags": {"amenity": "post_box", "check_date:collection_times": "2025-07-25", "collection_times": "Mo-Sa 09:00", "operator": "La Poste", "operator:wikidata": "Q373724", "ref": "A2D8Q8"}}, {"type": "node", "id": 3920295921, "lat": 48.8534314, "lon": 2.2864512, "tags": {"amenity": "bicycle_parking", "bicycle_parking": "stands", "capacity": "10", "covered": "no"}}, {"type": "node", "id": 3920304773, "lat": 48.8460903, "lon": 2.2791309, "tags": {"amenity": "restaurant", "contact:city": "Paris", "contact:email": "artgens82@gmail.com", "contact:housenumber": "14", "contact:phone": "+33145716346", "contact:postcode": "75015", "contact:street": "Avenue \u00c9mile Zola", "contact:website": "https://artgens.simplybook.it", "cuisine": "korean", "diet:vegetarian": "yes", "name": "Artgens", "opening_hours": "Mo-Sa 12:00-15:00", "outdoor_seating": "no"}}, {"type": "node", "id": 3920304774, "lat": 48.8460759, "lon": 2.2786183, "tags": {"amenity": "restaurant", "cuisine": "italian", "name": "La Pieta", "opening_hours": "Mo-Su 12:00-15:30,18:30-23:00", "outdoor_seating": "no"}}, {"type": "node", "id": 3920304776, "lat": 48.847135, "lon": 2.2790676, "tags": {"amenity": "bicycle_parking", "bicycle_parking": "wide_stands", "capacity": "10", "covered": "no", "fee": "no", "supervised": "no", "surface": "asphalt", "survey:date": "2017-07-04"}}, {"type": "node", "id": 3940026864, "lat": 48.8522541, "lon": 2.2869795, "tags": {"addr:postcode": "75015", "amenity": "post_office", "contact:housenumber": "37", "contact:street": "Quai de Beaugrenelle", "level": "-2", "name": "Agence Chronopost de Beaugrenelle", "opening_hours": "Mo-Fr 09:00-19:00; Sa 09:00-13:30", "operator": "La Poste", "operator:wikidata": "Q373724", "post_office": "post_partner", "ref:FR:LaPoste": "15645D", "source": "LaPoste - 03/2019", "wheelchair": "no"}}, {"type": "node", "id": 4129788795, "lat": 48.845814, "lon": 2.2778682, "tags": {"addr:postcode": "75015", "amenity": "restaurant", "cuisine": "japanese", "name": "Mizumi", "opening_hours": "Mo-Su 18:45-22:45, Mo-Fr 11:45-14:45", "website": "https://www.mizumi-sushi.com/"}}, {"type": "node", "id": 4136419294, "lat": 48.845863, "lon": 2.277745, "tags": {"amenity": "restaurant", "name": "Eat with joy"}}, {"type": "node", "id": 4245128172, "lat": 48.8476329, "lon": 2.2840075, "tags": {"amenity": "recycling", "check_date:recycling": "2025-07-25", "recycling:glass": "no", "recycling:glass_bottles": "yes", "recycling_type": "container", "source": "survey"}}, {"type": "node", "id": 4245128175, "lat": 48.8478307, "lon": 2.284196, "tags": {"amenity": "waste_basket", "check_date": "2022-06-17", "source": "survey"}}, {"type": "node", "id": 4295754006, "lat": 48.8464939, "lon": 2.2868334, "tags": {"amenity": "restaurant", "contact:website": "http://www.lerelaisdu15eme.com/", "cuisine": "persian", "name": "Le Relais du 15\u00e8me", "opening_hours": "Mo-Su 10:00-24:00"}}, {"type": "node", "id": 4362111791, "lat": 48.8491709, "lon": 2.2822785, "tags": {"addr:city": "Paris", "addr:housenumber": "12", "addr:postcode": "75015", "addr:street": "Rue Linois", "air_conditioning": "yes", "amenity": "cinema", "brand": "Path\u00e9 Gaumont", "brand:website": "https://www.pathe.fr/", "brand:wikidata": "Q3060526", "brand:wikipedia": "fr:Path\u00e9 Cin\u00e9mas", "check_date": "2025-07-25", "internet_access": "wlan", "level": "0,-1,-2", "name": "Path\u00e9 Beaugrenelle", "old_name": "Path\u00e9-Gaumont Beaugrenelle", "opening_hours": "Mo-Su 09:30-00:00", "payment:cash": "yes", "payment:credit_cards": "yes", "phone": "+33892696696", "ref:FR:CNC": "9700", "screen": "10", "website": "https://www.pathe.fr/cinemas/cinema-pathe-beaugrenelle", "wheelchair": "yes"}}, {"type": "node", "id": 4435237795, "lat": 48.8483777, "lon": 2.284513, "tags": {"amenity": "doctors", "contact:city": "Paris", "contact:email": "marc.dursent@medical75.apicrypt.org", "contact:housenumber": "64", "contact:phone": "+33 1 40 59 95 19", "contact:postcode": "75015", "contact:street": "Rue Emeriau", "healthcare": "doctor", "name": "Dr. Dursent Marc", "name:en": "Marc Dursent MD.", "opening_hours": "Mo-Fr 09:00-20:00"}}, {"type": "node", "id": 4456970900, "lat": 48.8464421, "lon": 2.2859384, "tags": {"amenity": "post_box", "collection_times": "Mo-Sa 09:00", "operator": "La Poste", "operator:wikidata": "Q373724", "ref": "A2D8I9", "source": "survey;data.gouv.fr:LaPoste - 10/2018"}}, {"type": "node", "id": 4535378092, "lat": 48.8462985, "lon": 2.2866983, "tags": {"amenity": "cafe", "contact:city": "Paris", "contact:housenumber": "39", "contact:postcode": "75015", "contact:street": "Rue des Entrepreneurs", "name": "Bar Bichette"}}, {"type": "node", "id": 4683632081, "lat": 48.8483846, "lon": 2.2824764, "tags": {"access": "yes", "amenity": "piano", "fixme": "position", "source": "http://parlonspiano.com/lieu-avec-piano/91/centre-beaugrenelle"}}, {"type": "node", "id": 4813738299, "lat": 48.8461451, "lon": 2.2865184, "tags": {"addr:city": "Paris", "addr:housenumber": "42", "addr:postcode": "75015", "addr:street": "Rue des Entrepreneurs", "amenity": "cafe", "check_date": "2025-10-01", "diet:vegetarian": "yes", "name": "Shekamou", "payment:cash": "yes", "payment:credit_cards": "yes", "payment:debit_cards": "yes", "terrace": "yes", "website": "https://www.benthaicuisine.com"}}, {"type": "node", "id": 4888935721, "lat": 48.8460859, "lon": 2.2827354, "tags": {"amenity": "restaurant", "indoor_seating": "yes", "name": "Troika Libanaise", "name:fr": "Troika Libanaise", "outdoor_seating": "yes"}}, {"type": "node", "id": 5210396081, "lat": 48.850132, "lon": 2.2869305, "tags": {"addr:full": "29 rue \u00c9meriau 75015 Paris", "amenity": "kindergarten", "capacity": "20", "email": "emeriau@fondationbellan.org", "max_age": "3", "min_age": "3 months", "name": "Halte d'\u00e9veil \u00c9meriau", "opening_hours": "Mo-Fr 08:00-19:00", "operator": "Fondation L\u00e9opold Bellan", "operator:wikidata": "Q37669450", "phone": "+33 1 45 77 86 37", "ref:FR:SIRET": "77567216500658"}}, {"type": "node", "id": 5220107911, "lat": 48.8460283, "lon": 2.2811904, "tags": {"amenity": "waste_basket", "check_date": "2024-04-27"}}, {"type": "node", "id": 5220107912, "lat": 48.8462616, "lon": 2.2815335, "tags": {"amenity": "waste_basket", "check_date": "2023-11-17"}}, {"type": "node", "id": 5220107913, "lat": 48.847478, "lon": 2.282457, "tags": {"amenity": "bicycle_parking", "bicycle_parking": "stands", "capacity": "5", "covered": "no"}}, {"type": "node", "id": 5220107914, "lat": 48.8486364, "lon": 2.282955, "tags": {"amenity": "waste_basket", "check_date": "2024-03-10"}}, {"type": "node", "id": 5220109422, "lat": 48.8464028, "lon": 2.281653, "tags": {"amenity": "waste_basket"}}, {"type": "node", "id": 5220109423, "lat": 48.8475746, "lon": 2.2825129, "tags": {"amenity": "bicycle_parking", "bicycle_parking": "stands", "capacity": "4", "covered": "no"}}, {"type": "node", "id": 5220109424, "lat": 48.8483512, "lon": 2.2829498, "tags": {"amenity": "waste_basket"}}, {"type": "node", "id": 5220109645, "lat": 48.8456759, "lon": 2.2806694, "tags": {"amenity": "waste_basket", "check_date": "2024-06-15"}}, {"type": "node", "id": 5220109646, "lat": 48.8462455, "lon": 2.2811231, "tags": {"amenity": "recycling", "check_date:recycling": "2024-03-04", "recycling:glass_bottles": "yes", "recycling_type": "container"}}, {"type": "node", "id": 5271155432, "lat": 48.8466562, "lon": 2.2846127, "tags": {"amenity": "post_box", "check_date:collection_times": "2024-03-10", "collection_times": "Mo-Fr 18:00; Sa 12:00", "operator": "La Poste", "operator:wikidata": "Q373724", "ref": "A5M7B1", "source": "survey 2019-01;data.gouv.fr:LaPoste - 10/2018"}}, {"type": "node", "id": 5370429236, "lat": 48.8475383, "lon": 2.2855264, "tags": {"amenity": "restaurant", "contact:city": "Paris", "contact:housenumber": "12", "contact:phone": "+33 1 45 71 68 36", "contact:postcode": "75015", "contact:street": "Rue Beaugrenelle", "cuisine": "korean", "name": "IDAM", "opening_hours": "Mo-Su 12:00-14:30, 19:00-22:30"}}, {"type": "node", "id": 5433364761, "lat": 48.8464078, "lon": 2.2804785, "tags": {"amenity": "bench", "backrest": "yes"}}, {"type": "node", "id": 5433364762, "lat": 48.8464447, "lon": 2.2793485, "tags": {"access": "private", "amenity": "parking", "layer": "0", "operator": "SemPariSeine", "parking": "underground", "surface": "asphalt"}}, {"type": "node", "id": 5527513537, "lat": 48.846317, "lon": 2.2859571, "tags": {"amenity": "doctors", "contact:city": "Paris", "contact:housenumber": "38 bis", "contact:postcode": "75015", "contact:street": "Rue des Entrepreneurs", "healthcare": "doctor", "healthcare:speciality": "psychiatry", "name": "Mme Wioletta de Charry"}}, {"type": "node", "id": 5628183210, "lat": 48.8464664, "lon": 2.2851021, "tags": {"amenity": "bicycle_parking", "bicycle_parking": "stands", "capacity": "6", "covered": "no", "fee": "no", "owner": "Mairie de Paris"}}, {"type": "node", "id": 5628185758, "lat": 48.8495404, "lon": 2.2863432, "tags": {"amenity": "bicycle_parking", "bicycle_parking": "stands", "capacity": "10", "check_date:capacity": "2025-07-25", "covered": "no", "fee": "no", "owner": "Mairie de Paris"}}, {"type": "node", "id": 5628186425, "lat": 48.8474383, "lon": 2.2833034, "tags": {"amenity": "bicycle_parking", "bicycle_parking": "stands", "capacity": "14", "covered": "no", "fee": "no", "owner": "Mairie de Paris"}}, {"type": "node", "id": 5688867401, "lat": 48.8462466, "lon": 2.2792677, "tags": {"access": "yes", "amenity": "bicycle_parking", "bicycle_parking": "wide_stands", "capacity": "4", "covered": "no", "fee": "no", "owner": "Mairie de Paris"}}, {"type": "node", "id": 5688867402, "lat": 48.8461674, "lon": 2.2791658, "tags": {"access": "yes", "amenity": "bicycle_parking", "bicycle_parking": "wide_stands", "capacity": "6", "covered": "no", "fee": "no", "owner": "Mairie de Paris"}}, {"type": "node", "id": 5688867403, "lat": 48.8468747, "lon": 2.2799159, "tags": {"access": "yes", "amenity": "bicycle_parking", "bicycle_parking": "wide_stands", "capacity": "2", "covered": "no", "fee": "no", "owner": "Mairie de Paris"}}, {"type": "node", "id": 5688867405, "lat": 48.8490207, "lon": 2.283426, "tags": {"access": "yes", "amenity": "bicycle_parking", "bicycle_parking": "wide_stands", "capacity": "10", "covered": "no", "fee": "no", "owner": "Mairie de Paris"}}, {"type": "node", "id": 5837930585, "lat": 48.848945, "lon": 2.2819389, "tags": {"amenity": "restaurant", "check_date:opening_hours": "2022-07-01", "contact:city": "Paris", "contact:housenumber": "2", "contact:phone": "+33 1 77 36 70 00", "contact:postcode": "75015", "contact:street": "Rue Linois", "contact:website": "http://www.restauranteclectic.fr", "name": "Eclectic", "opening_hours": "Mo-Su 08:00-24:00", "toilets": "yes", "toilets:access": "customers", "toilets:wheelchair": "no"}}, {"type": "node", "id": 5951993090, "lat": 48.849183, "lon": 2.281594, "tags": {"amenity": "drinking_water", "bottle": "yes", "fee": "no", "fountain": "bubbler", "wheelchair": "yes"}}, {"type": "node", "id": 6112865000, "lat": 48.8479105, "lon": 2.2793304, "tags": {"amenity": "ticket_validator", "barrier": "gate", "fee": "yes", "foot": "yes", "level": "0", "maxwidth:physical": "1", "wheelchair": "no"}}, {"type": "node", "id": 6188836411, "lat": 48.8466558, "lon": 2.2846005, "tags": {"amenity": "post_box", "check_date:collection_times": "2024-03-10", "collection_times": "Mo-Fr 18:00; Sa 12:00", "operator": "La Poste", "operator:wikidata": "Q373724", "ref": "A5M7A7", "source": "survey 2019-01;data.gouv.fr:LaPoste - 10/2018"}}, {"type": "node", "id": 6364423480, "lat": 48.84942, "lon": 2.2826241, "tags": {"amenity": "restaurant", "brand": "Indiana Caf\u00e9", "brand:wikidata": "Q109315295", "check_date": "2024-02-28", "contact:city": "Paris", "contact:phone": "+33 1 42 96 86 62", "contact:postcode": "75015", "contact:street": "Rue Linois", "contact:website": "http://www.indianacafe.fr/", "cuisine": "tex-mex", "name": "Indiana Caf\u00e9"}}, {"type": "node", "id": 6537024223, "lat": 48.8490008, "lon": 2.2866929, "tags": {"amenity": "restaurant", "contact:city": "Paris", "contact:housenumber": "45", "contact:postcode": "75015", "contact:street": "Rue H\u00e9ricart", "cuisine": "italian", "name": "La Dolce Vita", "outdoor_seating": "yes"}}, {"type": "node", "id": 6771776453, "lat": 48.8489756, "lon": 2.2860286, "tags": {"amenity": "recycling", "recycling:cans": "yes", "recycling:glass_bottles": "yes", "recycling:paper": "yes", "recycling_type": "container"}}, {"type": "node", "id": 6847156685, "lat": 48.8465027, "lon": 2.28309, "tags": {"amenity": "restaurant", "cuisine": "vietnamese", "name": "Kim Anh", "opening_hours": "Tu-Su 12:00-14:00,19:00-22:00", "source": "survey 2019"}}, {"type": "node", "id": 6895533885, "lat": 48.8510013, "lon": 2.28857, "tags": {"amenity": "post_box", "collection_times": "Mo-Sa 09:00", "ref": "A2D5H6"}}, {"type": "node", "id": 7064649457, "lat": 48.8483789, "lon": 2.2811671, "tags": {"amenity": "motorcycle_parking", "capacity": "12", "covered": "no", "fixme": "capacity \u00e0 v\u00e9rifier de visu (estim\u00e9 depuis BDOrtho)", "source": "survey"}}, {"type": "node", "id": 7078311692, "lat": 48.8476834, "lon": 2.2851701, "tags": {"amenity": "restaurant", "contact:city": "Paris", "contact:housenumber": "8", "contact:postcode": "75015", "contact:street": "Rue Beaugrenelle", "cuisine": "persian", "level": "0", "microbrewery": "no", "name": "Teheran", "outdoor_seating": "no", "self_service": "no", "smoking": "no", "toilets": "yes", "toilets:access": "customers", "toilets:wheelchair": "yes", "wheelchair": "no"}}, {"type": "node", "id": 7078311704, "lat": 48.8477273, "lon": 2.2850602, "tags": {"amenity": "restaurant", "level": "0", "microbrewery": "no", "name": "Fanous", "outdoor_seating": "no", "self_service": "no", "wheelchair": "no"}}, {"type": "node", "id": 7078311719, "lat": 48.8478376, "lon": 2.2852007, "tags": {"addr:housenumber": "7", "addr:street": "Rue Beaugrenelle", "amenity": "fast_food", "cuisine": "chinese", "name": "Gourmets Gourmands", "opening_hours": "Tu-Th 12:00-15:00, 18:30-23:00; Fr-Su 12:00-23:00; Mo 18:30-23:00", "outdoor_seating": "no", "takeaway": "yes"}}, {"type": "node", "id": 7095709297, "lat": 48.8483101, "lon": 2.2830212, "tags": {"amenity": "bicycle_parking", "bicycle_parking": "stands", "capacity": "28", "covered": "no"}}, {"type": "node", "id": 7101352987, "lat": 48.8480721, "lon": 2.2837011, "tags": {"amenity": "motorcycle_parking", "capacity": "8", "mapillary": "503097384169387", "source": "Ville de Paris - 02/2018", "survey:date": "2019-09-07"}}, {"type": "node", "id": 7351630489, "lat": 48.8493004, "lon": 2.2819242, "tags": {"amenity": "bicycle_rental", "bicycle_rental": "docking_station", "brand": "V\u00e9lib' M\u00e9tropole", "brand:wikidata": "Q1120762", "brand:wikipedia": "fr:V\u00e9lib' M\u00e9tropole", "capacity": "33", "name": "Place Fernand Forest", "network": "V\u00e9lib' M\u00e9tropole", "network:wikidata": "Q1120762", "network:wikipedia": "fr:V\u00e9lib' M\u00e9tropole", "operator": "Smovengo", "operator:type": "private", "operator:wikidata": "Q47008427", "operator:wikipedia": "fr:Smovengo", "ref": "15072", "source": "Autolib Velib M\u00e9tropole - 04/2019", "wikidata": "Q86252128"}}, {"type": "node", "id": 7351630490, "lat": 48.8463133, "lon": 2.2785549, "tags": {"amenity": "bicycle_rental", "bicycle_rental": "docking_station", "brand": "V\u00e9lib' M\u00e9tropole", "brand:wikidata": "Q1120762", "brand:wikipedia": "fr:V\u00e9lib' M\u00e9tropole", "capacity": "45", "name": "Javel - Andr\u00e9 Citro\u00ebn", "network": "V\u00e9lib' M\u00e9tropole", "network:wikidata": "Q1120762", "network:wikipedia": "fr:V\u00e9lib' M\u00e9tropole", "operator": "Smovengo", "operator:type": "private", "operator:wikidata": "Q47008427", "operator:wikipedia": "fr:Smovengo", "ref": "15064", "source": "Autolib Velib M\u00e9tropole - 04/2019", "wikidata": "Q86252300"}}, {"type": "node", "id": 7351681327, "lat": 48.8479871, "lon": 2.284359, "tags": {"amenity": "bicycle_rental", "bicycle_rental": "docking_station", "brand": "V\u00e9lib' M\u00e9tropole", "brand:wikidata": "Q1120762", "brand:wikipedia": "fr:V\u00e9lib' M\u00e9tropole", "capacity": "74", "name": "Emeriau - Beaugrenelle", "network": "V\u00e9lib' M\u00e9tropole", "network:wikidata": "Q1120762", "network:wikipedia": "fr:V\u00e9lib' M\u00e9tropole", "operator": "Smovengo", "operator:type": "private", "operator:wikidata": "Q47008427", "operator:wikipedia": "fr:Smovengo", "ref": "15030", "source": "Autolib Velib M\u00e9tropole - 04/2020", "wikidata": "Q86252185"}}, {"type": "node", "id": 7366622570, "lat": 48.8466014, "lon": 2.2845814, "tags": {"amenity": "bicycle_rental", "bicycle_rental": "docking_station", "brand": "V\u00e9lib' M\u00e9tropole", "brand:wikidata": "Q1120762", "brand:wikipedia": "fr:V\u00e9lib' M\u00e9tropole", "capacity": "37", "name": "Place Charles Michels", "network": "V\u00e9lib' M\u00e9tropole", "network:wikidata": "Q1120762", "network:wikipedia": "fr:V\u00e9lib' M\u00e9tropole", "note": "Localisation officielle ajust\u00e9e de 40m, et de l'autre c\u00f4t\u00e9 de la rue", "operator": "Smovengo", "operator:type": "private", "operator:wikidata": "Q47008427", "operator:wikipedia": "fr:Smovengo", "ref": "15127", "source": "Autolib Velib M\u00e9tropole - 04/2019", "wikidata": "Q86252105"}}, {"type": "node", "id": 7366622571, "lat": 48.8512016, "lon": 2.2846537, "tags": {"amenity": "bicycle_rental", "bicycle_rental": "docking_station", "brand": "V\u00e9lib' M\u00e9tropole", "brand:wikidata": "Q1120762", "brand:wikipedia": "fr:V\u00e9lib' M\u00e9tropole", "capacity": "24", "name": "Square Bela Bartok", "network": "V\u00e9lib' M\u00e9tropole", "network:wikidata": "Q1120762", "network:wikipedia": "fr:V\u00e9lib' M\u00e9tropole", "operator": "Smovengo", "operator:type": "private", "operator:wikidata": "Q47008427", "operator:wikipedia": "fr:Smovengo", "ref": "15102", "source": "Autolib Velib M\u00e9tropole - 04/2019", "wikidata": "Q86252193"}}, {"type": "node", "id": 7366622572, "lat": 48.8506703, "lon": 2.2872252, "tags": {"amenity": "bicycle_rental", "bicycle_rental": "docking_station", "brand": "V\u00e9lib' M\u00e9tropole", "brand:wikidata": "Q1120762", "brand:wikipedia": "fr:V\u00e9lib' M\u00e9tropole", "capacity": "51", "name": "Emeriau - Place de Brazzaville", "network": "V\u00e9lib' M\u00e9tropole", "network:wikidata": "Q1120762", "network:wikipedia": "fr:V\u00e9lib' M\u00e9tropole", "operator": "Smovengo", "operator:type": "private", "operator:wikidata": "Q47008427", "operator:wikipedia": "fr:Smovengo", "ref": "15029", "source": "Autolib Velib M\u00e9tropole - 04/2019", "wikidata": "Q86252173"}}, {"type": "node", "id": 7447221217, "lat": 48.8475601, "lon": 2.2793009, "tags": {"amenity": "bench", "backrest": "yes"}}, {"type": "node", "id": 7447221218, "lat": 48.8479218, "lon": 2.2797429, "tags": {"amenity": "bench", "backrest": "yes"}}, {"type": "node", "id": 7447221219, "lat": 48.8476617, "lon": 2.2794392, "tags": {"amenity": "waste_basket"}}, {"type": "node", "id": 7447221220, "lat": 48.8481142, "lon": 2.2802831, "tags": {"amenity": "bench", "backrest": "yes", "material": "wood"}}, {"type": "node", "id": 7447221221, "lat": 48.8480285, "lon": 2.2801619, "tags": {"amenity": "bench", "backrest": "yes", "material": "wood"}}, {"type": "node", "id": 7447221222, "lat": 48.8480124, "lon": 2.2801878, "tags": {"amenity": "waste_basket"}}, {"type": "node", "id": 7447221223, "lat": 48.8479552, "lon": 2.2800497, "tags": {"amenity": "bench", "backrest": "yes", "material": "wood"}}, {"type": "node", "id": 7447221224, "lat": 48.8479075, "lon": 2.2799738, "tags": {"amenity": "bench", "backrest": "yes", "material": "wood"}}, {"type": "node", "id": 7447221225, "lat": 48.8477208, "lon": 2.2797558, "tags": {"amenity": "bench", "backrest": "yes", "material": "wood"}}, {"type": "node", "id": 7447221226, "lat": 48.8475139, "lon": 2.2794874, "tags": {"amenity": "bench", "backrest": "yes", "material": "wood"}}, {"type": "node", "id": 7447221228, "lat": 48.8486262, "lon": 2.2809652, "tags": {"amenity": "bench", "backrest": "no", "material": "granite"}}, {"type": "node", "id": 7447221229, "lat": 48.8486431, "lon": 2.2809645, "tags": {"amenity": "bench", "backrest": "no", "material": "granite"}}, {"type": "node", "id": 7447221230, "lat": 48.8486083, "lon": 2.280789, "tags": {"amenity": "bench", "backrest": "yes", "material": "wood"}}, {"type": "node", "id": 7447221231, "lat": 48.8486218, "lon": 2.280804, "tags": {"amenity": "waste_basket"}}, {"type": "node", "id": 7447221232, "lat": 48.8484628, "lon": 2.28057, "tags": {"amenity": "bench", "backrest": "yes", "material": "wood"}}, {"type": "node", "id": 7447221233, "lat": 48.8483217, "lon": 2.2803596, "tags": {"amenity": "bench", "backrest": "yes", "material": "wood"}}, {"type": "node", "id": 7447221234, "lat": 48.848308, "lon": 2.2803397, "tags": {"amenity": "waste_basket"}}, {"type": "node", "id": 7447221235, "lat": 48.8483962, "lon": 2.2806782, "tags": {"amenity": "bench", "backrest": "no", "material": "granite"}}, {"type": "node", "id": 7447221236, "lat": 48.8483955, "lon": 2.2806345, "tags": {"amenity": "bench", "backrest": "no", "material": "granite"}}, {"type": "node", "id": 7447221237, "lat": 48.8483962, "lon": 2.280698, "tags": {"amenity": "waste_basket"}}, {"type": "node", "id": 7447221238, "lat": 48.8483302, "lon": 2.2806415, "tags": {"amenity": "bench", "backrest": "yes", "material": "wood"}}, {"type": "node", "id": 7447221239, "lat": 48.8482429, "lon": 2.2805155, "tags": {"amenity": "bench", "backrest": "yes", "material": "wood"}}, {"type": "node", "id": 7484776260, "lat": 48.8471533, "lon": 2.2837754, "tags": {"amenity": "bicycle_parking", "bicycle_parking": "wide_stands", "capacity": "30", "covered": "no", "source": "Ville de Paris - 02/2018"}}, {"type": "node", "id": 7484776261, "lat": 48.84791, "lon": 2.28362, "tags": {"amenity": "bicycle_parking", "bicycle_parking": "stands", "capacity": "34", "check_date:capacity": "2025-09-05", "covered": "no", "source": "Ville de Paris - 02/2018"}}, {"type": "node", "id": 7484776262, "lat": 48.8486382, "lon": 2.28252, "tags": {"amenity": "bicycle_parking", "bicycle_parking": "stands", "capacity": "10", "covered": "no", "source": "Ville de Paris - 02/2018"}}, {"type": "node", "id": 7484776263, "lat": 48.8501147, "lon": 2.2851366, "tags": {"amenity": "bicycle_parking", "bicycle_parking": "stands", "capacity": "18", "covered": "yes", "source": "Ville de Paris - 02/2018"}}, {"type": "node", "id": 7591423802, "lat": 48.8459902, "lon": 2.2798907, "tags": {"amenity": "motorcycle_parking", "bicycle": "yes", "bicycle_parking": "wide_stands", "capacity": "2", "covered": "no", "source": "Ville de Paris - 02/2018"}}, {"type": "node", "id": 7591423803, "lat": 48.8460972, "lon": 2.27968, "tags": {"amenity": "motorcycle_parking", "bicycle": "yes", "bicycle_parking": "wide_stands", "capacity": "14", "check_date:capacity": "2025-07-25", "covered": "no", "source": "Ville de Paris - 02/2018"}}, {"type": "node", "id": 7597522597, "lat": 48.8500241, "lon": 2.2866205, "tags": {"amenity": "motorcycle_parking", "bicycle": "yes", "bicycle_parking": "wide_stands", "capacity": "4", "covered": "no", "source": "Ville de Paris - 02/2018"}}, {"type": "node", "id": 8384550085, "lat": 48.8525392, "lon": 2.2874001, "tags": {"amenity": "bicycle_parking", "bicycle_parking": "floor", "capacity": "8", "covered": "no", "source": "Ville de Paris - 02/2018"}}, {"type": "node", "id": 8401636872, "lat": 48.8503559, "lon": 2.2869783, "tags": {"amenity": "bicycle_parking", "bicycle_parking": "floor", "capacity": "8", "covered": "no", "source": "Ville de Paris - 2021-02"}}, {"type": "node", "id": 8401636873, "lat": 48.8508099, "lon": 2.2876852, "tags": {"amenity": "bicycle_parking", "bicycle_parking": "stands", "capacity": "30", "covered": "no", "fee": "no", "owner": "Mairie de Paris"}}, {"type": "node", "id": 8611624314, "lat": 48.8474834, "lon": 2.2799094}, {"type": "node", "id": 8611624315, "lat": 48.8474537, "lon": 2.2799666}, {"type": "node", "id": 8611624316, "lat": 48.8474394, "lon": 2.2799487}, {"type": "node", "id": 8611633217, "lat": 48.847469, "lon": 2.2798921}, {"type": "node", "id": 8662378464, "lat": 48.8471524, "lon": 2.2806431}, {"type": "node", "id": 8662378465, "lat": 48.8468939, "lon": 2.2803332}, {"type": "node", "id": 8662378466, "lat": 48.8469802, "lon": 2.280167}, {"type": "node", "id": 8662378467, "lat": 48.8472387, "lon": 2.280477}, {"type": "node", "id": 8662378502, "lat": 48.8469381, "lon": 2.2803862, "tags": {"barrier": "gate", "bicycle": "no", "foot": "private", "horse": "no", "material": "metal", "motor_vehicle": "private"}}, {"type": "node", "id": 8668064325, "lat": 48.8490849, "lon": 2.2815808, "tags": {"access": "yes", "amenity": "bench", "backrest": "no", "material": "stone", "seats": "2"}}, {"type": "node", "id": 8668064326, "lat": 48.8490622, "lon": 2.2815989, "tags": {"access": "yes", "amenity": "bench", "backrest": "no", "material": "stone", "seats": "2"}}, {"type": "node", "id": 8668064327, "lat": 48.84904, "lon": 2.2816005, "tags": {"access": "yes", "amenity": "bench", "backrest": "no", "material": "stone", "seats": "2"}}, {"type": "node", "id": 8676409529, "lat": 48.8465723, "lon": 2.2799569}, {"type": "node", "id": 8676409530, "lat": 48.8465382, "lon": 2.280004}, {"type": "node", "id": 8676409531, "lat": 48.8465421, "lon": 2.2799966}, {"type": "node", "id": 8676409532, "lat": 48.846547, "lon": 2.2800026}, {"type": "node", "id": 8676409533, "lat": 48.8465588, "lon": 2.2799813}, {"type": "node", "id": 8676409534, "lat": 48.8464352, "lon": 2.2799822, "tags": {"access": "customers", "amenity": "compressed_air", "covered": "no", "lit": "yes"}}, {"type": "node", "id": 8680723816, "lat": 48.8492392, "lon": 2.2845336}, {"type": "node", "id": 8680783717, "lat": 48.8492277, "lon": 2.2845302}, {"type": "node", "id": 8680783718, "lat": 48.8492129, "lon": 2.2845285}, {"type": "node", "id": 8680783719, "lat": 48.8492021, "lon": 2.2845285}, {"type": "node", "id": 8684550549, "lat": 48.8464799, "lon": 2.2798827}, {"type": "node", "id": 8684550550, "lat": 48.8465409, "lon": 2.2799181}, {"type": "node", "id": 8684550553, "lat": 48.8465394, "lon": 2.2799162}, {"type": "node", "id": 8857477288, "lat": 48.8473663, "lon": 2.2835726, "tags": {"amenity": "bicycle_parking", "bicycle_parking": "wide_stands", "capacity": "12", "covered": "no"}}, {"type": "node", "id": 8898843622, "lat": 48.8486899, "lon": 2.2797022, "tags": {"amenity": "bar", "contact:city": "Paris 15eme Arrondissement", "contact:phone": "+33 1 45 75 39 13", "contact:postcode": "75015", "contact:street": "Port De Javel Haut", "email": "contact@quailiberte.fr", "name": "Quai Libert\u00e9", "opening_hours": "Mo-Su 09:00-23:30", "outdoor_seating": "yes", "website": "https://quailiberte.fr"}}, {"type": "node", "id": 8954925682, "lat": 48.8476479, "lon": 2.2794291, "tags": {"amenity": "bench", "backrest": "yes"}}, {"type": "node", "id": 9644265110, "lat": 48.8467016, "lon": 2.2867871, "tags": {"amenity": "restaurant", "contact:city": "Paris", "contact:email": "exotica.cesar15@gmail.com", "contact:housenumber": "75", "contact:phone": "+33 1 45 75 19 91", "contact:postcode": "75015", "contact:street": "Avenue \u00c9mile Zola", "cuisine": "lebanese", "diet:vegetarian": "yes", "name": "Exotica", "outdoor_seating": "yes", "takeaway": "yes", "wheelchair": "limited"}}, {"type": "node", "id": 9797062768, "lat": 48.8467392, "lon": 2.2861795, "tags": {"amenity": "atm", "brand": "LCL", "brand:wikidata": "Q779722", "cash_in": "no", "indoor": "no", "operator": "LCL", "operator:wikidata": "Q779722"}}, {"type": "node", "id": 9797062769, "lat": 48.8471137, "lon": 2.2857657, "tags": {"amenity": "atm", "brand": "SG", "brand:wikidata": "Q270363", "indoor": "no", "name": "SG", "operator": "SG", "operator:wikidata": "Q270363"}}, {"type": "node", "id": 9811892739, "lat": 48.8480913, "lon": 2.2788468, "tags": {"amenity": "restaurant", "cuisine": "french", "name": "La Plage Parisienne", "outdoor_seating": "yes", "website": "https://laplageparisienne.com/"}}, {"type": "node", "id": 9831343197, "lat": 48.8475331, "lon": 2.2840807}, {"type": "node", "id": 9831343198, "lat": 48.8473468, "lon": 2.2839385}, {"type": "node", "id": 9831343199, "lat": 48.8475678, "lon": 2.2840228}, {"type": "node", "id": 9831343200, "lat": 48.8473772, "lon": 2.28387}, {"type": "node", "id": 9831608885, "lat": 48.8479722, "lon": 2.2835218, "tags": {"amenity": "bench", "backrest": "no", "material": "stone"}}, {"type": "node", "id": 9831608889, "lat": 48.8484495, "lon": 2.2828151}, {"type": "node", "id": 9831608890, "lat": 48.8484074, "lon": 2.2828814}, {"type": "node", "id": 9831608891, "lat": 48.8485097, "lon": 2.2827245}, {"type": "node", "id": 9831608892, "lat": 48.8484676, "lon": 2.2827907}, {"type": "node", "id": 9863919781, "lat": 48.8476354, "lon": 2.2829099, "tags": {"access": "yes", "amenity": "motorcycle_parking", "capacity": "3", "covered": "no", "source": "survey"}}, {"type": "node", "id": 9863956502, "lat": 48.8465037, "lon": 2.2827193, "tags": {"amenity": "restaurant", "cuisine": "cambodian", "name": "La mousson"}}, {"type": "node", "id": 9863991918, "lat": 48.8457655, "lon": 2.2788951, "tags": {"amenity": "dentist", "contact:city": "Paris", "contact:housenumber": "6 bis", "contact:postcode": "75015", "contact:street": "Rue Auguste Vitu", "contact:website": "https://www.dental-in.fr", "healthcare": "dentist", "name": "dental in", "opening_hours": "Mo-Fr 09:00-19:00"}}, {"type": "node", "id": 9874619517, "lat": 48.8481014, "lon": 2.2840002, "tags": {"amenity": "piano", "musical_instrument": "piano"}}, {"type": "node", "id": 9878593862, "lat": 48.8455819, "lon": 2.2777694, "tags": {"addr:housenumber": "2", "addr:postcode": "75015", "addr:street": "Rue de la Convention", "amenity": "fast_food", "contact:city": "Paris", "contact:housenumber": "2", "contact:phone": "+33171272576", "contact:postcode": "75015", "contact:street": "Rue de la Convention", "contact:website": "https://www.pizzamirabeau.com/", "cuisine": "pizza", "diet:vegetarian": "yes", "drive_through": "no", "name": "Pizzeria Le Convention", "opening_hours": "Mo-Su 12:00-23:00"}}, {"type": "node", "id": 9958900545, "lat": 48.8454551, "lon": 2.2781848, "tags": {"amenity": "bench", "backrest": "yes", "material": "wood"}}, {"type": "node", "id": 9958900546, "lat": 48.8453737, "lon": 2.2783731, "tags": {"amenity": "waste_basket"}}, {"type": "node", "id": 10180629910, "lat": 48.846834, "lon": 2.2852918}, {"type": "node", "id": 10180629911, "lat": 48.8468313, "lon": 2.2852979}, {"type": "node", "id": 10180629912, "lat": 48.8468252, "lon": 2.2853083}, {"type": "node", "id": 10180629913, "lat": 48.8468147, "lon": 2.2853216}, {"type": "node", "id": 10180629914, "lat": 48.8468101, "lon": 2.2853288}, {"type": "node", "id": 10180629915, "lat": 48.8468092, "lon": 2.2853338}, {"type": "node", "id": 10180629916, "lat": 48.8468129, "lon": 2.2853413}, {"type": "node", "id": 10180630817, "lat": 48.8468183, "lon": 2.2853565}, {"type": "node", "id": 10180630818, "lat": 48.8468198, "lon": 2.2853608}, {"type": "node", "id": 10180630819, "lat": 48.8468217, "lon": 2.2853607}, {"type": "node", "id": 10180630820, "lat": 48.8468238, "lon": 2.2853581}, {"type": "node", "id": 10180630821, "lat": 48.846826, "lon": 2.2853526}, {"type": "node", "id": 10180630822, "lat": 48.846835, "lon": 2.2853386}, {"type": "node", "id": 10180630823, "lat": 48.8468432, "lon": 2.2853272}, {"type": "node", "id": 10180630824, "lat": 48.8468459, "lon": 2.2853221}, {"type": "node", "id": 10180630825, "lat": 48.8468469, "lon": 2.2853173}, {"type": "node", "id": 10180630826, "lat": 48.8468463, "lon": 2.2853125}, {"type": "node", "id": 10180630827, "lat": 48.8468434, "lon": 2.285305}, {"type": "node", "id": 10180630828, "lat": 48.8468389, "lon": 2.2852945}, {"type": "node", "id": 10180630829, "lat": 48.8468374, "lon": 2.28529}, {"type": "node", "id": 10180630830, "lat": 48.8468359, "lon": 2.2852889}, {"type": "node", "id": 10180630833, "lat": 48.8470027, "lon": 2.2859772}, {"type": "node", "id": 10180630834, "lat": 48.8470072, "lon": 2.2859797}, {"type": "node", "id": 10180630835, "lat": 48.8470153, "lon": 2.2859865}, {"type": "node", "id": 10180630836, "lat": 48.8470262, "lon": 2.2859988}, {"type": "node", "id": 10180630837, "lat": 48.8470319, "lon": 2.2860041}, {"type": "node", "id": 10180630838, "lat": 48.8470353, "lon": 2.2860042}, {"type": "node", "id": 10180630839, "lat": 48.8470393, "lon": 2.2859971}, {"type": "node", "id": 10180630840, "lat": 48.8470477, "lon": 2.2859856}, {"type": "node", "id": 10180630841, "lat": 48.8470501, "lon": 2.2859823}, {"type": "node", "id": 10180630842, "lat": 48.8470496, "lon": 2.2859795}, {"type": "node", "id": 10180630843, "lat": 48.8470475, "lon": 2.2859771}, {"type": "node", "id": 10180630844, "lat": 48.8470435, "lon": 2.285975}, {"type": "node", "id": 10180630845, "lat": 48.8470324, "lon": 2.285965}, {"type": "node", "id": 10180630846, "lat": 48.8470233, "lon": 2.2859555}, {"type": "node", "id": 10180630847, "lat": 48.8470194, "lon": 2.2859526}, {"type": "node", "id": 10180630848, "lat": 48.8470161, "lon": 2.2859522}, {"type": "node", "id": 10180630849, "lat": 48.8470131, "lon": 2.2859543}, {"type": "node", "id": 10180630850, "lat": 48.8470091, "lon": 2.2859603}, {"type": "node", "id": 10180630851, "lat": 48.8470033, "lon": 2.2859693}, {"type": "node", "id": 10180630852, "lat": 48.8470008, "lon": 2.2859726}, {"type": "node", "id": 10180630853, "lat": 48.8470004, "lon": 2.2859751}, {"type": "node", "id": 10180630867, "lat": 48.8463212, "lon": 2.286199}, {"type": "node", "id": 10180630868, "lat": 48.8463188, "lon": 2.2862052}, {"type": "node", "id": 10180630869, "lat": 48.8463129, "lon": 2.286216}, {"type": "node", "id": 10180630870, "lat": 48.8463029, "lon": 2.28623}, {"type": "node", "id": 10180630871, "lat": 48.8462984, "lon": 2.2862375}, {"type": "node", "id": 10180630872, "lat": 48.8462977, "lon": 2.2862425}, {"type": "node", "id": 10180630873, "lat": 48.8463015, "lon": 2.2862498}, {"type": "node", "id": 10180630874, "lat": 48.8463074, "lon": 2.2862646}, {"type": "node", "id": 10180630875, "lat": 48.846309, "lon": 2.2862688}, {"type": "node", "id": 10180630876, "lat": 48.8463109, "lon": 2.2862686}, {"type": "node", "id": 10180630877, "lat": 48.8463129, "lon": 2.2862659}, {"type": "node", "id": 10180630878, "lat": 48.846315, "lon": 2.2862602}, {"type": "node", "id": 10180630879, "lat": 48.8463235, "lon": 2.2862456}, {"type": "node", "id": 10180630880, "lat": 48.8463315, "lon": 2.2862337}, {"type": "node", "id": 10180630881, "lat": 48.846334, "lon": 2.2862285}, {"type": "node", "id": 10180630882, "lat": 48.8463349, "lon": 2.2862237}, {"type": "node", "id": 10180630883, "lat": 48.8463341, "lon": 2.2862188}, {"type": "node", "id": 10180630884, "lat": 48.846331, "lon": 2.2862116}, {"type": "node", "id": 10180630885, "lat": 48.8463263, "lon": 2.2862014}, {"type": "node", "id": 10180630886, "lat": 48.8463246, "lon": 2.286197}, {"type": "node", "id": 10180630887, "lat": 48.8463231, "lon": 2.286196}, {"type": "node", "id": 10180630890, "lat": 48.8463383, "lon": 2.2865493}, {"type": "node", "id": 10180630891, "lat": 48.8463394, "lon": 2.2865511}, {"type": "node", "id": 10180630892, "lat": 48.8463408, "lon": 2.2865506}, {"type": "node", "id": 10180630893, "lat": 48.8463478, "lon": 2.2865393}, {"type": "node", "id": 10180630894, "lat": 48.8463582, "lon": 2.2865224}, {"type": "node", "id": 10180630895, "lat": 48.8463595, "lon": 2.2865187}, {"type": "node", "id": 10180630896, "lat": 48.8463591, "lon": 2.2865147}, {"type": "node", "id": 10180630897, "lat": 48.8463539, "lon": 2.286501}, {"type": "node", "id": 10180630898, "lat": 48.8463528, "lon": 2.2865}, {"type": "node", "id": 10180630899, "lat": 48.8463515, "lon": 2.2865}, {"type": "node", "id": 10180630900, "lat": 48.8463498, "lon": 2.2865029}, {"type": "node", "id": 10180630901, "lat": 48.8463479, "lon": 2.2865075}, {"type": "node", "id": 10180630902, "lat": 48.8463415, "lon": 2.2865173}, {"type": "node", "id": 10180630903, "lat": 48.8463352, "lon": 2.2865255}, {"type": "node", "id": 10180630904, "lat": 48.846333, "lon": 2.2865295}, {"type": "node", "id": 10180630905, "lat": 48.8463327, "lon": 2.2865352}, {"type": "node", "id": 10180630906, "lat": 48.8463336, "lon": 2.2865394}, {"type": "node", "id": 10180630908, "lat": 48.8466267, "lon": 2.28589, "tags": {"amenity": "clock", "date": "no", "direction": "0;120;240", "display": "analog", "faces": "3", "support": "street_lamp"}}, {"type": "node", "id": 10293590251, "lat": 48.8528567, "lon": 2.2867303, "tags": {"amenity": "bicycle_parking", "bicycle_parking": "floor", "capacity": "11", "source": "Ville de Paris - 2022-12"}}, {"type": "node", "id": 10293590252, "lat": 48.8527447, "lon": 2.287304, "tags": {"amenity": "bicycle_parking", "bicycle_parking": "stands", "capacity": "12", "covered": "no", "source": "Ville de Paris - 2022-12"}}, {"type": "node", "id": 10293590253, "lat": 48.8518737, "lon": 2.2888385, "tags": {"amenity": "bicycle_parking", "bicycle_parking": "floor", "capacity": "5", "covered": "no", "source": "Ville de Paris - 2022-12"}}, {"type": "node", "id": 10293590254, "lat": 48.850796, "lon": 2.2854039, "tags": {"amenity": "bicycle_parking", "bicycle_parking": "stands", "capacity": "12", "covered": "no", "source": "Ville de Paris - 2022-12"}}, {"type": "node", "id": 10293590255, "lat": 48.8486952, "lon": 2.2849485, "tags": {"amenity": "bicycle_parking", "bicycle_parking": "floor", "capacity": "5", "source": "Ville de Paris - 2022-12"}}, {"type": "node", "id": 10293590256, "lat": 48.8474201, "lon": 2.2860215, "tags": {"amenity": "bicycle_parking", "bicycle_parking": "floor", "capacity": "5", "source": "Ville de Paris - 2022-12"}}, {"type": "node", "id": 10710838981, "lat": 48.8465306, "lon": 2.2831999, "tags": {"access": "yes", "amenity": "bicycle_parking", "bicycle_parking": "wide_stands", "capacity": "10", "covered": "no", "fee": "no"}}, {"type": "node", "id": 10710838982, "lat": 48.8464594, "lon": 2.2833966, "tags": {"access": "yes", "amenity": "bicycle_parking", "bicycle_parking": "wide_stands", "capacity": "8", "covered": "no", "fee": "no"}}, {"type": "node", "id": 10710838983, "lat": 48.8463554, "lon": 2.282885, "tags": {"access": "yes", "amenity": "bicycle_parking", "bicycle_parking": "wide_stands", "capacity": "6", "covered": "no", "fee": "no"}}, {"type": "node", "id": 10727896261, "lat": 48.8455781, "lon": 2.2824251, "tags": {"amenity": "waste_basket"}}, {"type": "node", "id": 10727896262, "lat": 48.8455216, "lon": 2.2825187, "tags": {"amenity": "waste_basket"}}, {"type": "node", "id": 10727896264, "lat": 48.8455864, "lon": 2.2824576, "tags": {"access": "yes", "amenity": "bicycle_parking", "bicycle_parking": "stands", "capacity": "10", "covered": "no", "fee": "no"}}, {"type": "node", "id": 10727896265, "lat": 48.8455479, "lon": 2.2825132, "tags": {"access": "yes", "amenity": "bicycle_parking", "bicycle_parking": "stands", "capacity": "10", "covered": "no", "fee": "no"}}, {"type": "node", "id": 10727909478, "lat": 48.8456456, "lon": 2.2823419, "tags": {"addr:city": "Paris", "addr:housenumber": "41/45", "addr:postcode": "75015", "addr:street": "Rue de Javel", "amenity": "kindergarten", "name": "La Ribambelle"}}, {"type": "node", "id": 10728246540, "lat": 48.8462355, "lon": 2.280586, "tags": {"access": "yes", "amenity": "bicycle_parking", "bicycle_parking": "stands", "capacity": "10", "covered": "no", "fee": "no"}}, {"type": "node", "id": 10755996554, "lat": 48.8505281, "lon": 2.2885256, "tags": {"barrier": "kerb", "kerb": "lowered", "tactile_paving": "no"}}, {"type": "node", "id": 10879041520, "lat": 48.8501306, "lon": 2.2884272, "tags": {"addr:housenumber": "22", "entrance": "yes", "source": "survey"}}, {"type": "node", "id": 10982782560, "lat": 48.8464932, "lon": 2.2858749, "tags": {"amenity": "waste_basket"}}, {"type": "node", "id": 10982782561, "lat": 48.8462368, "lon": 2.2862908, "tags": {"amenity": "atm", "brand": "SG", "brand:wikidata": "Q270363", "name": "SG", "operator": "SG", "operator:wikidata": "Q270363"}}, {"type": "node", "id": 10984951338, "lat": 48.8462301, "lon": 2.2868203, "tags": {"amenity": "fast_food", "name": "Resto L'Espoir"}}, {"type": "node", "id": 10984951341, "lat": 48.8464681, "lon": 2.2863303, "tags": {"amenity": "waste_basket"}}, {"type": "node", "id": 10984951342, "lat": 48.8466021, "lon": 2.2862954, "tags": {"amenity": "waste_basket"}}, {"type": "node", "id": 11033315700, "lat": 48.8468933, "lon": 2.2836986, "tags": {"addr:city": "Paris", "addr:housenumber": "11", "addr:postcode": "75015", "addr:street": "Rue des Quatre Fr\u00e8res Peignot", "amenity": "kindergarten", "name": "Jardin d'Enfants des quatre fr\u00e8res peignot", "phone": "+33145776816", "preschool": "no", "website": "https://www.paris.fr/lieux/jardin-d-enfants-des-quatre-freres-peignot-1830"}}, {"type": "node", "id": 11207215321, "lat": 48.8478303, "lon": 2.27918, "tags": {"amenity": "vending_machine", "level": "0", "network": "Transilien", "operator": "SNCF Voyageurs", "operator:wikidata": "Q93090957", "operator:wikipedia": "fr:SNCF Voyageurs", "vending": "public_transport_tickets", "wheelchair": "yes"}}, {"type": "node", "id": 11207215323, "lat": 48.847857, "lon": 2.2793012}, {"type": "node", "id": 11207215324, "lat": 48.8478864, "lon": 2.2792497}, {"type": "node", "id": 11207215325, "lat": 48.8478714, "lon": 2.2792759, "tags": {"amenity": "ticket_validator", "barrier": "gate", "bicycle": "yes", "fee": "yes", "foot": "yes", "level": "0", "maxwidth:physical": "1", "wheelchair": "yes"}}, {"type": "node", "id": 11207215326, "lat": 48.847896, "lon": 2.2793558}, {"type": "node", "id": 11207215327, "lat": 48.8479253, "lon": 2.2793044}, {"type": "node", "id": 11381128769, "lat": 48.8508582, "lon": 2.284764, "tags": {"addr:city": "Paris", "addr:housenumber": "51-53", "addr:postcode": "75015", "addr:street": "Quai de Grenelle", "amenity": "restaurant", "contact:city": "Paris 15eme Arrondissement", "contact:housenumber": "51", "contact:phone": "+33 1 87 44 69 14", "contact:postcode": "75015", "contact:street": "53 Quai De Grenelle", "diet:vegan": "yes", "diet:vegetarian": "only", "name": "Polichinelle", "opening_hours": "Mo-Fr 12:00-14:30, 19:30-22:30; Sa 11:30-15:00, 19:30-22:30; Su 11:30-15:00", "website": "http://polichinelle-restaurant.com/"}}, {"type": "node", "id": 11482903450, "lat": 48.8479949, "lon": 2.2842521, "tags": {"amenity": "bicycle_parking", "bicycle_parking": "stands", "capacity": "7", "covered": "no", "operator": "Monoprix"}}, {"type": "node", "id": 11559861700, "lat": 48.852115, "lon": 2.2886584}, {"type": "node", "id": 11559861701, "lat": 48.8521382, "lon": 2.2885922}, {"type": "node", "id": 11559861702, "lat": 48.8521223, "lon": 2.2885794}, {"type": "node", "id": 11559861703, "lat": 48.8520991, "lon": 2.2886457}, {"type": "node", "id": 11559861716, "lat": 48.8470601, "lon": 2.2836845}, {"type": "node", "id": 11559861717, "lat": 48.8470116, "lon": 2.2836467}, {"type": "node", "id": 11559861718, "lat": 48.8470033, "lon": 2.2836709}, {"type": "node", "id": 11559861719, "lat": 48.8470519, "lon": 2.2837087}, {"type": "node", "id": 11559897453, "lat": 48.8459584, "lon": 2.2799782}, {"type": "node", "id": 11559897454, "lat": 48.8459875, "lon": 2.2799207}, {"type": "node", "id": 11559897455, "lat": 48.8459733, "lon": 2.2799041}, {"type": "node", "id": 11559897456, "lat": 48.8459441, "lon": 2.2799616}, {"type": "node", "id": 11559901045, "lat": 48.850245, "lon": 2.2867602}, {"type": "node", "id": 11559901046, "lat": 48.850282, "lon": 2.2868002}, {"type": "node", "id": 11559901047, "lat": 48.8502924, "lon": 2.2867781}, {"type": "node", "id": 11559901048, "lat": 48.8502554, "lon": 2.2867381}, {"type": "node", "id": 11559903700, "lat": 48.8464585, "lon": 2.2836563}, {"type": "node", "id": 11559903701, "lat": 48.8464634, "lon": 2.2837512}, {"type": "node", "id": 11559903702, "lat": 48.8464813, "lon": 2.2837491}, {"type": "node", "id": 11559903703, "lat": 48.8464764, "lon": 2.2836542}, {"type": "node", "id": 11559916366, "lat": 48.8483158, "lon": 2.2807112}, {"type": "node", "id": 11559916367, "lat": 48.8483462, "lon": 2.2807549}, {"type": "node", "id": 11559916368, "lat": 48.8483586, "lon": 2.2807351}, {"type": "node", "id": 11559916604, "lat": 48.8472393, "lon": 2.2860323}, {"type": "node", "id": 11559916605, "lat": 48.847284, "lon": 2.2860711}, {"type": "node", "id": 11559916606, "lat": 48.847293, "lon": 2.2860474}, {"type": "node", "id": 11559916607, "lat": 48.8472482, "lon": 2.2860086}, {"type": "node", "id": 11559916633, "lat": 48.8497091, "lon": 2.2859867}, {"type": "node", "id": 11559916634, "lat": 48.8496958, "lon": 2.2860446}, {"type": "node", "id": 11559916635, "lat": 48.8497128, "lon": 2.2860536}, {"type": "node", "id": 11559916636, "lat": 48.8497261, "lon": 2.2859957}, {"type": "node", "id": 11559916641, "lat": 48.8463256, "lon": 2.2821038}, {"type": "node", "id": 11559916642, "lat": 48.8463214, "lon": 2.2820155}, {"type": "node", "id": 11559916643, "lat": 48.8463035, "lon": 2.2820174}, {"type": "node", "id": 11559916644, "lat": 48.8463077, "lon": 2.2821057}, {"type": "node", "id": 11559917171, "lat": 48.8502868, "lon": 2.2849692}, {"type": "node", "id": 11559917172, "lat": 48.8503131, "lon": 2.2850013}, {"type": "node", "id": 11559917173, "lat": 48.8503244, "lon": 2.2849801}, {"type": "node", "id": 11559917174, "lat": 48.850298, "lon": 2.284948}, {"type": "node", "id": 11559917669, "lat": 48.8459783, "lon": 2.2828299}, {"type": "node", "id": 11559917670, "lat": 48.8458944, "lon": 2.2827636}, {"type": "node", "id": 11559917671, "lat": 48.845886, "lon": 2.2827877}, {"type": "node", "id": 11559917672, "lat": 48.84597, "lon": 2.2828541}, {"type": "node", "id": 11559917769, "lat": 48.8483282, "lon": 2.2806914}, {"type": "node", "id": 11559917880, "lat": 48.8494176, "lon": 2.2860134}, {"type": "node", "id": 11559917881, "lat": 48.8493762, "lon": 2.2859687}, {"type": "node", "id": 11559917882, "lat": 48.8493657, "lon": 2.2859909}, {"type": "node", "id": 11559917883, "lat": 48.8494071, "lon": 2.2860356}, {"type": "node", "id": 11684342553, "lat": 48.8492198, "lon": 2.2858592, "tags": {"amenity": "bench", "backrest": "yes", "material": "wood"}}, {"type": "node", "id": 11711358263, "lat": 48.8465862, "lon": 2.2831244, "tags": {"amenity": "place_of_worship", "name": "\u00c9glise protestante \u00e9vang\u00e9lique", "religion": "christian", "wheelchair": "yes"}}, {"type": "node", "id": 11726995742, "lat": 48.8452796, "lon": 2.2783177, "tags": {"amenity": "fast_food", "cuisine": "sandwich;salad", "name": "Krush", "opening_hours": "Mo-Fr 10:00-15:30;Sa-Su 09:00-17:00"}}, {"type": "node", "id": 11878960090, "lat": 48.8463245, "lon": 2.2835439, "tags": {"amenity": "restaurant", "cuisine": "korean", "name": "Yido", "ref:FR:SIRET": "83459816100026"}}, {"type": "node", "id": 11949857724, "lat": 48.8465718, "lon": 2.2850569, "tags": {"amenity": "recycling", "recycling:glass_bottles": "yes", "recycling_type": "container"}}, {"type": "node", "id": 11967124480, "lat": 48.851576, "lon": 2.2852362, "tags": {"amenity": "bicycle_parking", "bicycle_parking": "floor", "capacity": "4", "covered": "no", "source": "Ville de Paris - 2024-05"}}, {"type": "node", "id": 11967124484, "lat": 48.84563, "lon": 2.2806011, "tags": {"amenity": "bicycle_parking", "bicycle_parking": "floor", "capacity": "4", "covered": "no", "source": "Ville de Paris - 2024-05"}}, {"type": "node", "id": 12141806152, "lat": 48.8463358, "lon": 2.2829023, "tags": {"amenity": "waste_basket"}}, {"type": "node", "id": 12141852103, "lat": 48.8463761, "lon": 2.2837128, "tags": {"amenity": "waste_basket"}}, {"type": "node", "id": 12141871064, "lat": 48.8464754, "lon": 2.2834037, "tags": {"amenity": "waste_basket"}}, {"type": "node", "id": 12141871065, "lat": 48.8465142, "lon": 2.2831629, "tags": {"amenity": "waste_basket"}}, {"type": "node", "id": 12213959133, "lat": 48.8516489, "lon": 2.2886784, "tags": {"amenity": "bench", "backrest": "yes", "material": "wood"}}, {"type": "node", "id": 12213975921, "lat": 48.8517287, "lon": 2.288901, "tags": {"addr:housenumber": "3", "addr:street": "Rue Sextius Michel", "amenity": "restaurant", "cuisine": "chinese", "indoor_seating": "yes", "name": "Siu Yu", "outdoor_seating": "yes", "ref:FR:SIRET": "48370538000010"}}, {"type": "node", "id": 12213975922, "lat": 48.8522007, "lon": 2.2887884, "tags": {"amenity": "bench", "backrest": "no", "material": "wood"}}, {"type": "node", "id": 12213975923, "lat": 48.8521729, "lon": 2.2889121, "tags": {"amenity": "bench", "backrest": "no", "material": "wood"}}, {"type": "node", "id": 12213977991, "lat": 48.851724, "lon": 2.2886706, "tags": {"amenity": "bench", "backrest": "yes", "material": "wood"}}, {"type": "node", "id": 12213986818, "lat": 48.8521597, "lon": 2.288838, "tags": {"amenity": "bench", "backrest": "yes", "material": "wood"}}, {"type": "node", "id": 12213987319, "lat": 48.8516722, "lon": 2.2885266, "tags": {"amenity": "bench", "backrest": "yes", "material": "wood"}}, {"type": "node", "id": 12213993044, "lat": 48.8520784, "lon": 2.2891335, "tags": {"amenity": "bench", "backrest": "yes", "material": "stone"}}, {"type": "node", "id": 12213999495, "lat": 48.8518609, "lon": 2.2885049, "tags": {"amenity": "waste_basket"}}, {"type": "node", "id": 12213999916, "lat": 48.8516837, "lon": 2.2886795, "tags": {"amenity": "waste_basket"}}, {"type": "node", "id": 12953956132, "lat": 48.8462052, "lon": 2.279879, "tags": {"amenity": "charging_station", "capacity": "3", "fee": "yes", "motorcar": "yes", "name": "Paris | Avenue Emile Zola 18", "network": "Belib'", "opening_hours": "24/7", "operator": "TotalEnergies", "operator:email": "assistance.technique@tevgo.fr", "operator:phone": "+33 1 85 16 94 02", "owner": "TotalEnergies", "ref:EU:EVSE": "FR*V75*P9015*01", "socket:chademo": "2", "socket:type2": "2", "socket:type2_combo": "2", "socket:type3": "2", "socket:typee": "3", "wheelchair": "no"}}, {"type": "node", "id": 12953956133, "lat": 48.8466734, "lon": 2.2841585, "tags": {"amenity": "kindergarten", "kindergarten:FR": "cr\u00e8che_collective", "operator": "Mairie de Paris", "operator:wikidata": "Q3278478"}}, {"type": "node", "id": 12995707830, "lat": 48.8482132, "lon": 2.2824057, "tags": {"amenity": "parcel_locker", "brand": "Vinted Go"}}, {"type": "node", "id": 13016358441, "lat": 48.8487476, "lon": 2.2821843, "tags": {"addr:street": "Rue Linois", "amenity": "fast_food", "building:floor": "0", "cuisine": "burger", "indoor": "room", "name": "Junk"}}, {"type": "node", "id": 13017079201, "lat": 48.8475364, "lon": 2.285982, "tags": {"addr:housenumber": "15", "addr:postcode": "75015", "addr:street": "Rue Beaugrenelle", "amenity": "restaurant", "cuisine": "thai", "name": "Chanthaboury", "opening_hours": "Mo-Sa 12:00-14:00, 19:00-22:30; Su 19:00-22:30", "phone": "+33 1 45 75 31 26"}}, {"type": "node", "id": 13017090105, "lat": 48.8478614, "lon": 2.2847126, "tags": {"addr:housenumber": "4", "addr:postcode": "75015", "addr:street": "Rue Beaugrenelle", "amenity": "restaurant", "cuisine": "thai", "name": "Lylee", "opening_hours": "Mo-We 12:00-15:00, 19:00-22:30; Th-Fr 12:00-15:00, 19:00-23:00; Sa 12:00-16:00"}}, {"type": "node", "id": 13033627558, "lat": 48.8454657, "lon": 2.2823602, "tags": {"amenity": "waste_basket"}}, {"type": "node", "id": 13033627559, "lat": 48.8461778, "lon": 2.2798211, "tags": {"amenity": "waste_basket"}}, {"type": "node", "id": 13033627560, "lat": 48.8460774, "lon": 2.279426, "tags": {"amenity": "motorcycle_parking", "capacity": "4"}}, {"type": "node", "id": 13062971932, "lat": 48.85115, "lon": 2.28546, "tags": {"amenity": "public_bookcase", "check_date": "2025-08-01", "description": "Le parc dans lequel se trouve cette boite est ferm\u00e9e pour travaux avec une r\u00e9ouverture programm\u00e9e en mars 2026.", "opening_hours": "24/7"}}, {"type": "node", "id": 13140627290, "lat": 48.8488442, "lon": 2.28528, "tags": {"access": "yes", "amenity": "bicycle_parking", "bicycle_parking": "stands", "capacity": "10", "covered": "no", "fee": "no"}}, {"type": "node", "id": 13140627291, "lat": 48.8486432, "lon": 2.2853524, "tags": {"access": "yes", "amenity": "bicycle_parking", "bicycle_parking": "wide_stands", "capacity": "10", "covered": "no", "fee": "no"}}, {"type": "node", "id": 13307982937, "lat": 48.8491966, "lon": 2.2824203, "tags": {"addr:floor": "1", "air_conditioning": "yes", "amenity": "fast_food", "brand": "Burger King", "brand:wikidata": "Q177054", "check_date": "2025-11-16", "cuisine": "burger", "level": "1", "name": "Burger King", "outdoor_seating": "yes", "payment:cash": "yes", "payment:credit_cards": "yes", "payment:debit_cards": "yes", "takeaway": "yes", "toilets": "yes"}}, {"type": "way", "id": 54033785, "nodes": [681276142, 681276099, 681276274, 681276180, 681275677, 681276081, 681276097, 684572977, 681276245, 681276236, 2558804679, 681275745, 681276142], "tags": {"addr:housenumber": "27", "addr:postcode": "75015", "addr:street": "Quai de Grenelle", "amenity": "restaurant", "building": "yes", "check_date:opening_hours": "2024-03-30", "contact:city": "Paris", "contact:housenumber": "27", "contact:postcode": "75015", "contact:street": "Quai de Grenelle", "cuisine": "japanese", "name": "Okito", "opening_hours": "Mo-Sa 12:00-14:30, 19:00-22:30", "opening_hours:signed": "no", "ref:FR:SIRET": "81825828700015", "source": "cadastre-dgi-fr source : Direction G\u00e9n\u00e9rale des Imp\u00f4ts - Cadastre;mise \u00e0 jour : 2010", "website": "https://birhakeim.okito.fr/"}}, {"type": "way", "id": 115878693, "nodes": [1307926149, 1307926630, 1307927539, 1307926348, 1307926149], "tags": {"addr:housenumber": "11", "addr:street": "Rue Gaston de Caillavet", "amenity": "place_of_worship", "architect": "Lonel Schein", "building": "church", "layer": "3", "name": "MJLF", "religion": "jewish", "wikidata": "Q23905268"}}, {"type": "way", "id": 115878697, "nodes": [1307927334, 1307927582, 2504767146, 1307926539, 1307927332, 1307926059, 1307926243, 1307926953, 1307926089, 1307926849, 1307926967, 1307927354, 1307927334], "tags": {"amenity": "college", "building": "yes", "building:levels": "5", "layer": "3", "name": "\u00c9cole sup\u00e9rieure des professions immobili\u00e8res", "operator:type": "private", "ref:UAI": "0752230S", "short_name": "ESPI", "source": "opendataparis"}}, {"type": "way", "id": 230099563, "nodes": [2386245895, 2386276085, 2386276083, 2386276081, 2386245895], "tags": {"amenity": "shelter", "level": "-1", "shelter_type": "public_transport"}}, {"type": "way", "id": 230099564, "nodes": [2386276091, 2386276092, 2386276087, 2386276086, 2386276091], "tags": {"amenity": "shelter", "level": "-1", "shelter_type": "public_transport"}}, {"type": "way", "id": 243030905, "nodes": [2504736994, 2504736995, 2504737004, 2520178620, 2558804818, 2504736997, 2520178618, 2520178619, 2504736994], "tags": {"addr:housename": "Immeuble CASTOR", "addr:street": "Quai de Grenelle", "alt_name": "Institut Fran\u00e7ais de Gestion", "amenity": "college", "building": "yes", "building:level:-1": "IFG - Labs - ECE", "building:level:0": "IFG", "building:level:1": "IFG", "layer": "4", "name": "IFG - Campus Eiffel", "website": "http://www.groupe-ifg.fr/"}}, {"type": "way", "id": 244741481, "nodes": [681275721, 681276195, 681275739, 681276065, 681276165, 681276115, 681275820, 681275785, 633221669, 681276267, 681276038, 681275721], "tags": {"access": "private", "amenity": "parking", "parking": "surface"}}, {"type": "way", "id": 247586847, "nodes": [681275718, 681276199, 681275719, 681276035, 681276076, 681275759, 681276150, 681275720, 681275718], "tags": {"access": "private", "amenity": "parking", "parking": "surface", "source": "cadastre-dgi-fr source : Direction G\u00e9n\u00e9rale des Imp\u00f4ts - Cadastre. Mise \u00e0 jour : 2013"}}, {"type": "way", "id": 248975425, "nodes": [2556810347, 2556810342, 2556810340, 2556810336, 2556810338, 2556810343, 2556810348, 2556810360, 2556810363, 2556810354, 2556810347], "tags": {"building": "yes", "building:levels": "1", "buildingpart": "room", "layer": "2", "level": "0", "source": "cadastre-dgi-fr source : Direction G\u00e9n\u00e9rale des Imp\u00f4ts - Cadastre. Mise \u00e0 jour : 2013"}}, {"type": "way", "id": 248975426, "nodes": [2556810309, 2572197805, 2556810314, 2556810315, 2556810316, 2556810317, 2572197890, 2556810318, 2556810324, 2572198035, 2556810320, 2556810323, 2556810321, 2572198026, 2556810322, 2572198043, 1928784710, 2556835925, 2738225810, 2556810313, 2556810312, 2556810308, 2556810309], "tags": {"building": "yes", "building:levels": "1", "layer": "3", "level": "0", "source": "cadastre-dgi-fr source : Direction G\u00e9n\u00e9rale des Imp\u00f4ts - Cadastre. Mise \u00e0 jour : 2013"}}, {"type": "way", "id": 248975428, "nodes": [2556810326, 2657766168, 2657766187, 2657766210, 2556810337, 2556810339, 2657766216, 2556810353, 2556810352, 2556810358, 2556810349, 2556810346, 2657766217, 2657766208, 2556810334, 2556810335, 2556810332, 2556810331, 2556810329, 2657766159, 2556810327, 2657766156, 2556810328, 2657766155, 2556810325, 2556810326], "tags": {"building": "yes", "building:levels": "1", "layer": "2", "level": "0", "source": "cadastre-dgi-fr source : Direction G\u00e9n\u00e9rale des Imp\u00f4ts - Cadastre. Mise \u00e0 jour : 2013"}}, {"type": "way", "id": 248975429, "nodes": [2556810372, 2556810373, 2556810376, 2556810380, 2556810389, 2556810390, 2556810395, 2556810394, 2556810393, 2556810392, 2556810391, 2556810384, 2556810383, 2556810379, 2556810374, 2556810364, 2556810365, 2556810368, 2556810372], "tags": {"building": "yes", "building:levels": "1", "buildingpart": "room", "layer": "2", "level": "0", "source": "cadastre-dgi-fr source : Direction G\u00e9n\u00e9rale des Imp\u00f4ts - Cadastre. Mise \u00e0 jour : 2013"}}, {"type": "way", "id": 248975431, "nodes": [2556810382, 2556810381, 2556810378, 2556810370, 2556810366, 2556810369, 2556810371, 2556810377, 2556810382], "tags": {"building": "yes", "building:levels": "1", "buildingpart": "room", "layer": "2", "level": "0", "source": "cadastre-dgi-fr source : Direction G\u00e9n\u00e9rale des Imp\u00f4ts - Cadastre. Mise \u00e0 jour : 2013"}}, {"type": "way", "id": 249732316, "nodes": [2523193283, 682388065, 343794507, 343794506, 2523193305, 340238080, 343794504, 343794502, 2523208870, 2523241290, 2523208869, 2523208865, 343794516, 343794514, 343794513, 2523193264, 10879041520, 343794511, 343794509, 2523193260, 2523193266, 2523193272, 2523193275, 2523193283], "tags": {"amenity": "school", "name": "\u00c9cole primaire", "operator:type": "public", "ref:UAI": "0750989T", "school:FR": "primaire", "source": "cadastre-dgi-fr source : Direction G\u00e9n\u00e9rale des Imp\u00f4ts - Cadastre ; mise \u00e0 jour : 2007;data.gouv.fr:Minist\u00e8re de l'\u00c9ducation nationale, de la Jeunesse et de la Vie associative - 05/2012"}}, {"type": "way", "id": 250866742, "nodes": [2572197880, 2572197909, 2572197874, 2572197852, 3404744793, 2572197860, 3404744993, 2572197880], "tags": {"access": "private", "amenity": "toilets", "female": "yes", "indoor": "room", "level": "1", "male": "no", "room": "toilet"}}, {"type": "way", "id": 250866744, "nodes": [2572198024, 2572198039, 2572198010, 3404745195, 2572197998, 3404744900, 2572197906, 2572198024], "tags": {"amenity": "toilets", "female": "yes", "indoor": "room", "level": "1", "male": "no", "room": "toilet"}}, {"type": "way", "id": 250866747, "nodes": [2572198056, 2572198070, 2572198075, 2572198053, 2572198021, 2572198056], "tags": {"amenity": "toilets", "female": "yes", "indoor": "room", "level": "2", "room": "toilet"}}, {"type": "way", "id": 250866750, "nodes": [2572197909, 2572197874, 2572197900, 3404744897, 2572197913, 3404744899, 2572198008, 2572197909], "tags": {"access": "private", "amenity": "toilets", "female": "no", "indoor": "room", "level": "1", "male": "yes", "room": "toilet"}}, {"type": "way", "id": 250866760, "nodes": [2572198021, 2572198056, 2572198047, 2572198037, 2572198019, 2572197886, 2572198021], "tags": {"amenity": "toilets", "indoor": "room", "level": "2", "male": "yes", "room": "toilet"}}, {"type": "way", "id": 250866762, "nodes": [2572197880, 2572197909, 2572198008, 2572198024, 2572197906, 3404744896, 2572197891, 3404745193, 2572197880], "tags": {"amenity": "toilets", "female": "no", "indoor": "room", "level": "1", "male": "yes", "room": "toilet"}}, {"type": "way", "id": 250866769, "nodes": [2572198378, 2572198362, 2572198357, 3404745001, 2572198342, 2572198366, 2572198369, 3404744906, 3404745202, 3404745005, 3404744907, 2572198423, 2572198378], "tags": {"amenity": "toilets", "female": "yes", "indoor": "room", "level": "2", "room": "toilet"}}, {"type": "way", "id": 250866771, "nodes": [2572198030, 2572198040, 2572198061, 2572198082, 2572198067, 2572198045, 2572198030], "tags": {"amenity": "reception_desk", "fax": "+33 1 42 22 59 02", "indoor": "room", "level": "1", "phone": "+33 1 44 39 06 00", "ref": "P302", "room": "reception"}}, {"type": "way", "id": 250866775, "nodes": [2572198337, 2572198351, 2572198362, 2572198357, 3404745001, 2572198342, 3404745295, 2572198323, 2572198263, 2572198337], "tags": {"amenity": "toilets", "indoor": "room", "level": "2", "room": "toilet"}}, {"type": "way", "id": 250866776, "nodes": [2572198378, 2572198362, 2572198358, 3404745001, 2572198342, 2572198366, 2572198369, 3404744906, 3404745202, 3404745005, 3404744907, 2572198423, 2572198378], "tags": {"amenity": "toilets", "female": "yes", "indoor": "room", "level": "1", "room": "toilet"}}, {"type": "way", "id": 250866789, "nodes": [2572198362, 2572198351, 2572198337, 1928784713, 2572198481, 3404744496, 3404745205, 2572198448, 3404744495, 2572198423, 2572198378, 2572198362], "tags": {"amenity": "toilets", "indoor": "room", "level": "2", "male": "yes", "room": "toilet"}}, {"type": "way", "id": 250866791, "nodes": [2572198362, 3404745002, 2572198352, 3404745000, 2572198337, 1928784713, 2572198481, 3404744496, 3404745205, 2572198448, 3404744495, 2572198423, 2572198378, 2572198362], "tags": {"amenity": "toilets", "indoor": "room", "level": "1", "male": "yes", "room": "toilet"}}, {"type": "way", "id": 260305609, "nodes": [2657766180, 2657766168, 2657766187, 2657766201, 2657766204, 2657766207, 2657766198, 2657766180], "tags": {"amenity": "toilets", "buildingpart": "room", "indoor": "yes", "level": "0", "room": "toilet"}}, {"type": "way", "id": 271773181, "nodes": [2767142977, 2767142974, 10755996554, 2767142980, 2767142982, 2767142977], "tags": {"amenity": "college", "check_date": "2025-07-25", "name": "Campus Eiffel - ECE / ESCE / EBS / IT Paris Eiffel", "toilets:wheelchair": "yes", "wheelchair": "yes"}}, {"type": "way", "id": 353535633, "nodes": [3593436900, 3593436896, 3593436910, 3593436919, 3593436900], "tags": {"amenity": "restaurant", "building": "yes", "name": "La Plage Parisienne"}}, {"type": "way", "id": 387361020, "nodes": [633221664, 3906584212, 3906584216, 3906584215, 3906584214, 3906584210, 3906584207, 633221666, 681275830, 633221664], "tags": {"access": "customers", "amenity": "parking", "fee": "no", "parking": "surface"}}, {"type": "way", "id": 928361313, "nodes": [8611624314, 8611624315, 8611624316, 8611633217, 8611624314], "tags": {"amenity": "dog_toilet", "layer": "2", "level": "2", "location": "rooftop", "surface": "sand"}}, {"type": "way", "id": 934717360, "nodes": [8662378464, 8662378502, 8662378465, 8662378466, 8662378467, 8662378464], "tags": {"access": "private", "amenity": "parking", "capacity": "26", "contact:city": "Paris", "contact:housenumber": "13 bis", "contact:postcode": "75015", "contact:street": "Rue de Javel", "covered": "yes", "name": "Parking Harmonie", "operator": "SemPariSeine", "operator:type": "public", "park_ride": "no", "parking": "carports", "surface": "asphalt"}}, {"type": "way", "id": 936351714, "nodes": [675558699, 8684550549, 675558872, 8684550553, 8684550550, 8676409529, 8676409533, 8676409532, 8676409531, 8676409530, 675558699], "tags": {"amenity": "car_wash", "automated": "yes", "building": "yes", "building:levels": "1", "name": "La cool douche", "survey_date": "2017-07-26"}}, {"type": "way", "id": 936863789, "nodes": [8680723816, 8680783717, 8680783718, 8680783719], "tags": {"access": "customers", "amenity": "bench", "backrest": "yes", "lit": "no", "material": "concrete", "seats": "6"}}, {"type": "way", "id": 1071312721, "nodes": [9831343197, 9831343198], "tags": {"amenity": "bench", "backrest": "no", "material": "concrete"}}, {"type": "way", "id": 1071312722, "nodes": [9831343199, 9831343200], "tags": {"amenity": "bench", "backrest": "no", "material": "concrete"}}, {"type": "way", "id": 1071348225, "nodes": [9831608889, 9831608890], "tags": {"amenity": "bench", "backrest": "no", "material": "stone"}}, {"type": "way", "id": 1071348226, "nodes": [9831608891, 9831608892], "tags": {"amenity": "bench", "backrest": "no", "material": "stone"}}, {"type": "way", "id": 1112695138, "nodes": [10180629910, 10180629911, 10180629912, 10180629913, 10180629914, 10180629915, 10180629916, 10180630817, 10180630818, 10180630819, 10180630820, 10180630821, 10180630822, 10180630823, 10180630824, 10180630825, 10180630826, 10180630827, 10180630828, 10180630829, 10180630830, 10180629910], "tags": {"amenity": "shelter", "building": "yes", "building:colour": "tan", "shelter_type": "public_transport"}}, {"type": "way", "id": 1112695139, "nodes": [10180630833, 10180630834, 10180630835, 10180630836, 10180630837, 10180630838, 10180630839, 10180630840, 10180630841, 10180630842, 10180630843, 10180630844, 10180630845, 10180630846, 10180630847, 10180630848, 10180630849, 10180630850, 10180630851, 10180630852, 10180630853, 10180630833], "tags": {"amenity": "shelter", "building": "yes", "shelter_type": "public_transport"}}, {"type": "way", "id": 1112695141, "nodes": [10180630867, 10180630868, 10180630869, 10180630870, 10180630871, 10180630872, 10180630873, 10180630874, 10180630875, 10180630876, 10180630877, 10180630878, 10180630879, 10180630880, 10180630881, 10180630882, 10180630883, 10180630884, 10180630885, 10180630886, 10180630887, 10180630867], "tags": {"amenity": "shelter", "building": "yes", "roof:material": "grass", "shelter_type": "public_transport"}}, {"type": "way", "id": 1112695142, "nodes": [10180630890, 10180630891, 10180630892, 10180630893, 10180630894, 10180630895, 10180630896, 10180630897, 10180630898, 10180630899, 10180630900, 10180630901, 10180630902, 10180630903, 10180630904, 10180630905, 10180630906, 10180630890], "tags": {"amenity": "shelter", "building": "yes", "shelter_type": "public_transport"}}, {"type": "way", "id": 1209682191, "nodes": [11207215324, 11207215325, 11207215323], "tags": {"amenity": "ticket_validator", "barrier": "gate", "fee": "yes", "level": "0"}}, {"type": "way", "id": 1209682192, "nodes": [11207215327, 6112865000, 11207215326], "tags": {"amenity": "ticket_validator", "barrier": "gate", "fee": "yes", "level": "0"}}, {"type": "way", "id": 1243716748, "nodes": [11559916607, 11559916606, 11559916605, 11559916604, 11559916607], "tags": {"amenity": "parking_space", "capacity": "1", "orientation": "parallel", "parking_space": "disabled", "parking_space:length": "5.7", "parking_space:width": "2.0", "source": "opendata.paris.fr 2024-01", "survey:date": "2020-08-31", "wheelchair": "yes"}}, {"type": "way", "id": 1243716862, "nodes": [11559897456, 11559897455, 11559897454, 11559897453, 11559897456], "tags": {"amenity": "parking_space", "capacity": "1", "orientation": "parallel", "parking_space": "disabled", "parking_space:length": "5.3", "parking_space:width": "2.0", "source": "opendata.paris.fr 2024-01", "survey:date": "2020-08-31", "wheelchair": "yes"}}, {"type": "way", "id": 1243716986, "nodes": [11559917174, 11559917173, 11559917172, 11559917171, 11559917174], "tags": {"amenity": "parking_space", "capacity": "1", "orientation": "parallel", "parking_space": "disabled", "parking_space:length": "3.7", "parking_space:width": "2.0", "source": "opendata.paris.fr 2024-01", "survey:date": "2020-08-31", "wheelchair": "yes"}}, {"type": "way", "id": 1243717021, "nodes": [11559861703, 11559861702, 11559861701, 11559861700, 11559861703], "tags": {"amenity": "parking_space", "capacity": "1", "orientation": "parallel", "parking_space": "disabled", "parking_space:length": "5.4", "parking_space:width": "2.0", "source": "opendata.paris.fr 2024-01", "survey:date": "2020-08-31", "wheelchair": "yes"}}, {"type": "way", "id": 1243717025, "nodes": [11559861719, 11559861718, 11559861717, 11559861716, 11559861719], "tags": {"amenity": "parking_space", "capacity": "1", "orientation": "parallel", "parking_space": "disabled", "parking_space:length": "6.0", "parking_space:width": "2.0", "source": "opendata.paris.fr 2024-01", "survey:date": "2020-08-31", "wheelchair": "yes"}}, {"type": "way", "id": 1243717047, "nodes": [11559901048, 11559901047, 11559901046, 11559901045, 11559901048], "tags": {"amenity": "parking_space", "capacity": "1", "orientation": "parallel", "parking_space": "disabled", "parking_space:length": "5.0", "parking_space:width": "2.0", "source": "opendata.paris.fr 2024-01", "survey:date": "2020-08-05", "wheelchair": "yes"}}, {"type": "way", "id": 1243717075, "nodes": [11559903703, 11559903702, 11559903701, 11559903700, 11559903703], "tags": {"amenity": "parking_space", "capacity": "1", "orientation": "parallel", "parking_space": "disabled", "parking_space:length": "6.9", "parking_space:width": "2.0", "source": "opendata.paris.fr 2024-01", "survey:date": "2020-08-31", "wheelchair": "yes"}}, {"type": "way", "id": 1243717095, "nodes": [11559916636, 11559916635, 11559916634, 11559916633, 11559916636], "tags": {"amenity": "parking_space", "capacity": "1", "orientation": "parallel", "parking_space": "disabled", "parking_space:length": "4.4", "parking_space:width": "2.0", "source": "opendata.paris.fr 2024-01", "survey:date": "2020-08-31", "wheelchair": "yes"}}, {"type": "way", "id": 1243717097, "nodes": [11559916644, 11559916643, 11559916642, 11559916641, 11559916644], "tags": {"amenity": "parking_space", "capacity": "1", "orientation": "parallel", "parking_space": "disabled", "parking_space:length": "6.4", "parking_space:width": "2.0", "source": "opendata.paris.fr 2024-01", "survey:date": "2020-08-31", "wheelchair": "yes"}}, {"type": "way", "id": 1243717104, "nodes": [11559917672, 11559917671, 11559917670, 11559917669, 11559917672], "tags": {"amenity": "parking_space", "capacity": "2", "orientation": "parallel", "parking_space": "disabled", "parking_space:length": "10.5", "parking_space:width": "2.0", "source": "opendata.paris.fr 2024-01", "survey:date": "2020-08-31", "wheelchair": "yes"}}, {"type": "way", "id": 1243717136, "nodes": [11559917769, 11559916368, 11559916367, 11559916366, 11559917769], "tags": {"amenity": "parking_space", "capacity": "1", "orientation": "parallel", "parking_space": "disabled", "parking_space:length": "4.6", "parking_space:width": "2.0", "source": "opendata.paris.fr 2024-01", "survey:date": "2021-07-26", "wheelchair": "yes"}}, {"type": "way", "id": 1243717148, "nodes": [11559917883, 11559917882, 11559917881, 11559917880, 11559917883], "tags": {"amenity": "parking_space", "capacity": "1", "orientation": "parallel", "parking_space": "disabled", "parking_space:length": "5.6", "parking_space:width": "2.0", "source": "opendata.paris.fr 2024-01", "survey:date": "2021-08-08", "wheelchair": "yes"}}, {"type": "relation", "id": 3368293, "members": [{"type": "node", "ref": 2657766156, "role": "entrance"}, {"type": "node", "ref": 2572198035, "role": "entrance"}, {"type": "relation", "ref": 3368292, "role": "level_3"}, {"type": "relation", "ref": 3368291, "role": "level_2"}, {"type": "relation", "ref": 3368290, "role": "level_1"}, {"type": "relation", "ref": 3368289, "role": "level_0"}, {"type": "way", "ref": 248975428, "role": "outer"}, {"type": "way", "ref": 248975431, "role": "outer"}, {"type": "way", "ref": 248975426, "role": "outer"}, {"type": "way", "ref": 248975425, "role": "outer"}, {"type": "way", "ref": 248975429, "role": "outer"}], "tags": {"addr:city": "PARIS CEDEX 15", "addr:country": "FR", "addr:housename": "Immeuble POLLUX", "addr:housenumber": "37", "addr:postcode": "75725", "addr:street": "Quai de Grenelle", "alt_name": "\u00c9cole Centrale d'\u00c9lectronique", "amenity": "college", "building": "yes", "building:level:1": "ECE Paris - first floor - P3***", "building:level:2": "ECE Paris - second floor - P4**", "building:levels": "3", "building:min_level": "1", "layer": "4", "name": "ECE Paris - Campus Eiffel", "old_name": "\u00c9cole centrale d'\u00e9lectronique, \u00c9cole de la rue de la Lune (1919...), \u00c9cole centrale de la T.S.F. (1919...)", "roof:shape": "ridged", "type": "building", "url": "http://www.ece.fr", "website": "http://www.ece.fr", "wikidata": "Q3577731", "wikipedia": "fr:\u00c9cole centrale d'\u00e9lectronique"}}]}