{"version": 0.6, "generator": "Overpass API 0.7.62.8 e802775f", "osm3s": {"timestamp_osm_base": "2026-01-13T20:01:26Z", "copyright": "The data included in this document is from www.openstreetmap.org. The data is made available under ODbL."}, "elements": [{"type": "node", "id": 480680110, "lat": 48.8299505, "lon": 2.3776687, "tags": {"brand": "Monoprix", "brand:wikidata": "Q3321241", "brand:wikipedia": "en:Monoprix", "check_date:opening_hours": "2025-12-10", "level": "0", "name": "Monoprix", "opening_hours": "Mo-Sa 08:00-21:00, Su 09:00-20:00", "operator": "Groupe Casino", "organic": "yes", "phone": "+33 1 44 23 06 60", "shop": "supermarket", "toilets": "no", "website": "https://www.monoprix.fr/1285.html", "wheelchair": "yes"}}, {"type": "node", "id": 667281517, "lat": 48.8263743, "lon": 2.3872012, "tags": {"amenity": "fuel", "brand": "TotalEnergies", "brand:wikidata": "Q154037", "brand:wikipedia": "fr:TotalEnergies", "compressed_air": "no", "fuel:diesel": "yes", "fuel:e10": "yes", "fuel:octane_98": "yes", "name": "TotalEnergies", "opening_hours": "24/7", "phone": "+33 1 45 86 65 70", "ref:FR:prix-carburants": "75013023", "shop": "convenience", "source": "Minist\u00e8re de l'Economie, de l'Industrie et du Num\u00e9rique - 22/10/2016", "website": "https://store.totalenergies.fr/en_EN/NF078106", "wheelchair": "no"}}, {"type": "node", "id": 779144435, "lat": 48.8303557, "lon": 2.3765927}, {"type": "node", "id": 913121682, "lat": 48.8300919, "lon": 2.3763717}, {"type": "node", "id": 924126457, "lat": 48.8249555, "lon": 2.3768417}, {"type": "node", "id": 924127198, "lat": 48.8247954, "lon": 2.3770816, "tags": {"addr:housenumber": "26"}}, {"type": "node", "id": 924148546, "lat": 48.824717, "lon": 2.376859}, {"type": "node", "id": 924148781, "lat": 48.8249706, "lon": 2.3767892}, {"type": "node", "id": 924157600, "lat": 48.8247188, "lon": 2.3768645}, {"type": "node", "id": 924162957, "lat": 48.8249056, "lon": 2.3769923}, {"type": "node", "id": 924171727, "lat": 48.8249755, "lon": 2.3768358}, {"type": "node", "id": 924172337, "lat": 48.8249287, "lon": 2.3769757}, {"type": "node", "id": 924686179, "lat": 48.8231746, "lon": 2.3871812}, {"type": "node", "id": 924690057, "lat": 48.824028, "lon": 2.3863065}, {"type": "node", "id": 924690749, "lat": 48.824185, "lon": 2.3869601}, {"type": "node", "id": 924691236, "lat": 48.8233614, "lon": 2.3870255}, {"type": "node", "id": 924693719, "lat": 48.8238007, "lon": 2.3859604}, {"type": "node", "id": 924695648, "lat": 48.8240707, "lon": 2.386441}, {"type": "node", "id": 924697819, "lat": 48.8239544, "lon": 2.3861801}, {"type": "node", "id": 924700403, "lat": 48.8235213, "lon": 2.387854}, {"type": "node", "id": 924701998, "lat": 48.8232457, "lon": 2.3871432}, {"type": "node", "id": 924704924, "lat": 48.8236451, "lon": 2.3877224}, {"type": "node", "id": 924711939, "lat": 48.8240161, "lon": 2.3863181}, {"type": "node", "id": 924712029, "lat": 48.8241052, "lon": 2.3865279}, {"type": "node", "id": 924714503, "lat": 48.8240951, "lon": 2.3865345}, {"type": "node", "id": 924720722, "lat": 48.8236613, "lon": 2.3877059}, {"type": "node", "id": 924729263, "lat": 48.8230778, "lon": 2.3869208}, {"type": "node", "id": 924729712, "lat": 48.8231936, "lon": 2.3871622}, {"type": "node", "id": 924730014, "lat": 48.8236506, "lon": 2.3877334}, {"type": "node", "id": 924732194, "lat": 48.8240515, "lon": 2.3863708}, {"type": "node", "id": 924736608, "lat": 48.8238117, "lon": 2.3859498}, {"type": "node", "id": 924737564, "lat": 48.8242245, "lon": 2.3870491}, {"type": "node", "id": 924737585, "lat": 48.8238499, "lon": 2.385992}, {"type": "node", "id": 924738179, "lat": 48.8240476, "lon": 2.3863742}, {"type": "node", "id": 924738278, "lat": 48.8232357, "lon": 2.3867534}, {"type": "node", "id": 924738386, "lat": 48.8232231, "lon": 2.3872261}, {"type": "node", "id": 924739005, "lat": 48.8230148, "lon": 2.3867856}, {"type": "node", "id": 924741743, "lat": 48.8237764, "lon": 2.3859862}, {"type": "node", "id": 924743660, "lat": 48.8240745, "lon": 2.3864382}, {"type": "node", "id": 924745626, "lat": 48.8242261, "lon": 2.3869282}, {"type": "node", "id": 924745633, "lat": 48.8242444, "lon": 2.3870937}, {"type": "node", "id": 924745698, "lat": 48.823667, "lon": 2.3877169}, {"type": "node", "id": 924748138, "lat": 48.8238477, "lon": 2.3859112}, {"type": "node", "id": 924748694, "lat": 48.8232335, "lon": 2.3871175}, {"type": "node", "id": 924749310, "lat": 48.8232057, "lon": 2.3872451}, {"type": "node", "id": 976276832, "lat": 48.8374545, "lon": 2.3730757, "tags": {"addr:city": "Paris", "addr:housenumber": "4", "addr:postcode": "75013", "addr:street": "Boulevard Vincent Auriol", "check_date": "2025-10-23", "email": "alaboulangeriedevosenvies@gmail.com", "name": "\u00c0 la Boulangerie de toutes vos Envies", "opening_hours": "Mo-Fr 06:00-21:00", "phone": "+33 1 45 84 57 00", "shop": "bakery", "wheelchair": "limited"}}, {"type": "node", "id": 977193494, "lat": 48.842944, "lon": 2.3638491}, {"type": "node", "id": 977193676, "lat": 48.8429019, "lon": 2.3638188}, {"type": "node", "id": 977194066, "lat": 48.8429261, "lon": 2.3638685}, {"type": "node", "id": 977194770, "lat": 48.8429018, "lon": 2.3638515}, {"type": "node", "id": 1399194642, "lat": 48.8241692, "lon": 2.3871727, "tags": {"amenity": "parking_entrance", "bicycle": "no", "foot": "yes", "motorcar": "yes"}}, {"type": "node", "id": 1407040040, "lat": 48.8246043, "lon": 2.3883959, "tags": {"addr:city": "Ivry-sur-Seine", "addr:housenumber": "5", "addr:postcode": "94200", "addr:street": "Rue Fran\u00e7ois Mitterrand", "brand": "Truffaut", "brand:wikidata": "Q3162640", "brand:wikipedia": "fr:Jardineries Truffaut", "check_date": "2025-11-05", "check_date:opening_hours": "2025-10-28", "name": "Truffaut", "opening_hours": "10:00-19:30", "outdoor_seating": "no", "phone": "+33 1 56 20 29 30", "ref:FR:SIRET": "73980623000689", "shop": "garden_centre", "source": "INSEE - 2024-03", "website": "https://www.truffaut.com/stores/ivry-sur-seine", "wheelchair": "yes"}}, {"type": "node", "id": 1407040563, "lat": 48.8370052, "lon": 2.373836, "tags": {"addr:housenumber": "85", "addr:postcode": "75013", "addr:street": "Quai de la Gare", "brand": "Truffaut", "brand:wikidata": "Q3162640", "brand:wikipedia": "fr:Jardineries Truffaut", "check_date": "2025-10-23", "internet_access": "wlan", "internet_access:fee": "no", "level": "0", "name": "Truffaut", "opening_hours": "10:00-20:00", "phone": "+33 1 53 60 84 50", "shop": "garden_centre", "website": "https://www.truffaut.com/stores/parisrivegauche", "wheelchair": "yes"}}, {"type": "node", "id": 1521629833, "lat": 48.8367077, "lon": 2.3729356, "tags": {"brand": "Franprix", "brand:wikidata": "Q2420096", "brand:wikipedia": "fr:Franprix", "check_date:opening_hours": "2025-09-27", "level": "0", "name": "Franprix", "opening_hours": "Mo-Sa 07:30-21:00; Su 08:30-20:00", "opening_hours:signed": "no", "operator": "Groupe Casino", "organic": "yes", "shop": "convenience", "toilets": "no", "website": "https://www.franprix.fr/magasins/5358", "wheelchair": "limited"}}, {"type": "node", "id": 1859856800, "lat": 48.8421104, "lon": 2.3628087, "tags": {"addr:city": "Paris", "addr:country": "FR", "addr:housenumber": "16", "addr:postcode": "75005", "addr:street": "Boulevard de l'H\u00f4pital", "brand": "Monoprix", "brand:wikidata": "Q3321241", "brand:wikipedia": "fr:Monoprix (France)", "check_date": "2025-07-01", "name": "Monop\u2019", "opening_hours": "Mo-Sa 08:00-23:00; Su off", "operator": "Monoprix", "phone": "+33 1 42 17 45 70", "shop": "convenience", "website": "https://www.monoprix.fr/1329.html"}}, {"type": "node", "id": 1869081290, "lat": 48.8245631, "lon": 2.3765135, "tags": {"addr:city": "Paris", "addr:country": "FR", "addr:postcode": "75013", "addr:street": "Rue Regnault", "indoor_seating": "no", "level": "0", "name": "La Vitryenne", "opening_hours": "Tu-Fr 06:30-20:30, Sa-Su 07:00-20:00, Mo closed", "outdoor_seating": "no", "shop": "bakery", "takeaway": "only", "toilets": "no", "wheelchair": "yes"}}, {"type": "node", "id": 2246765052, "lat": 48.8317389, "lon": 2.371602, "tags": {"name:signed": "no", "opening_hours": "Mo-Su 08:00-21:00", "self_service": "yes", "shop": "laundry"}}, {"type": "node", "id": 2256024159, "lat": 48.8267913, "lon": 2.3745093, "tags": {"alt_name": "Gourmandises des Berges", "level": "0", "name": "Maison Chenib", "opening_hours": "Mo-Su 07:00-21:00", "outdoor_seating": "yes", "payment:cash": "yes", "payment:credit_cards": "yes", "shop": "bakery", "toilets": "no", "wheelchair": "yes"}}, {"type": "node", "id": 2378280524, "lat": 48.830187, "lon": 2.3762863}, {"type": "node", "id": 2378280529, "lat": 48.8302643, "lon": 2.3766793}, {"type": "node", "id": 2378280530, "lat": 48.8302894, "lon": 2.3766556, "tags": {"access": "customers", "entrance": "yes", "level": "0", "wheelchair": "yes"}}, {"type": "node", "id": 2378416370, "lat": 48.8293862, "lon": 2.3761036, "tags": {"contact:city": "Paris", "contact:housenumber": "56", "contact:phone": "+33 1 44 24 18 42", "contact:postcode": "75013", "contact:street": "Rue du Chevaleret", "level": "0", "name": "Berthe", "opening_hours": "Mo-Fr 07:00-19:00", "outdoor_seating": "yes", "shop": "bakery", "website": "https://www.boulangerieberthe.fr"}}, {"type": "node", "id": 2378416452, "lat": 48.8296275, "lon": 2.3747463, "tags": {"check_date": "2023-10-01", "name": "Mini Market", "shop": "convenience"}}, {"type": "node", "id": 2462225074, "lat": 48.8247317, "lon": 2.3769011, "tags": {"addr:housenumber": "28", "source": "cadastre-dgi-fr source : Direction G\u00e9n\u00e9rale des Imp\u00f4ts - Cadastre. Mise \u00e0 jour : 2013"}}, {"type": "node", "id": 2482357773, "lat": 48.8305912, "lon": 2.3747005, "tags": {"brand": "Vapostore", "brand:wikidata": "Q91257968", "contact:city": "Paris", "contact:facebook": "https://www.facebook.com/Vapostorebnf", "contact:housenumber": "101", "contact:phone": "+33 9 66 88 85 22", "contact:postcode": "75013", "contact:street": "Rue du Chevaleret", "contact:website": "https://www.vapostore.com", "level": "0", "name": "Vapostore", "opening_hours": "Mo-Sa 10:00-19:30; Su 10:00-19:00", "shop": "e-cigarette", "wheelchair": "yes"}}, {"type": "node", "id": 2489097396, "lat": 48.8306321, "lon": 2.3763012, "tags": {"addr:city": "Paris", "addr:housenumber": "117", "addr:postcode": "75013", "addr:street": "Avenue de France", "brand": "Sephora", "brand:wikidata": "Q2408041", "brand:wikipedia": "en:Sephora", "level": "0", "name": "Sephora", "opening_hours": "Mo-Sa 11:00-19:30", "shop": "cosmetics", "wheelchair": "yes"}}, {"type": "node", "id": 2847602902, "lat": 48.8245422, "lon": 2.3759955, "tags": {"level": "0", "name": "Laverie Libre Service", "opening_hours": "Mo-Su, PH 07:00-21:00", "self_service": "yes", "shop": "laundry", "source": "survey", "wheelchair": "no"}}, {"type": "node", "id": 2847602903, "lat": 48.8247845, "lon": 2.3760252, "tags": {"diet:halal": "yes", "level": "0", "name": "Boucherie Chamsi", "shop": "butcher", "wheelchair": "no"}}, {"type": "node", "id": 2847610701, "lat": 48.8245812, "lon": 2.3759299, "tags": {"level": "0", "name": "Ashwin exotique", "shop": "convenience", "source": "survey", "toilets": "no", "wheelchair": "limited"}}, {"type": "node", "id": 2848303201, "lat": 48.8307838, "lon": 2.3744709, "tags": {"addr:city": "Paris", "addr:country": "FR", "addr:postcode": "75013", "addr:street": "Rue du Chevaleret", "level": "0", "name": "Ben's Market", "shop": "convenience", "source": "survey", "wheelchair": "limited"}}, {"type": "node", "id": 3247567946, "lat": 48.8296149, "lon": 2.3760858}, {"type": "node", "id": 3256849194, "lat": 48.8295382, "lon": 2.3760665}, {"type": "node", "id": 3256849198, "lat": 48.8295638, "lon": 2.3761309}, {"type": "node", "id": 3256849200, "lat": 48.8295878, "lon": 2.3760207}, {"type": "node", "id": 3256849201, "lat": 48.8295897, "lon": 2.3761961}, {"type": "node", "id": 3256849205, "lat": 48.8296287, "lon": 2.3776787}, {"type": "node", "id": 3256849208, "lat": 48.829641, "lon": 2.3761496}, {"type": "node", "id": 3257051686, "lat": 48.829734, "lon": 2.3773315}, {"type": "node", "id": 3257051690, "lat": 48.8297812, "lon": 2.3774054}, {"type": "node", "id": 3257051693, "lat": 48.8297938, "lon": 2.3774369}, {"type": "node", "id": 3257051694, "lat": 48.8297909, "lon": 2.3772779}, {"type": "node", "id": 3259571465, "lat": 48.8296264, "lon": 2.3778887}, {"type": "node", "id": 3332217293, "lat": 48.824091, "lon": 2.3877835, "tags": {"contact:facebook": "https://www.facebook.com/austostore.occasion", "contact:fax": "+33 1 45 21 92 53", "contact:phone": "+33 1 45 21 92 35", "name": "Autos-Store", "opening_hours": "Mo 09:30-19:30; We-Sa 09:30-19:30", "payment:cash": "yes", "payment:credit_cards": "yes", "shop": "car", "website": "www.autos-store.com"}}, {"type": "node", "id": 3408865891, "lat": 48.8412972, "lon": 2.3657935}, {"type": "node", "id": 3440917098, "lat": 48.8295637, "lon": 2.376043, "tags": {"entrance": "main", "layer": "-2", "level": "-2", "wheelchair": "yes"}}, {"type": "node", "id": 3441085423, "lat": 48.8294982, "lon": 2.3780055}, {"type": "node", "id": 3441085425, "lat": 48.8295369, "lon": 2.3777627, "tags": {"entrance": "main", "layer": "-2", "level": "-2", "operator": "SNCF", "ref": "069", "wheelchair": "yes"}}, {"type": "node", "id": 3441085427, "lat": 48.8295665, "lon": 2.3779433}, {"type": "node", "id": 3441085429, "lat": 48.8295981, "lon": 2.3777068, "tags": {"access": "no", "door": "sliding", "entrance": "service", "layer": "-2", "level": "-2", "ref": "068", "wheelchair": "yes"}}, {"type": "node", "id": 3441085431, "lat": 48.8296892, "lon": 2.3778312}, {"type": "node", "id": 3441085435, "lat": 48.8297621, "lon": 2.3773044, "tags": {"entrance": "main", "layer": "-2", "level": "-2", "operator": "SNCF", "wheelchair": "yes"}}, {"type": "node", "id": 3442342885, "lat": 48.8297683, "lon": 2.3774175}, {"type": "node", "id": 3442342889, "lat": 48.829813, "lon": 2.377419}, {"type": "node", "id": 3442342891, "lat": 48.8298383, "lon": 2.3775925}, {"type": "node", "id": 3442342993, "lat": 48.8298399, "lon": 2.3773937}, {"type": "node", "id": 3442342996, "lat": 48.8298708, "lon": 2.3775623}, {"type": "node", "id": 3471564387, "lat": 48.8295775, "lon": 2.3761654, "tags": {"access": "no", "entrance": "service", "layer": "-2", "level": "-2"}}, {"type": "node", "id": 3471564389, "lat": 48.8296364, "lon": 2.3776982, "tags": {"entrance": "main", "layer": "-2", "level": "-2", "mapillary:NW": "WRczTRkbaQxMq5lMwpWPhA", "ref": "067"}}, {"type": "node", "id": 3471575002, "lat": 48.8298551, "lon": 2.3775769, "tags": {"entrance": "main", "layer": "-2", "level": "-2", "mapillary:E": "GltOmRequoZT4kE1exwoAA", "wheelchair": "yes"}}, {"type": "node", "id": 3506897280, "lat": 48.8307371, "lon": 2.3749337, "tags": {"check_date": "2025-08-13", "contact:city": "Paris", "contact:housenumber": "68", "contact:postcode": "75013", "contact:street": "Rue du Chevaleret", "contact:website": "http://www.jaimetongout.fr", "level": "0", "name": "J'aime ton go\u00fbt", "opening_hours": "Tu-Fr 11:00-20:00; Sa 10:30-20:00", "outdoor_seating": "yes", "shop": "deli", "toilets": "no", "wheelchair": "yes"}}, {"type": "node", "id": 3520083610, "lat": 48.8294376, "lon": 2.3778535}, {"type": "node", "id": 3520083611, "lat": 48.8295061, "lon": 2.3777908}, {"type": "node", "id": 3520083612, "lat": 48.8295659, "lon": 2.3777362}, {"type": "node", "id": 3525510044, "lat": 48.8305248, "lon": 2.3763346, "tags": {"addr:city": "Paris", "addr:country": "FR", "addr:housenumber": "115", "addr:postcode": "75013", "addr:street": "Avenue de France", "brand": "H&M", "brand:wikidata": "Q188326", "brand:wikipedia": "en:H&M", "check_date:opening_hours": "2025-07-05", "clothes": "women;men", "level": "0", "name": "H&M", "opening_hours": "Mo-Sa 10:00-20:00", "phone": "+33 805 08 88 88", "second_hand": "no", "shop": "clothes", "source": "Knowledge", "website": "https://www2.hm.com/fr_fr/index.html", "wheelchair": "yes"}}, {"type": "node", "id": 3708529212, "lat": 48.8279427, "lon": 2.3802329, "tags": {"check_date:opening_hours": "2024-11-07", "description": "Art urbain", "email": "galerie@mathgoth.com", "level": "0", "name": "Galerie MathGoth", "opening_hours": "We-Sa 14:00-19:00", "shop": "art", "website": "https://www.mathgoth.com/", "wheelchair": "yes"}}, {"type": "node", "id": 3709172918, "lat": 48.8312893, "lon": 2.3756708, "tags": {"addr:city": "Paris", "addr:country": "FR", "addr:housenumber": "131 bis", "addr:postcode": "75013", "addr:street": "Avenue de France", "brand": "Schmidt", "brand:wikidata": "Q3487620", "level": "0", "name": "Schmidt", "opening_hours": "Mo-Th,Sa 10:00-19:00; Fr 10:30-19:00; Su off", "shop": "kitchen", "source": "survey", "wheelchair": "yes"}}, {"type": "node", "id": 3709216139, "lat": 48.8295961, "lon": 2.3772716, "tags": {"addr:city": "Paris", "addr:country": "FR", "addr:housenumber": "101", "addr:postcode": "75013", "addr:street": "Avenue de France", "check_date": "2025-06-05", "email": "paris13@ideal-optic.fr", "level": "0", "name": "Ideal Optic", "opening_hours": "Mo-Th 09:30-19:30, Fr 09:30-15:00, Sa closed, Su 10:00-13:30", "phone": "+33 1 44 24 24 24", "shop": "optician", "source": "survey", "wheelchair": "yes"}}, {"type": "node", "id": 3711131237, "lat": 48.8346813, "lon": 2.3679582, "tags": {"check_date:opening_hours": "2024-03-29", "name": "Sup\u00e9rette du 13", "opening_hours:signed": "no", "panoramax": "fc1b93bf-7800-486b-8ee8-d8801f8d6957", "shop": "convenience"}}, {"type": "node", "id": 3711137745, "lat": 48.8307434, "lon": 2.3745371, "tags": {"addr:city": "Paris", "addr:country": "FR", "addr:postcode": "75013", "addr:street": "Rue du Chevaleret", "name": "L'Encadreur", "opening_hours": "Tu-Fr 10:00-14:00,15:00-19:30, Sa 10:30-19:30", "shop": "frame", "wheelchair": "yes"}}, {"type": "node", "id": 3724356275, "lat": 48.8303809, "lon": 2.3752877, "tags": {"addr:city": "Paris", "addr:housenumber": "64", "addr:postcode": "75013", "addr:street": "Rue du Chevaleret", "branch": "Paris Chavaleret", "brand": "My Auchan", "brand:wikidata": "Q758603", "check_date:opening_hours": "2024-01-15", "level": "0", "name": "My Auchan", "opening_hours": "Mo-Sa 08:00-21:00; Su 09:00-12:45", "organic": "yes", "shop": "supermarket", "toilets": "no", "website": "https://www.auchan.fr/magasins/my-auchan/my-auchan-paris-chevaleret/s-4820", "wheelchair": "yes"}}, {"type": "node", "id": 3779854599, "lat": 48.8298818, "lon": 2.3773095}, {"type": "node", "id": 3779854600, "lat": 48.8298886, "lon": 2.3773231}, {"type": "node", "id": 3779860084, "lat": 48.8298931, "lon": 2.377319}, {"type": "node", "id": 3779860247, "lat": 48.8298813, "lon": 2.3773135}, {"type": "node", "id": 3779860249, "lat": 48.8298819, "lon": 2.3773175}, {"type": "node", "id": 3779860251, "lat": 48.8298912, "lon": 2.3773218}, {"type": "node", "id": 3779860252, "lat": 48.8298835, "lon": 2.3773208}, {"type": "node", "id": 3779860253, "lat": 48.8298859, "lon": 2.3773228}, {"type": "node", "id": 3783187994, "lat": 48.8298447, "lon": 2.3772966, "tags": {"entrance": "main", "layer": "-2", "level": "-2"}}, {"type": "node", "id": 3783187995, "lat": 48.8298703, "lon": 2.3773636}, {"type": "node", "id": 3783187996, "lat": 48.8298936, "lon": 2.3773174}, {"type": "node", "id": 3783187997, "lat": 48.8299002, "lon": 2.3773341}, {"type": "node", "id": 3859703848, "lat": 48.8232714, "lon": 2.3773473, "tags": {"name": "Tradition d'Ivry", "shop": "bakery", "source": "survey"}}, {"type": "node", "id": 4069972855, "lat": 48.8414426, "lon": 2.3662377, "tags": {"amenity": "reception_desk", "brand": "Guichet Transilien", "brand:wikidata": "Q389554", "brand:wikipedia": "fr:Transilien", "level": "-2", "name": "Guichet Transilien", "opening_hours": "Mo-Su 09:00-12:00,14:00-19:30", "operator": "SNCF", "shop": "ticket", "tickets:public_transport": "yes", "wheelchair": "no"}}, {"type": "node", "id": 4069972858, "lat": 48.8414505, "lon": 2.3662613, "tags": {"amenity": "reception_desk", "brand": "Guichet Transilien", "brand:wikidata": "Q389554", "brand:wikipedia": "fr:Transilien", "level": "-2", "name": "Guichet Transilien", "opening_hours": "Mo-Fr 09:00-12:00,14:00-19:00", "operator": "SNCF", "shop": "ticket", "tickets:public_transport": "yes", "wheelchair": "yes"}}, {"type": "node", "id": 4108221931, "lat": 48.8264384, "lon": 2.3832568, "tags": {"check_date": "2025-01-20", "name": "Daytona Shop", "opening_hours": "Tu-Fr 09:30-12:30,14:00-19:00; Sa 10:00-12:00,14:00-18:00", "phone": "+33 1 53 60 40 22", "service:bicycle:retail": "yes", "shop": "motorcycle", "source": "survey"}}, {"type": "node", "id": 4108221935, "lat": 48.8265538, "lon": 2.3835969, "tags": {"name": "Le Lavo // Matik", "opening_hours": "Tu 12:00-17:00; We-Sa 12:00-19:00", "shop": "art", "source": "survey", "wheelchair": "limited"}}, {"type": "node", "id": 4334066213, "lat": 48.8317696, "lon": 2.3716504, "tags": {"addr:postcode": "75013", "name:signed": "no", "opening_hours": "Mo 14:30-20:00; Tu-Fr 08:00-20:00; Sa 09:00-20:00", "shop": "dry_cleaning"}}, {"type": "node", "id": 4348341593, "lat": 48.8268484, "lon": 2.3744686, "tags": {"level": "0", "name": "Strat\u00e8ges", "opening_hours": "We,Fr,Sa 10:30-22:00, Th 10:30-18:30, Su 10:30-19:00", "shop": "games", "toilets": "no", "wheelchair": "designated"}}, {"type": "node", "id": 4381940409, "lat": 48.8322914, "lon": 2.3715383, "tags": {"check_date": "2025-07-22", "check_date:opening_hours": "2024-02-19", "level": "0", "name": "Brasserie vietnamienne", "opening_hours:signed": "no", "shop": "tobacco"}}, {"type": "node", "id": 4401260290, "lat": 48.8280064, "lon": 2.3732494, "tags": {"contact:city": "Paris", "contact:housenumber": "91", "contact:phone": "+33 1 45 83 54 85", "contact:postcode": "75013", "contact:street": "Rue du Dessous des Berges", "level": "0", "name": "Coiffeur Nathalie", "opening_hours": "Tu-Fr 09:00-18:30; Sa 08:00-13:00", "shop": "hairdresser", "unisex": "yes", "wheelchair": "no"}}, {"type": "node", "id": 4413781873, "lat": 48.8265116, "lon": 2.3809672, "tags": {"check_date": "2025-10-20", "check_date:opening_hours": "2025-10-20", "indoor_seating": "yes", "name": "Honorine", "opening_hours": "Mo-Sa 06:30-20:00; Su 08:00-15:00", "outdoor_seating": "no", "payment:cash": "yes", "payment:credit_cards": "yes", "payment:debit_cards": "yes", "ref:FR:SIRET": "82141572600016", "shop": "bakery", "source": "survey", "toilets": "yes", "toilets:access": "customers", "wheelchair": "yes"}}, {"type": "node", "id": 4874131225, "lat": 48.8264553, "lon": 2.3831124, "tags": {"check_date": "2025-07-25", "check_date:opening_hours": "2025-07-25", "contact:housenumber": "24 bis", "contact:street": "Boulevard du G\u00e9n\u00e9ral d'Arm\u00e9e Jean Simon", "email": "contact@itinerrance.fr", "name": "Galerie Itinerrance", "opening_hours:signed": "no", "shop": "art", "website": "https://itinerrance.fr"}}, {"type": "node", "id": 4971826649, "lat": 48.8274282, "lon": 2.3745524, "tags": {"brand": "Lidl", "brand:website": "http://www.lidl.fr", "brand:wikidata": "Q151954", "brand:wikipedia": "en:Lidl", "level": "0", "name": "Lidl", "opening_hours": "Mo-Sa 8:30-21:00; Su 08:30-12:15", "organic": "yes", "shop": "supermarket", "toilets": "no", "wheelchair": "yes"}}, {"type": "node", "id": 4976692521, "lat": 48.8308024, "lon": 2.3776117, "tags": {"brand": "Alain Afflelou", "brand:wikidata": "Q2829511", "brand:wikipedia": "fr:Alain Afflelou (entreprise)", "check_date:opening_hours": "2025-11-30", "name": "Alain Afflelou", "name:fr": "Alain Afflelou", "opening_hours": "Mo-Sa 09:30-19:30", "shop": "optician"}}, {"type": "node", "id": 5124349110, "lat": 48.8245857, "lon": 2.3762822, "tags": {"level": "0", "name": "JN Primeur", "shop": "greengrocer", "wheelchair": "limited"}}, {"type": "node", "id": 5180375860, "lat": 48.8414792, "lon": 2.3625483, "tags": {"indoor_seating": "no", "name": "La vie est belle", "opening_hours": "Mo-Sa 06:30-20:00; Su 06:30-18:00", "outdoor_seating": "yes", "shop": "bakery", "wheelchair": "limited"}}, {"type": "node", "id": 5239529847, "lat": 48.8302581, "lon": 2.3764155}, {"type": "node", "id": 5355274354, "lat": 48.8265084, "lon": 2.3823836, "tags": {"brand": "Yesss \u00c9lectrique", "brand:wikidata": "Q91307483", "check_date": "2025-10-28", "check_date:opening_hours": "2025-10-28", "name": "Yesss \u00c9lectrique", "opening_hours": "Mo-Th 07:30-12:00,13:30-17:30; Fr 07:30-12:00,13:30-16:30", "ref:FR:SIRET": "31988334404588", "shop": "electrical", "source": "survey 01/2018", "website": "https://www.yesss-fr.com/"}}, {"type": "node", "id": 5580758832, "lat": 48.8372393, "lon": 2.3703941, "tags": {"brand": "Eric Kayser", "brand:wikidata": "Q99231745", "name": "Eric Kayser", "opening_hours": "Mo-Fr 07:00-19:00", "pastry": "yes", "shop": "bakery"}}, {"type": "node", "id": 6015104288, "lat": 48.8416186, "lon": 2.3669141}, {"type": "node", "id": 6015104292, "lat": 48.841589, "lon": 2.3668348}, {"type": "node", "id": 6015226354, "lat": 48.8428291, "lon": 2.3635666, "tags": {"name": "Boulangerie Rir", "shop": "bakery"}}, {"type": "node", "id": 6828258841, "lat": 48.841326, "lon": 2.365999}, {"type": "node", "id": 6828258842, "lat": 48.8413366, "lon": 2.3659896}, {"type": "node", "id": 6828258843, "lat": 48.8413049, "lon": 2.3660176}, {"type": "node", "id": 6828258844, "lat": 48.8413158, "lon": 2.3660081}, {"type": "node", "id": 6828258845, "lat": 48.8412943, "lon": 2.366026}, {"type": "node", "id": 6828258846, "lat": 48.841285, "lon": 2.3660341}, {"type": "node", "id": 6828258847, "lat": 48.8413489, "lon": 2.3659849}, {"type": "node", "id": 6828258848, "lat": 48.8413384, "lon": 2.3659941}, {"type": "node", "id": 6828258849, "lat": 48.8413277, "lon": 2.3660036}, {"type": "node", "id": 6828258850, "lat": 48.8413175, "lon": 2.3660126}, {"type": "node", "id": 6828258851, "lat": 48.8413068, "lon": 2.3660226}, {"type": "node", "id": 6828258852, "lat": 48.8412964, "lon": 2.3660316}, {"type": "node", "id": 6828258858, "lat": 48.8413472, "lon": 2.3659803}, {"type": "node", "id": 6828258862, "lat": 48.8413557, "lon": 2.3659728}, {"type": "node", "id": 6831183137, "lat": 48.8413147, "lon": 2.3658396}, {"type": "node", "id": 6831183142, "lat": 48.8413073, "lon": 2.3658461}, {"type": "node", "id": 6831183143, "lat": 48.841318, "lon": 2.3658741}, {"type": "node", "id": 6831183144, "lat": 48.8413259, "lon": 2.3658672}, {"type": "node", "id": 6831183149, "lat": 48.8413494, "lon": 2.3659288}, {"type": "node", "id": 6831183150, "lat": 48.841339, "lon": 2.3659019}, {"type": "node", "id": 6831183151, "lat": 48.8413415, "lon": 2.3659357}, {"type": "node", "id": 6831183152, "lat": 48.8413313, "lon": 2.3659087}, {"type": "node", "id": 6831183153, "lat": 48.8413479, "lon": 2.3659523}, {"type": "node", "id": 6831183157, "lat": 48.8413557, "lon": 2.3659454}, {"type": "node", "id": 6831183184, "lat": 48.8412705, "lon": 2.3660064}, {"type": "node", "id": 6831193487, "lat": 48.8412553, "lon": 2.365967}, {"type": "node", "id": 6831193490, "lat": 48.84124, "lon": 2.3659271}, {"type": "node", "id": 6831193506, "lat": 48.841219, "lon": 2.3658619}, {"type": "node", "id": 6831193507, "lat": 48.841225, "lon": 2.3658881}, {"type": "node", "id": 6831193508, "lat": 48.8412311, "lon": 2.365904}, {"type": "node", "id": 6831193509, "lat": 48.8412279, "lon": 2.3658855}, {"type": "node", "id": 6831193510, "lat": 48.8412341, "lon": 2.3659013}, {"type": "node", "id": 6831193511, "lat": 48.8412461, "lon": 2.365943}, {"type": "node", "id": 6831193512, "lat": 48.8412429, "lon": 2.3659245}, {"type": "node", "id": 6831193513, "lat": 48.8412491, "lon": 2.3659403}, {"type": "node", "id": 6831193514, "lat": 48.8412613, "lon": 2.3659828}, {"type": "node", "id": 6831193515, "lat": 48.8412583, "lon": 2.3659644}, {"type": "node", "id": 6831193516, "lat": 48.8412643, "lon": 2.3659801}, {"type": "node", "id": 6831193517, "lat": 48.8412765, "lon": 2.3660221}, {"type": "node", "id": 6831193518, "lat": 48.8412734, "lon": 2.3660039}, {"type": "node", "id": 6831193519, "lat": 48.8412795, "lon": 2.3660194}, {"type": "node", "id": 6913722350, "lat": 48.8304117, "lon": 2.377072}, {"type": "node", "id": 7004664430, "lat": 48.8305105, "lon": 2.3772207, "tags": {"addr:city": "Paris", "addr:housenumber": "29", "addr:postcode": "75013", "addr:street": "Rue Neuve Tolbiac", "brand": "Darty", "brand:wikidata": "Q2439098", "brand:wikipedia": "fr:Darty", "check_date": "2025-11-30", "check_date:opening_hours": "2025-11-30", "level": "-1;-0.5;0", "name": "Darty", "opening_hours": "Mo-Fr 10:00-20:00; Sa 10:00-19:30; Su 11:00-19:00", "phone": "+33 8 92 01 10 10", "shop": "electronics", "website": "https://magasin.darty.com/29-darty-bibliotheque-nationale-de-france", "wheelchair": "yes"}}, {"type": "node", "id": 7111581930, "lat": 48.8321833, "lon": 2.3717771, "tags": {"check_date": "2025-08-01", "check_date:opening_hours": "2024-02-19", "level": "0", "name": "Youni Shop", "opening_hours:signed": "no", "shop": "mobile_phone", "wheelchair": "no"}}, {"type": "node", "id": 7726941031, "lat": 48.8401239, "lon": 2.3684725, "tags": {"check_date": "2025-10-03", "check_date:opening_hours": "2025-10-03", "level": "0", "name": "Apog\u00e9", "opening_hours": "Mo-Fr 11:00-20:45", "ref:FR:SIRET": "84220302800035", "shop": "wine", "source:opening_hours": "entrance", "website": "https://www.apogeausterlitz.com/"}}, {"type": "node", "id": 7765774847, "lat": 48.8417706, "lon": 2.3627524, "tags": {"brand": "Renault", "brand:wikidata": "Q6686", "brand:wikipedia": "fr:Renault", "name": "No\u00ebl Auto Austerlitz", "opening_hours": "Mo-Fr 08:00-12:30,13:30-19:00; Sa 09:30-13:00,14:00-17:00", "shop": "car_repair"}}, {"type": "node", "id": 7972556754, "lat": 48.831196, "lon": 2.3757484, "tags": {"addr:city": "Paris", "addr:housenumber": "131", "addr:postcode": "75013", "addr:street": "Avenue de France", "air_conditioning": "yes", "contact:facebook": "https://www.facebook.com/PlayinByMagicBazar", "contact:twitter": "@Playin_by_MB", "email": "parisbnf@play-in.com", "level": "1", "name": "Playin Paris BNF", "opening_hours": "Mo-Fr 12:00-20:00; Sa 11:00-20:00", "payment:cash": "yes", "payment:contactless": "yes", "payment:credit_cards": "yes", "payment:mastercard": "yes", "payment:visa": "yes", "phone": "+33 9 71 24 98 87", "shop": "games", "toilets": "yes", "website": "https://www.play-in.com/store/1-playin_paris", "wheelchair": "yes"}}, {"type": "node", "id": 8007101265, "lat": 48.8380447, "lon": 2.3728734, "tags": {"name": "Ping Passion", "shop": "sports", "website": "https://www.ping-passion.com"}}, {"type": "node", "id": 8025496128, "lat": 48.8322492, "lon": 2.3716236, "tags": {"cannabis:cbd": "only", "check_date": "2025-08-01", "name": "CBD Lovely", "opening_hours": "Mo-Sa 12:00-19:30", "shop": "cannabis"}}, {"type": "node", "id": 8068619009, "lat": 48.841008, "lon": 2.3621885, "tags": {"addr:city": "Paris", "addr:housenumber": "30", "addr:postcode": "75005", "addr:street": "Boulevard de l'H\u00f4pital", "brand": "Casino Shop", "brand:wikidata": "Q89029601", "email": "distri-royal@orange.fr", "name": "Casino Shop", "opening_hours": "Mo-Sa 08:00-22:00", "phone": "+33 1 47 07 84 73", "shop": "convenience", "website": "https://www.coccinelle.fr/Trouver_Un_Magasin/Details/coccinelle-express/paris/30-boulevard-de-lhopital", "wheelchair": "yes"}}, {"type": "node", "id": 8068619033, "lat": 48.823915, "lon": 2.376868, "tags": {"check_date:opening_hours": "2025-07-30", "level": "0", "name:signed": "no", "opening_hours:signed": "no", "shop": "kiosk", "wheelchair": "yes"}}, {"type": "node", "id": 8068619048, "lat": 48.8237296, "lon": 2.3769956, "tags": {"name": "SARL MS Mobile", "shop": "mobile_phone"}}, {"type": "node", "id": 8121110469, "lat": 48.8237501, "lon": 2.3765832, "tags": {"name": "Ashnawi", "shop": "convenience"}}, {"type": "node", "id": 8121110485, "lat": 48.8237746, "lon": 2.376652, "tags": {"beauty": "nails", "name": "Bella Queen", "shop": "beauty"}}, {"type": "node", "id": 8121110493, "lat": 48.823609, "lon": 2.3761452, "tags": {"name": "Mat\u00e9riel m\u00e9dical", "opening_hours": "Mo-Sa 10:00-19:00", "shop": "medical_supply"}}, {"type": "node", "id": 8121124453, "lat": 48.8237792, "lon": 2.3767116, "tags": {"female": "yes", "male": "yes", "name": "MD coiffure mixte", "opening_hours": "Tu-Su 09:30-19:00", "phone": "+33145830071", "shop": "hairdresser"}}, {"type": "node", "id": 8269359945, "lat": 48.8249789, "lon": 2.3765211, "tags": {"name": "La Carrosserie Moderne", "shop": "car_repair"}}, {"type": "node", "id": 8582223017, "lat": 48.8308275, "lon": 2.3760786, "tags": {"brand": "Besson Chaussures", "brand:wikidata": "Q2899930", "brand:wikipedia": "fr:Besson Chaussures", "contact:city": "Paris", "contact:housenumber": "123", "contact:phone": "+33 1 40 19 21 10", "contact:postcode": "75013", "contact:street": "Avenue de France", "contact:website": "https://www.besson-shoes.com/fr/retailer/presentation/retailer/urlKey/magasin-besson-chaussures-paris-bnf/", "delivery": "yes", "name": "Besson Chaussures", "official_name": "Besson Chaussures Paris Bnf", "opening_hours": "Mo-Sa 10:00-20:00", "payment:debit_cards": "yes", "shop": "shoes", "wheelchair": "yes"}}, {"type": "node", "id": 8784694836, "lat": 48.8354114, "lon": 2.3701062, "tags": {"check_date:opening_hours": "2024-03-29", "name": "Herlem 75", "opening_hours:signed": "no", "shop": "locksmith"}}, {"type": "node", "id": 9063588458, "lat": 48.8296039, "lon": 2.3753698, "tags": {"check_date": "2023-10-01", "level": "0", "name": "Maxi Bazar", "opening_hours": "Mo-Sa 10:00-19:30, Su 10:00-18:00", "shop": "hardware", "wheelchair": "yes"}}, {"type": "node", "id": 9121226979, "lat": 48.8328898, "lon": 2.370769, "tags": {"level": "0", "name": "Le producteur local", "opening_hours": "Mo-Sa 12:00-14:30", "shop": "supermarket", "wheelchair": "yes"}}, {"type": "node", "id": 9231385775, "lat": 48.8261946, "lon": 2.3815034, "tags": {"branch": "Paris Rive Gauche", "brand": "Intermarch\u00e9", "brand:wikidata": "Q3153200", "brand:wikipedia": "fr:Intermarch\u00e9", "check_date": "2025-11-14", "check_date:opening_hours": "2025-06-25", "level": "0", "name": "Intermarch\u00e9", "opening_hours": "Mo-Sa 06:00-22:00; Su 09:00-22:00", "organic": "yes", "payment:cash": "yes", "payment:credit_cards": "yes", "payment:debit_cards": "yes", "ref:FR:SIRET": "87928091500023", "shop": "supermarket", "toilets": "no", "website": "https://www.intermarche.com/magasins/09617/paris-75013/infos-pratiques", "wheelchair": "yes"}}, {"type": "node", "id": 9247842732, "lat": 48.8249235, "lon": 2.3757365, "tags": {"addr:housenumber": "18", "addr:street": "Rue de Patay", "check_date": "2024-03-30", "level": "0", "name": "Zonzon tattoo club", "opening_hours": "We-Sa 11:00-19:00", "phone": "+33 1 82 07 87 39", "shop": "tattoo", "website": "https://zonzontattoo.fr/", "wheelchair": "no"}}, {"type": "node", "id": 9481740819, "lat": 48.8263214, "lon": 2.3848263, "tags": {"branch": "campus", "brand": "Mouvement Emma\u00fcs", "brand:wikidata": "Q989437", "level": "0", "name": "Emma\u00fcs", "opening_hours": "Th-Fr 14:30-19:00, Sa 10:00-19:00", "operator": "Mouvement Emma\u00fcs", "operator:wikidata": "Q989437", "operator:wikipedia": "fr:Mouvement Emma\u00fcs", "second_hand": "only", "shop": "charity", "website": "https://emmaus-defi.org/bric-a-brac/emmaus-campus-13e/", "wheelchair": "yes"}}, {"type": "node", "id": 9481740831, "lat": 48.82672, "lon": 2.3837893, "tags": {"name": "Agora\u00e9 (\u00e9picerie solidaire)", "shop": "convenience"}}, {"type": "node", "id": 9609843680, "lat": 48.8318993, "lon": 2.374271, "tags": {"amenity": "restaurant", "contact:housenumber": "24", "contact:instagram": "https://www.instagram.com/tempero.paris/", "contact:street": "Promenade Claude L\u00e9vi-Strauss", "level": "0", "name": "\u00c9picerie Tempero", "outdoor_seating": "yes", "shop": "convenience", "website": "https://www.instagram.com/tempero.paris/"}}, {"type": "node", "id": 9766790356, "lat": 48.8415985, "lon": 2.3668584, "tags": {"door": "no", "entrance": "main", "level": "0"}}, {"type": "node", "id": 9780876699, "lat": 48.8260542, "lon": 2.3779699, "tags": {"air_conditioning": "yes", "amenity": "bar", "contact:city": "Paris 13eme Arrondissement", "contact:housenumber": "9", "contact:phone": "+33 7 67 26 83 37", "contact:postcode": "75013", "contact:street": "Rue Du Chevaleret", "indoor_seating": "yes", "internet_access": "wlan", "internet_access:fee": "no", "level": "0", "name": "Caf\u00e9 Cayo", "opening_hours": "Tu-We 08:30-17:00, Th-Fr 08:30-23:00, Sa 09:30-23:00, Su 10:00-17:00", "outdoor_seating": "yes", "reservation": "no", "shop": "coffee", "smoking": "outside", "takeaway": "yes", "toilets": "yes", "toilets:access": "yes", "toilets:disposal": "flush", "toilets:handwashing": "yes", "toilets:paper_supplied": "yes", "toilets:position": "seated", "toilets:wheelchair": "designated", "website": "https://www.cafecayo.fr", "wheelchair": "yes"}}, {"type": "node", "id": 9783994621, "lat": 48.8394221, "lon": 2.3608361, "tags": {"shop": "vacant"}}, {"type": "node", "id": 9786858657, "lat": 48.8398647, "lon": 2.3608016, "tags": {"check_date": "2025-11-27", "name": "Acilya", "shop": "hairdresser"}}, {"type": "node", "id": 9861508354, "lat": 48.8371577, "lon": 2.3725298, "tags": {"check_date": "2025-07-07", "lottery": "yes", "name:signed": "no", "shop": "tobacco"}}, {"type": "node", "id": 10084578063, "lat": 48.8334226, "lon": 2.3702592, "tags": {"check_date:opening_hours": "2024-03-29", "name": "Espace Art Absolument", "opening_hours:signed": "no", "shop": "art"}}, {"type": "node", "id": 10246788238, "lat": 48.8316533, "lon": 2.3752945, "tags": {"brand": "Agn\u00e8s B.", "brand:wikidata": "Q282967", "level": "0", "name": "Agn\u00e8s B.", "opening_hours": "We-Sa 11:00-19:00", "shop": "clothes"}}, {"type": "node", "id": 10792922845, "lat": 48.8392497, "lon": 2.3609095, "tags": {"name": "Deniz Pressing", "panoramax": "d9d40355-60f8-4ac4-b336-f0aa92d82ad4", "shop": "dry_cleaning"}}, {"type": "node", "id": 10792922855, "lat": 48.8392119, "lon": 2.3608839, "tags": {"name": "Royal Tattoo", "panoramax": "b772bd05-949e-4d5a-899e-b1c376064d2c", "shop": "tattoo"}}, {"type": "node", "id": 10819163031, "lat": 48.8395684, "lon": 2.3713473, "tags": {"amenity": "bicycle_repair_station", "brand": "CycloCube", "fee": "no", "opening_hours": "closed", "operator": "CycloCube Les Amarres", "service:bicycle:diy": "yes", "service:bicycle:pump": "yes", "service:bicycle:repair": "yes", "service:bicycle:repair_stand": "yes", "service:bicycle:second_hand": "yes", "service:bicycle:stand": "yes", "service:bicycle:tools": "yes", "service:bicycle:volonteer": "yes", "shop": "bicycle", "website": "https://cyclocube.org/prochain-atelier-velo/"}}, {"type": "node", "id": 10941387209, "lat": 48.834163, "lon": 2.3701199, "tags": {"brand": "Free", "brand:wikidata": "Q2467627", "check_date": "2025-12-10", "level": "0", "name": "Free", "shop": "mobile_phone"}}, {"type": "node", "id": 11372190141, "lat": 48.8303775, "lon": 2.3771043}, {"type": "node", "id": 11372190142, "lat": 48.8303862, "lon": 2.3771444}, {"type": "node", "id": 11372190143, "lat": 48.830431, "lon": 2.377103}, {"type": "node", "id": 11372190144, "lat": 48.830379, "lon": 2.3771265}, {"type": "node", "id": 11372190145, "lat": 48.8304238, "lon": 2.3770852}, {"type": "node", "id": 11372190146, "lat": 48.8303829, "lon": 2.3771362, "tags": {"advertising": "poster_box", "animated": "no", "direction": "150", "legal_type:FR": "publicit\u00e9:mobilier_urbain:kiosque", "message": "commercial", "operator": "JCDecaux", "operator:wikidata": "Q74877", "sides": "1", "support": "kiosk", "visibility": "street"}}, {"type": "node", "id": 11372190147, "lat": 48.8304275, "lon": 2.3770943, "tags": {"advertising": "poster_box", "animated": "no", "direction": "330", "legal_type:FR": "publicit\u00e9:mobilier_urbain:kiosque", "message": "commercial", "operator": "JCDecaux", "operator:wikidata": "Q74877", "sides": "1", "support": "kiosk", "visibility": "street"}}, {"type": "node", "id": 11372190148, "lat": 48.8303949, "lon": 2.3770878, "tags": {"advertising": "poster_box", "animated": "winding_posters", "direction": "240", "legal_type:FR": "publicit\u00e9:mobilier_urbain:kiosque", "message": "commercial", "operator": "JCDecaux", "operator:wikidata": "Q74877", "sides": "1", "support": "kiosk", "visibility": "street"}}, {"type": "node", "id": 11372190149, "lat": 48.8303782, "lon": 2.377115, "tags": {"advertising": "poster_box", "animated": "no", "direction": "175", "legal_type:FR": "publicit\u00e9:mobilier_urbain:kiosque", "message": "commercial", "operator": "JCDecaux", "operator:wikidata": "Q74877", "sides": "1", "support": "kiosk", "visibility": "street"}}, {"type": "node", "id": 11372190150, "lat": 48.8304175, "lon": 2.3770784, "tags": {"advertising": "poster_box", "animated": "no", "direction": "305", "legal_type:FR": "publicit\u00e9:mobilier_urbain:kiosque", "message": "commercial", "operator": "JCDecaux", "operator:wikidata": "Q74877", "sides": "1", "support": "kiosk", "visibility": "street"}}, {"type": "node", "id": 11632098747, "lat": 48.8368228, "lon": 2.3731145, "tags": {"addr:housenumber": "9", "addr:street": "Boulevard Vincent Auriol", "branch": "Ridy", "brand": "Cyclable", "brand:wikidata": "Q130214989", "name": "Cyclable", "opening_hours": "Mo-Fr 09:30-13:00,14:00-19:00", "phone": "+339 78 24 24 67", "service:bicycle:clothing": "yes", "service:bicycle:ebike": "yes", "service:bicycle:parts": "yes", "service:bicycle:pump": "yes", "service:bicycle:repair": "yes", "service:bicycle:sales": "yes", "shop": "bicycle", "website": "https://www.ridy.fr/atelier-reparation-velo/paris13/"}}, {"type": "node", "id": 11705279385, "lat": 48.8429476, "lon": 2.3631254, "tags": {"shop": "vacant"}}, {"type": "node", "id": 11732339679, "lat": 48.8416903, "lon": 2.3627043, "tags": {"brand": "Aixam", "brand:wikidata": "Q6751", "name": "Aixam", "opening_hours": "Mo-Fr 09:00-12:00,14:00-18:00; Sa 09:30-13:00,14:00-17:30", "shop": "car"}}, {"type": "node", "id": 11732339728, "lat": 48.8421526, "lon": 2.3625554, "tags": {"name": "L'esth\u00e9tique Soft", "shop": "beauty"}}, {"type": "node", "id": 11732348134, "lat": 48.8407044, "lon": 2.3619707, "tags": {"shop": "yes"}}, {"type": "node", "id": 11732348138, "lat": 48.8409511, "lon": 2.3621698, "tags": {"name:signed": "no", "shop": "clothes"}}, {"type": "node", "id": 13004155386, "lat": 48.8416278, "lon": 2.3669387}, {"type": "node", "id": 13004155389, "lat": 48.8415298, "lon": 2.367023}, {"type": "node", "id": 13004155393, "lat": 48.8414911, "lon": 2.3669191}, {"type": "node", "id": 13004155396, "lat": 48.8414997, "lon": 2.3669421, "tags": {"entrance": "yes"}}, {"type": "way", "id": 79082924, "nodes": [924148781, 924148546, 924157600, 2462225074, 924127198, 924162957, 924172337, 924126457, 924171727, 924148781], "tags": {"addr:city": "Paris", "addr:country": "FR", "addr:housenumber": "28", "addr:postcode": "75013", "addr:street": "Rue Regnault", "brand": "G20", "brand:wikidata": "Q3504731", "brand:wikipedia": "fr:Supermarch\u00e9s G20", "building": "retail", "building:levels": "1", "level": "0", "name": "G20", "opening_hours": "Mo-Sa 08:30-21:00; Su 09:00-21:00", "phone": "+33 1 45 84 20 86", "shop": "supermarket", "source": "cadastre-dgi-fr source : Direction G\u00e9n\u00e9rale des Imp\u00f4ts - Cadastre. Mise \u00e0 jour : 2010", "toilets": "no", "wheelchair": "yes"}}, {"type": "way", "id": 79153631, "nodes": [924741743, 924739005, 924729263, 924738278, 924691236, 924701998, 924748694, 924729712, 924686179, 924749310, 924738386, 924700403, 924704924, 924730014, 924745698, 924720722, 1399194642, 924745633, 924737564, 924690749, 924745626, 924714503, 924712029, 924743660, 924695648, 924738179, 924732194, 924690057, 924711939, 924697819, 924737585, 924748138, 924736608, 924693719, 924741743], "tags": {"branch": "Ivry sur Seine", "brand": "Leroy Merlin", "brand:website": "https://www.leroymerlin.com/", "brand:wikidata": "Q889624", "brand:wikipedia": "fr:Leroy Merlin", "building": "retail", "building:levels": "5", "height": "25", "level": "0", "name": "Leroy Merlin", "opening_hours": "Mo-Su 09:00-20:00", "operator": "Leroy Merlin", "phone": "+33 1 56 20 86 00", "ref:FR:RNB": "1GETZ4QM2NQJ", "ref:FR:SIREN": "384 560 942 00052", "ref:FR:SIRET": "38456094201167", "shop": "doityourself", "source": "extraction vectorielle v1 cadastre-dgi-fr source : Direction G\u00e9n\u00e9rale des Imp\u00f4ts - Cadas. Mise \u00e0 jour : 2010", "toilets": "yes", "toilets:access": "permissive", "website": "https://www.leroymerlin.fr/magasins/ivry-sur-seine.html", "wheelchair": "yes"}}, {"type": "way", "id": 83976071, "nodes": [977193494, 977194066, 977194770, 977193676, 977193494], "tags": {"building": "yes", "check_date": "2025-09-06", "check_date:opening_hours": "2023-10-16", "noname": "yes", "opening_hours:signed": "no", "shop": "kiosk", "wheelchair": "yes"}}, {"type": "way", "id": 229205278, "nodes": [2378280529, 913121682, 2378280524, 5239529847, 779144435, 2378280530, 2378280529], "tags": {"brand": "Decathlon", "brand:wikidata": "Q509349", "check_date": "2025-07-07", "fax": "+33 1 44 06 82 01", "internet_access": "wlan", "internet_access:fee": "no", "level": "0;1", "name": "Decathlon", "opening_hours": "Mo-Sa 09:30-20:00", "payment:cash": "yes", "payment:mastercard": "yes", "payment:visa": "yes", "phone": "+33 1 44 06 82 00", "service:bicycle:pump": "yes", "service:bicycle:repair": "yes", "service:bicycle:retail": "yes", "service:bicycle:stand": "yes", "service:bicycle:tools": "yes", "shop": "sports", "toilets": "no", "website": "https://www.decathlon.fr/store-view/magasin-de-sports-paris-rive-gauche-0070042900429", "wheelchair": "yes"}}, {"type": "way", "id": 319273555, "nodes": [3256849200, 3440917098, 3256849194, 3256849198, 3471564387, 3256849201, 3256849208, 3247567946, 3256849200], "tags": {"brand": "Relay", "brand:wikidata": "Q3424298", "brand:wikipedia": "en:Relay (shop)", "indoor": "room", "layer": "-2", "level": "-2", "name": "Relay", "opening_hours": "Mo-Th 06:30-10:15,15:30-19:15; Fr 06:30-10:15,15:30-18:45", "operator": "Relay", "room": "shop", "shop": "newsagent", "wheelchair": "yes"}}, {"type": "way", "id": 337013801, "nodes": [3256849205, 3441085429, 3520083612, 3259571465, 3441085431, 3471564389, 3256849205], "tags": {"brand": "Boutique Grandes Lignes", "brand:wikidata": "Q13646", "brand:wikipedia": "fr:Soci\u00e9t\u00e9 nationale des chemins de fer fran\u00e7ais", "indoor": "room", "layer": "-2", "level": "-2", "name": "Boutique Grandes Lignes", "network": "Grandes Lignes", "operator": "SNCF", "room": "shop", "shop": "ticket", "wheelchair": "yes"}}, {"type": "way", "id": 337013802, "nodes": [3441085425, 3520083611, 3441085427, 3259571465, 3520083612, 3441085425], "tags": {"indoor": "room", "layer": "-2", "level": "-2", "name": "Agence Transilien", "operator": "SNCF", "room": "shop", "shop": "ticket", "wheelchair": "yes"}}, {"type": "way", "id": 337013803, "nodes": [3520083610, 3441085423, 3441085427, 3520083611, 3520083610], "tags": {"indoor": "room", "layer": "-2", "level": "-2", "name": "Hubiz", "operator": "Relay", "room": "shop", "shop": "newsagent", "wheelchair": "yes"}}, {"type": "way", "id": 337013804, "nodes": [3257051694, 3441085435, 3257051686, 3442342885, 3257051690, 3257051693, 3442342993, 3257051694], "tags": {"brand": "Relay", "brand:wikidata": "Q3424298", "brand:wikipedia": "en:Relay (shop)", "indoor": "room", "layer": "-2", "level": "-2", "name": "Relay", "operator": "Relay", "room": "shop", "shop": "newsagent", "wheelchair": "yes"}}, {"type": "way", "id": 337133435, "nodes": [3442342889, 3257051693, 3257051690, 3442342885, 3442342891, 3471575002, 3442342996, 3442342889], "tags": {"indoor": "room", "layer": "-2", "level": "-2", "mapillary:E": "GltOmRequoZT4kE1exwoAA", "name": "Au palais des fruits", "room": "shop", "shop": "greengrocer"}}, {"type": "way", "id": 374933908, "nodes": [3783187997, 3783187995, 3442342993, 3257051694, 3783187994, 3779854599, 3779860247, 3779860249, 3779860252, 3779860253, 3779854600, 3779860251, 3779860084, 3783187996, 3783187997], "tags": {"addr:city": "Paris", "addr:postcode": "75013", "addr:street": "H\u00e9micycle", "layer": "-2", "level": "-2", "name": "Bread & Co.", "shop": "bakery", "source": "survey 2015"}}, {"type": "way", "id": 1063223362, "nodes": [6015104288, 9766790356, 6015104292, 13004155393, 13004155396, 13004155389, 13004155386, 6015104288], "tags": {"branch": "Paris Gare d\u2019Austerlitz", "brand": "Relay", "brand:wikidata": "Q3424298", "building": "retail", "building:levels": "1", "building:prefabricated": "yes", "check_date": "2025-10-03", "check_date:opening_hours": "2025-10-02", "drink:coffee": "takeaway", "level": "0", "name": "Relay", "opening_hours": "Mo-Sa 06:00-22:00; PH,Su 07:00-22:00", "payment:bimpli": "yes", "payment:cash": "yes", "payment:contactless": "yes", "payment:credit_cards": "yes", "payment:debit_cards": "yes", "payment:edenred_card": "no", "payment:mastercard": "yes", "payment:pluxee": "no", "payment:sodexo": "no", "payment:swile": "yes", "payment:visa": "yes", "phone": "+33 1 45 82 89 02", "ref:FR:SIRET": "54209533612349", "roof:levels": "0", "roof:shape": "flat", "sells:lottery": "no", "sells:tobacco": "yes", "shop": "newsagent", "website": "https://www.relay.com/stores/relay-paris-gare-d-austerlitz/"}}, {"type": "way", "id": 1226335972, "nodes": [6913722350, 11372190148, 11372190141, 11372190149, 11372190144, 11372190146, 11372190142, 11372190143, 11372190147, 11372190145, 11372190150, 6913722350], "tags": {"building": "yes", "check_date:opening_hours": "2024-04-05", "level": "0", "name:signed": "no", "opening_hours:signed": "no", "operator": "Le kiosque de Paris", "shop": "kiosk", "wheelchair": "yes"}}, {"type": "way", "id": 1396257516, "nodes": [3408865891, 6831183137, 6831183142, 6831183143, 6831183144, 6831183150, 6831183152, 6831183151, 6831183149, 6831183157, 6831183153, 6828258862, 6828258858, 6828258847, 6828258848, 6828258842, 6828258841, 6828258849, 6828258850, 6828258844, 6828258843, 6828258851, 6828258852, 6828258845, 6828258846, 6831193519, 6831193517, 6831183184, 6831193518, 6831193516, 6831193514, 6831193487, 6831193515, 6831193513, 6831193511, 6831193490, 6831193512, 6831193510, 6831193508, 6831193507, 6831193509, 6831193506, 3408865891], "tags": {"indoor": "room", "level": "0", "name": "Agence Centre Val de Loire", "opening_hours": "Mo-Fr 08:00-19:00; Sa,Su,PH 10:00-17:45", "operator": "SNCF", "shop": "ticket", "tickets:public_transport": "yes"}}]}